No.,NT_Name {properties.title},ID,DCMSList,Strapline,Y {latitude},X {longitude},Lines,Town,County,Country,Postcode,Region,Phone,Email,Website {properties.url},"{$.@id=""https://w3id.org/locolligo/National-Trust-Sites""}"
1,Ascott,14,1,"Half-timbered house originating from 1606, transformed by the Rothschilds in the late 19th century, containing superb collections.",51.895802,-0.70058,Wing,near Leighton Buzzard,Buckinghamshire,England,LU7 0PR,London and South East,4.41297E+11,ascott@nationaltrust.org.uk,https://www.nationaltrust.org.uk/ascott,
2,Peckover House and Garden,258,1,Elegant Georgian town house with wonderful walled garden,52.665487,0.154538,North Brink,Wisbech,Cambridgeshire,England,PE13 1JR,East of England,4.41946E+11,peckover@nationaltrust.org.uk,https://www.nationaltrust.org.uk/peckover-house-and-garden,
3,"Bridestones, Crosscliff and Blakey Topping",51,0,Moorland nature reserve with unusual and unique rock formations,54.302502,-0.66015,Staindale; Dalby,Pickering,North Yorkshire,England,YO18 7LR,Yorkshire and North East,4.41724E+11,bridestones@nationaltrust.org.uk,https://www.nationaltrust.org.uk/bridestones-crosscliff-and-blakey-topping,
4,Conwy Suspension Bridge,89,1,Elegant suspension bridge and toll-keeper's house,53.281128,-3.828009,--,--,Conwy,Wales,LL32 8LD,Wales,4.41493E+11,conwybridge@nationaltrust.org.uk,https://www.nationaltrust.org.uk/conwy-suspension-bridge,
5,"The Coombes, Hinton Parva",6110,0,Rare wildflowers and a myriad of butterflies,51.540943,-1.672638,Bodyhorse Hill; Hinton Parva,--,Wiltshire,England,SN4 0DH,South West,4.41673E+11,wiltshire.countryside@nationaltrust.org.uk,https://www.nationaltrust.org.uk/the-coombes-hinton-parva,
6,"Longshaw, Burbage and the Eastern Moors",213,0,Excellent walking country with ancient woods and tumbling streams,53.316263,-1.600686,Longshaw,near Sheffield,Derbyshire,England,--,Midlands,4.41434E+11,peakdistrict@nationaltrust.org.uk,https://www.nationaltrust.org.uk/longshaw-burbage-and-the-eastern-moors,
7,Ludshott Commons,6158,0,One of the largest remaining areas of heathland in east Hampshire,51.1084,-0.77936,Headley Road,Nr Headley Down,Hampshire,England,GU26 6JJ,London and South East,4.41429E+11,selborneandludshott@nationaltrust.org.uk,https://www.nationaltrust.org.uk/ludshott-commons,
8,Houghton Mill and Waterclose Meadows,177,1,Impressive working 18th-century watermill and campsite,52.3311,-0.1204,Houghton,near Huntingdon,Cambridgeshire,England,PE28 2AZ,East of England,4.4148E+11,houghtonmill@nationaltrust.org.uk,https://www.nationaltrust.org.uk/houghton-mill-and-waterclose-meadows,
9,Buckingham Chantry Chapel,56,1,"Fifteenth-century chapel, restored by Gilbert Scott in 1875",52.000999,-0.98665,Market Hill,Buckingham,Buckinghamshire,England,MK18 1JX,London and South East,4.41281E+11,buckinghamchantry@nationaltrust.org.uk,https://www.nationaltrust.org.uk/buckingham-chantry-chapel,
10,Morville Hall,230,1,Stone-built house of Elizabethan origin,52.544399,-2.49188,Morville,near Bridgnorth,Shropshire,England,WV16 5NB,Midlands,4.41747E+11,dudmaston@nationaltrust.org.uk,https://www.nationaltrust.org.uk/morville-hall,
11,Dudmaston,111,1,A working estate with an old family home at its heart,52.495701,-2.36803,Quatt,near Bridgnorth,Shropshire,England,WV15 6QN,Midlands,4.41747E+11,dudmaston@nationaltrust.org.uk,https://www.nationaltrust.org.uk/dudmaston,
12,King John's Hunting Lodge,190,1,Wool-merchant's house of circa 1500,51.2864,-2.82384,The Square,Axbridge,Somerset,England,BS26 2AP,South West,4.41935E+11,kingjohns@nationaltrust.org.uk,https://www.nationaltrust.org.uk/king-johns-hunting-lodge,
13,Marley Common,6061,0,"Coconut-scents, purple heather and intimate woodland walks",51.073106,-0.7356069,Marley Lane,Haslemere,Surrey,England,GU27 3PU,London and South East,4.41429E+11,southdownswest@nationaltrust.org.uk,https://www.nationaltrust.org.uk/marley-common,
14,Owletts,253,1,Family home of the renowned architect Sir Herbert Baker,51.39313,0.391894,The Street; Cobham,Gravesend,Kent,England,DA12 3AP,London and South East,4.41733E+11,owletts@nationaltrust.org.uk,https://www.nationaltrust.org.uk/owletts,
15,Nether Alderley Mill,238,1,"Concealed under the long sloping roof of this medieval building is a fully restored, working corn mill.",53.281101,-2.23655,Congleton Road; Nether Alderley,Macclesfield,Cheshire,England,SK10 4TW,North West,4.41626E+11,netheralderleymill@nationaltrust.org.uk,https://www.nationaltrust.org.uk/nether-alderley-mill,
16,Sandilands,900011,0,A new haven for nature on Lincolnshire's wild coast,53.298127,0.294369,Huttoft Bank,nr Sutton-on-Sea,Lincolnshire,England,LN13 9RS,Midlands,4.41755E+11,sandilands@nationaltrust.org.uk,https://www.nationaltrust.org.uk/sandilands,
17,Brownsea Island,54,1,"Famous for red squirrels, wildlife and Scouting",50.6884,-1.95622,Poole Harbour,Poole,Dorset,England,BH13 7EE,South West,4.41203E+11,brownseaisland@nationaltrust.org.uk,https://www.nationaltrust.org.uk/brownsea-island,
18,Biddulph Grange Garden,32,1,"A masterpiece of Victorian garden design - a quirky, playful paradise",53.129601,-2.15629,Grange Road,Biddulph,Staffordshire,England,ST8 7SD,Midlands,4.41783E+11,biddulphgrange@nationaltrust.org.uk,https://www.nationaltrust.org.uk/biddulph-grange-garden,
19,Black Down,6055,0,The highest point in the South Downs National Park,51.0700074,-0.6873412,Tennyson's Lane,Haslemere,Surrey,England,GU27 3BJ,London and South East,4.41429E+11,southdownswest@nationaltrust.org.uk,https://www.nationaltrust.org.uk/black-down,
20,Ashleworth Tithe Barn,16,1,15th-century tithe barn,51.924198,-2.26572,--,Ashleworth,Gloucestershire,England,GL19 4JA,South West,4.41453E+11,cotswolds@nationaltrust.org.uk,https://www.nationaltrust.org.uk/ashleworth-tithe-barn,
21,Fenton House and Garden,129,1,Handsome 17th-century house with walled garden,51.558773,-0.180926,Hampstead Grove,Hampstead,London,England,NW3 6SP,London and South East,4.42074E+11,fentonhouse@nationaltrust.org.uk,https://www.nationaltrust.org.uk/fenton-house-and-garden,
22,Alfriston Clergy House,6,1,The first building saved forever for the nation by the National Trust ,50.803299,0.16206,The Tye; Alfriston,Polegate,East Sussex,England,BN26 5TL,London and South East,4.41324E+11,alfriston@nationaltrust.org.uk,https://www.nationaltrust.org.uk/alfriston-clergy-house,
23,Finchampstead Ridges,90004,0,Finchampstead Ridges,51.36420527,-0.839402349,--,--,--,--,--,--,--,--,--,
24,Dunstanburgh Castle,114,1,Massive ruined castle in an impressive coastal setting,55.4911,-1.59632,Craster,Alnwick,Northumberland,England,NE66 3TT,Yorkshire and North East,--,dunstanburghcastle@nationaltrust.org.uk,https://www.nationaltrust.org.uk/dunstanburgh-castle,
25,Claife Viewing Station and Windermere West Shore,169,0,Colourful Viewing Station with endless lake views and waterside paths,54.351458,-2.942319,Beside the Ferry on Windermere's west shore; near Far Sawrey,Hawkshead,Cumbria,England,--,North West,4.41539E+11,claife@nationaltrust.org.uk,https://www.nationaltrust.org.uk/claife-viewing-station-and-windermere-west-shore,
26,Compton Bay and Downs,5078,0,One of the Island's favourite beaches and biggest expanses of open downland,50.655106,-1.4664884,Compton,--,Isle of Wight,England,PO30 4HB,London and South East,4.41984E+11,comptonbay@nationaltrust.org.uk,https://www.nationaltrust.org.uk/compton-bay-and-downs,
27,Petts Wood and Hawkwood,6074,0,An oasis of peace and tranquillity only 13 miles south-east from the centre of London,51.398808,0.082993,--,Chislehurst,Kent,England,BR5 1NZ,London and South East,4.41733E+11,pettswood@nationaltrust.org.uk,https://www.nationaltrust.org.uk/petts-wood-and-hawkwood,
28,New Forest Northern Commons,6132,0,"A colourful mosaic of blooming heather and gorse, braided wetlands and ancient woodland pasture",50.873754,-1.7679058,New Forest,--,Hampshire,--,--,London and South East,4.41426E+11,info.newforest@nationaltrust.org.uk,https://www.nationaltrust.org.uk/new-forest-northern-commons,
29,Hardy's Cottage,168,1,Evocative cob and thatch cottage - birthplace of Thomas Hardy,50.731308,-2.386136,Higher Bockhampton,near Dorchester,Dorset,England,DT2 8QJ,South West,4.41305E+11,hardyscottage@nationaltrust.org.uk,https://www.nationaltrust.org.uk/hardys-cottage,
30,Great Chalfield Manor and Garden,150,1,Charming 15th-century manor house with Arts and Crafts garden,51.368198,-2.19942,--,near Melksham,Wiltshire,England,SN12 8NH,South West,4.41226E+11,greatchalfieldmanor@nationaltrust.org.uk,https://www.nationaltrust.org.uk/great-chalfield-manor-and-garden,
31,Downs Banks,5234,0,A little wilderness of woodlands and heath in the heart of the Midlands,52.927613,-2.150201,Washdale Lane; Oulton Heath,Near Stone,Staffordshire,England,--,Midlands,4.4189E+11,downsbanks@nationaltrust.org.uk,https://www.nationaltrust.org.uk/downs-banks,
32,Southwood Estate,6206,0,"Explore Southwood's timeless landscape of wooded valleys, floral fields and craggy clifftops. Stretching straight to the sea, this charming coastal spot is full of scenic surprises.",51.8509,-5.1142,--,"Newgale, Roch",Pembrokeshire,Wales,SA62 6AR,Wales,4.41438E+11,southwoodestate@nationaltrust.org.uk,https://www.nationaltrust.org.uk/southwood-estate,
33,Burton Bradstock,5444,0,Spectacular coastline with cliffs and miles of unspoilt beaches,50.696606,-2.722042,--,near Bridport,Dorset,England,--,South West,4.41297E+11,burtonbradstock@nationaltrust.org.uk,https://www.nationaltrust.org.uk/burton-bradstock,
34,Long Crendon Courthouse,210,1,Medieval courthouse,51.775002,-0.98567,Long Crendon,Aylesbury,Buckinghamshire,England,HP18 9AN,London and South East,4.41281E+11,longcrendon@nationaltrust.org.uk,https://www.nationaltrust.org.uk/long-crendon-courthouse,
35,Greyfriars' House and Garden,153,1,"Late medieval merchant's house, rescued from demolition, in Worcester city centre",52.190455,-2.21898,Friar Street,Worcester,Worcestershire,England,WR1 2LZ,Midlands,44190523571,greyfriars@nationaltrust.org.uk,https://www.nationaltrust.org.uk/greyfriars-house-and-garden,
36,Hambledon Hill,6204,0,Iron Age hill fort with far reaching views and spectacular wildflowers,50.911692,-2.22182,Child Okeford,--,Dorset,England,DT11 8HD,South West,4.41297E+11,westdorset@nationaltrust.org.uk,https://www.nationaltrust.org.uk/hambledon-hill,
37,Nuffield Place,4521,1,The home of one of the most remarkable men of the 20th century,51.585772,-1.02099,Huntercombe,near Henley-on-Thames,Oxfordshire,England,RG9 5RY,London and South East,4.41492E+11,nuffieldplace@nationaltrust.org.uk,https://www.nationaltrust.org.uk/nuffield-place,
38,Ashclyst Forest,6220,0,A magical forest on the Killerton estate and one of the largest woods in East Devon.,50.7875671,-3.421156,Forest Gate car park; near Broadclyst,Exeter,Devon,England,--,South West,4.41393E+11,killerton@nationaltrust.org.uk,https://www.nationaltrust.org.uk/ashclyst-forest,
39,Cleddau Woodlands,6018,0,"Follow the Cleddau waterway through tranquil, ancient woodland, expansive salt marsh and heritage-rich tidal creeks. Its journey from river to estuary is as peaceful and picturesque as they come.",51.719232,-4.878005,Little Milford: SA62 4ET; Lawrenny: SA68 0PR,West Williamston: SA68 0TL,--,--,--,Wales,4.41438E+11,cleddauwoodlands@nationaltrust.org.uk,https://www.nationaltrust.org.uk/cleddau-woodlands,
40,Oldbury Hill,6071,0,Discover the remains of an Iron Age hill fort,51.278589,0.262127,Styants Bottom Road; Near Ightham Common,Ightham,Kent,England,TN15 0ET,London and South East,4.41733E+11,northkentcountryside@nationaltrust.org.uk,https://www.nationaltrust.org.uk/oldbury-hill,
41,Bateman's,24,1,"Jacobean house, home of Rudyard Kipling",50.987701,0.37695,Bateman's Lane,Burwash,East Sussex,England,TN19 7DS,London and South East,4.41436E+11,batemans@nationaltrust.org.uk,https://www.nationaltrust.org.uk/batemans,
42,Paxton's Tower,6151,1,"Neo-Gothic folly erected in honour of Lord Nelson, situated on a hilltop near Llanarthney in the Towy Valley",51.851831,-4.11978,Llanarthney,Carmarthen,Carmarthenshire,Wales,--,Wales,4.41559E+11,paxtonstower@nationaltrust.org.uk,--,
43,Hardwick Estate: Stainsby Mill,310,1,A wonderful world of wheels and water,53.183275,-1.31952,Doe Lea,Chesterfield,Derbyshire,England,S44 5RW,Midlands,4.41247E+11,stainsbymill@nationaltrust.org.uk,https://www.nationaltrust.org.uk/hardwick-estate-stainsby-mill,
44,Denbies Hillside,5371,0,Dramatic and stunning chalk escarpment with panoramic views,51.240398,-0.361131,Ranmore Common Road,near Dorking,Surrey,England,RH5 6SR,London and South East,4.41307E+11,northdownswest@nationaltrust.org.uk,https://www.nationaltrust.org.uk/denbies-hillside,
45,Tarn Hows and Coniston,4554,0,Majestic views and peaceful walks in beautiful countryside,54.387268,-3.038192,--,near Coniston,Cumbria,England,--,North West,4.41539E+11,tarnhows@nationaltrust.org.uk,https://www.nationaltrust.org.uk/tarn-hows-and-coniston,
46,Cadbury Camp,5070,0,Iron Age hill fort on the ridge above the village of Tickenham in North Somerset,51.4479,-2.78711,Above Tickenham,Nr Clevedon,North Somerset,England,BS20,South West,4.4118E+11,leighwoods@nationaltrust.org.uk,https://www.nationaltrust.org.uk/cadbury-camp,
47,Carne and Pendower,6142,0,Two amazing sandy beaches on the Roseland peninsula,50.207385,-4.937177,Carne beach; Veryan,Truro,Cornwall,England,TR2 5PF,South West,4.41873E+11,carne@nationaltrust.org.uk,https://www.nationaltrust.org.uk/carne-and-pendower,
48,Sandymouth,5414,0,A popular but unspoilt beach of pebbles and sand backed by incredible twisted cliffs.,50.861586,-4.553875,near Bude,--,Cornwall,England,--,South West,4.41209E+11,bude@nationaltrust.org.uk,https://www.nationaltrust.org.uk/sandymouth,
49,Lytes Cary Manor,218,1,Intimate manor house with Arts and Crafts-style garden,51.036701,-2.67134,--,near Somerton,Somerset,England,TA11 7HU,South West,4.41458E+11,lytescarymanor@nationaltrust.org.uk,https://www.nationaltrust.org.uk/lytes-cary-manor,
50,Whitehaven Coast,6188,0,There are hidden gems of history and wildlife along this post-industrial coastline,54.543763,-3.598891,"Whitehaven Coast; Haig Pit Car Park, Solway Road",Whitehaven,Cumbria,England,CA28 9BG,North West,4.41769E+11,whitehavencoast@nationaltrust.org.uk,https://www.nationaltrust.org.uk/whitehaven-coast,
51,Steam Yacht Gondola,146,0,Rebuilt Victorian steam-powered yacht on Coniston Water,54.363899,-3.06483,Coniston Pier; Lake Road,Coniston,Cumbria,England,LA21 8AN,North West,4.41539E+11,sygondola@nationaltrust.org.uk,https://www.nationaltrust.org.uk/steam-yacht-gondola,
52,Dunsland,5082,0,A grand Parkland abundant in wildlife and with over 900 years of history,50.825348,-4.258894,Dunsland Park; Brandis Corner,"Holemoor, Nr Holsworthy",Devon,England,EX22 7YE,South West,4.41237E+11,northdevon@nationaltrust.org.uk,https://www.nationaltrust.org.uk/dunsland,
53,Reigate Hill and Gatton Park,5445,0,A spectacular escarpment with sweeping views across the Weald,51.25422,-0.200137,Reigate Hill; Wray Lane,Reigate,Surrey,England,RH2 0HX,London and South East,4.41343E+11,reigate@nationaltrust.org.uk,https://www.nationaltrust.org.uk/reigate-hill-and-gatton-park,
54,Abereiddi to Abermawr,5409,0,"Blue Lagoon, beaches, rocks and ruins; this wild stretch of coastline is where industry and adventure combine. Dive right into the past and see how stone quarries have paved the way for thrill-seekers.",51.93824,-5.207767,Abereiddi: SA62 6DT; Abermawr: SA62 5UX,--,--,--,--,Wales,4.41438E+11,abereidditoabermawr@nationaltrust.org.uk,https://www.nationaltrust.org.uk/abereiddi-to-abermawr,
55,"Kinder, Edale and the High Peak",4509,0,Heather-clad moors of Kinder to the gritstone tors of Derwent Edge,53.3458,-1.8156,near Hope Valley,--,Derbyshire,England,S33 8WA nearest postcode area,Midlands,4.41434E+11,peakdistrict@nationaltrust.org.uk,https://www.nationaltrust.org.uk/kinder-edale-and-the-high-peak,
56,Lavington Common,6060,0,A rare pocket of open heath amongst plantation woodland,50.9601325,-0.6503195,Woolbeding Estate Office; Linch Road,Woolbeding,West Sussex,England,GU29 OQB,London and South East,4.41731E+11,southdownswest@nationaltrust.org.uk,https://www.nationaltrust.org.uk/lavington-common,
57,Castle Drogo,68,1,"Nothing is normal. Dramatic castle overlooking the Teign Gorge, undergoing a conservation project to make it watertight",50.698898,-3.80881,Drewsteignton,near Exeter,Devon,England,EX6 6PB,South West,4.41647E+11,castledrogo@nationaltrust.org.uk,https://www.nationaltrust.org.uk/castle-drogo,
58,Sunnycroft,325,1,"A comfortable home telling the story of a brewer, a widow and three generations of the Lander family",52.6955,-2.5167,200 Holyhead Road; Wellington,Telford,Shropshire,England,TF1 2DR,Midlands,4.41952E+11,sunnycroft@nationaltrust.org.uk,https://www.nationaltrust.org.uk/sunnycroft,
59,Dinton Park and Philipps House,261,1,Enjoy far-reaching rolling parkland with tranquil views in the grounds of a Neo-Grecian house. ,51.0849,-1.98937,Dinton,Salisbury,Wiltshire,England,SP3 5HH,South West,4.41673E+11,sw.customerenquiries@nationaltrust.org.uk,https://www.nationaltrust.org.uk/dinton-park-and-philipps-house,
60,Townend,333,1,Atmospheric farmhouse full of quirky objects and fascinating stories,54.412498,-2.91477,Troutbeck,Windermere,Cumbria,England,LA23 1LB,North West,4.41539E+11,townend@nationaltrust.org.uk,https://www.nationaltrust.org.uk/townend,
61,Sissinghurst Castle Garden,299,1,"Historic, poetic, iconic; a refuge dedicated to beauty. Vita Sackville-West and Harold Nicolson fell in love with Sissinghurst Castle and created a world renowned garden. ",51.113899,0.58511,Biddenden Road,near Cranbrook,Kent,England,TN17 2AB,London and South East,4.41581E+11,sissinghurst@nationaltrust.org.uk,https://www.nationaltrust.org.uk/sissinghurst-castle-garden,
62,Sticklebarn and The Langdales,5216,0,"An adventure playground of rugged slopes, craggy summits and a cracking pint ",54.44897,-3.0902951,Great Langdale,near Ambleside,Cumbria,England,LA22 9JU,North West,4.41539E+11,sticklebarn@nationaltrust.org.uk,https://www.nationaltrust.org.uk/sticklebarn-and-the-langdales,
63,Aira Force and Ullswater,343,0,Aira Force is a showcase for the power and beauty of nature; it's a place to escape the ordinary.,54.5751,-2.92949,near Watermillock,Penrith,Cumbria,England,CA11 0JS,North West,4.41768E+11,ullswater@nationaltrust.org.uk,https://www.nationaltrust.org.uk/aira-force-and-ullswater,
64,Murlough National Nature Reserve,543,0,An extraordinarily beautiful dune landscape,54.224645,-5.88365,Keel Point,Dundrum,County Down,Northern Ireland,BT33 0NQ,Northern Ireland,4.42844E+11,murlough@nationaltrust.org.uk,https://www.nationaltrust.org.uk/murlough-national-nature-reserve,
65,King's Head,186,1,Historic ancient coaching inn in the heart of Aylesbury,51.8164723,-0.8135919,King's Head Passage; Market Square,Aylesbury,Buckinghamshire,England,HP20 2RW,London and South East,4.41297E+11,info@farmersbar.co.uk,https://www.nationaltrust.org.uk/kings-head,
66,Bodiam Castle,42,1,Archetypal 14th century moated castle with ruined interior - a glimpse of medieval splendour,51.000099,0.54741,Bodiam,near Robertsbridge,East Sussex,England,TN32 5UA,London and South East,4.41581E+11,bodiamcastle@nationaltrust.org.uk,https://www.nationaltrust.org.uk/bodiam-castle,
67,Holmwood Common,6125,0,Ancient common once owned by King Harold and William the Conqueror,51.20124286,-0.32673614,Blackbrook Road,Holmwood,Surrey,England,RH5 4NX,London and South East,4.41307E+11,leithhill@nationaltrust.org.uk,https://www.nationaltrust.org.uk/holmwood-common,
68,Kyson Hill,6211,0,Escape from it all at Kyson Hill,52.080922,1.309956,Broomheath,Woodbridge,Suffolk,England,IP12 4DN,East of England,4.41394E+11,kysonhill@nationaltrust.org.uk,https://www.nationaltrust.org.uk/kyson-hill,
69,Bibury,5059,1,A row of tenanted 17th-century weavers' cottages and water meadow set in the Cotswold village of Bibury,51.759018,-1.833845,Bibury; Nr Cirencester,--,Gloucestershire,England,GL7 5NP,South West,4.41452E+11,cotswolds@nationaltrust.org.uk.,https://www.nationaltrust.org.uk/bibury,
70,Rosedene,2588,1,Mid 19th-century Chartist cottage,52.354698,-2.10304,Victoria Road; Dodford,near Bromsgrove,Worcestershire,England,B61 9BU,Midlands,4.41528E+11,rosedene@nationaltrust.org.uk,https://www.nationaltrust.org.uk/rosedene,
71,Dyrham Park,119,1,"Ancient parkland, 17th-century house and garden",51.4805,-2.3629,Dyrham,near Bath,South Gloucestershire,England,SN14 8HY,South West,4.41179E+11,dyrhampark@nationaltrust.org.uk,https://www.nationaltrust.org.uk/dyrham-park,
72,Ennerdale,6196,0,Home of the Wild Ennerdale project with 30 miles of traffic-free paths,54.524792,-3.414473,Bleach Green car park; Ennerdale Bridge,Cleator Moor,Cumbria,England,CA23 3AS,North West,4.41769E+11,ennerdale@nationaltrust.org.uk,https://www.nationaltrust.org.uk/ennerdale,
73,"Gunby Estate, Hall and Gardens",155,1,A homely country house dated 1700 set in Victorian walled gardens at the foot of the Lincolnshire Wolds,53.178001,0.19669,Gunby,Spilsby,Lincolnshire,England,PE23 5SS,Midlands,4.41755E+11,gunbyhall@nationaltrust.org.uk,https://www.nationaltrust.org.uk/gunby-estate-hall-and-gardens,
74,Blakeney National Nature Reserve,33,0,Spectacular wildlife and uninterrupted views of beautiful coastline,52.957752,0.985829,Morston Quay; Quay Road,Morston,Norfolk,England,NR25 7BH,East of England,4.41264E+11,blakeneypoint@nationaltrust.org.uk,https://www.nationaltrust.org.uk/blakeney-national-nature-reserve,
75,Buscot Park,59,1,"Late 18th-century house, set in enchanting landscaped grounds",51.6703,-1.64498,--,Faringdon,Oxfordshire,England,SN7 8BU,London and South East,4.41367E+11,buscotpark@nationaltrust.org.uk,https://www.nationaltrust.org.uk/buscot-park,
76,Cemlyn,6190,0,"A ruggedly beautiful coastline of rocks, small bays and headlands to delight walkers. Area of Outstanding Natural Beauty.",53.412223,-4.5154109,Cemlyn Nature Reserve; Cemlyn,Cemaes Bay,Anglesey,Wales,LL67 0DY,Wales,4.41249E+11,cemlyn@nationaltrust.org.uk,https://www.nationaltrust.org.uk/cemlyn,
77,Barrington Court,22,1,"An atmospheric fragment of old Somerset: an empty Tudor manor house, beautifully restored in the 1920s, with farm buildings, abundant flowers and orchards.",50.960499,-2.85778,Barrington,near Ilminster,Somerset,England,TA19 0NQ,South West,4.4146E+11,barringtoncourt@nationaltrust.org.uk,https://www.nationaltrust.org.uk/barrington-court,
78,Heddon Valley,170,0,"Towering cliffs, coves and a wooded valley within Exmoor National Park",51.215599,-3.92621,Heddon Valley; Near Parracombe,Barnstaple,Devon,England,EX31 4PY,South West,4.41599E+11,northdevon@nationaltrust.org.uk,https://www.nationaltrust.org.uk/heddon-valley,
79,Musbury Hill Fort,6089,0,A mysterious hill fort overlooking the beautiful village of Musbury,50.73977,-3.017635,Musbury,Axminster,Devon,England,EX13,South West,4.41752E+11,southdevon@nationaltrust.org.uk,--,
80,Crownley Woods,6077,0,Discover secluded creeks on this walk following the River Dart,50.395073,-3.666344,Ashprington,Totnes,Devon,England,TQ9,South West,4.41804E+11,southdevon@nationaltrust.org.uk,--,
81,Lisnabreeny,6115,0,A picturesque walk from wooded glen to hilltop rath,54.561886,-5.8889723,Manse Road,Belfast,County Down,Northern Ireland,BT8 6SA,Northern Ireland,4.42891E+11,belfast@nationaltrust.org.uk,https://www.nationaltrust.org.uk/lisnabreeny,
82,Cobham Wood and Mausoleum,2593,1,"Restored 18th-century mausoleum, set in peaceful wood pasture",51.38846,0.433238,near Cobham,--,Kent,England,--,London and South East,4.41733E+11,cobham@nationaltrust.org.uk,https://www.nationaltrust.org.uk/cobham-wood-and-mausoleum,
83,Newtown National Nature Reserve and Old Town Hall,6004,1,"A quiet backwater with a busy Medieval past, now bursting with wildlife and a town hall with no town...",50.713617,-1.4014146,Town Lane,Newtown,Isle of Wight,England,PO30 4PA,London and South East,4.41984E+11,oldtownhall@nationaltrust.org.uk,https://www.nationaltrust.org.uk/newtown-national-nature-reserve-and-old-town-hall,
84,Marker's,90006,1,Medieval hall-house.,50.765734,-3.4400087,Townend; Broadclyst,Exeter,Devon,England,EX5 3HS,South West,4.41392E+11,markers@nationaltrust.org.uk,https://www.nationaltrust.org.uk/markers,
85,Cherryburn,75,1,"Cottage and farmhouse, the birthplace of Thomas Bewick",54.957001,-1.88361,Station Bank; Mickley Square,Stocksfield,Northumberland,England,NE43 7DD,Yorkshire and North East,4.41662E+11,cherryburn@nationaltrust.org.uk,https://www.nationaltrust.org.uk/cherryburn,
86,Sandham Memorial Chapel,290,1,World famous chapel containing Stanley Spencer's visionary paintings,51.344799,-1.33691,Harts Lane; Burghclere,near Newbury,Hampshire,England,RG20 9JT,London and South East,4.41635E+11,sandham@nationaltrust.org.uk,https://www.nationaltrust.org.uk/sandham-memorial-chapel,
87,Mendip Hills,5177,9,Dramatic gorges and ancient woodland rising above the Somerset Levels,51.296276,-2.721176,Mid Somerset,--,--,--,--,South West,4.41279E+11,somerset.countryside@nationaltrust.org.uk,https://www.nationaltrust.org.uk/mendip-hills,
88,Cotehele,96,1,"An atmospheric Tudor house with Medieval roots, a working mill on an historic quay, a glorious garden with valley views and an expansive estate to explore. ",50.494301,-4.22487,St Dominick,near Saltash,Cornwall,England,PL12 6TA,South West,4.41579E+11,cotehele@nationaltrust.org.uk,https://www.nationaltrust.org.uk/cotehele,
89,One Tree Hill,6072,0,A beautiful slice of Kent countryside,51.256627,0.23421297,Carter's Hill; Under River,Sevenoaks,Kent,England,TN15,London and South East,4.41733E+11,northkentcountryside@nationaltrust.org.uk,https://www.nationaltrust.org.uk/one-tree-hill,
90,Chartwell,72,1,Family home and garden of Sir Winston Churchill,51.2459,0.083513,Mapleton Road,Westerham,Kent,England,TN16 1PS,London and South East,4.41733E+11,chartwell@nationaltrust.org.uk,https://www.nationaltrust.org.uk/chartwell,
91,Newark Park,239,1,"Tudor hunting lodge to intriguing historic home, set in a spectacular estate",51.638802,-2.31369,Newark Park; Ozleworth,Wotton-under-Edge,Gloucestershire,England,GL12 7PZ,South West,4.41454E+11,newarkpark@nationaltrust.org.uk,https://www.nationaltrust.org.uk/newark-park,
92,Arlington Court and the National Trust Carriage Museum,12,1,"Intriguing Regency house and impressive collection of horse-drawn vehicles, set in a picturesque garden",51.145699,-3.98588,Arlington,near Barnstaple,Devon,England,EX31 4LP,South West,4.41272E+11,arlingtoncourt@nationaltrust.org.uk,https://www.nationaltrust.org.uk/arlington-court-and-the-national-trust-carriage-museum,
93,Clyston Mill,90005,1,A working watermill nestled by the River Clyst on the Killerton estate,50.7657297,-3.4475338,Clyston Mill; Broadclyst,Exeter,Devon,UK,EX5 3DX,South West,4.41393E+11,killerton@nationaltrust.org.uk,https://www.nationaltrust.org.uk/clyston-mill,
94,Priory Cottage,271,1,"Former monastic buildings, now converted into two houses",51.620098,-1.32658,1 Mill Street; Steventon,Abingdon,Oxfordshire,England,OX13 6SP,London and South East,4.41794E+11,priorycottages@nationaltrust.org.uk,https://www.nationaltrust.org.uk/priory-cottage,
95,Sheffield Park and Garden,295,1,Acres of landscape garden bordered by historic parkland and woodland,51,0.0094,Sheffield Park,Uckfield,East Sussex,England,TN22 3QX,London and South East,4.41826E+11,sheffieldpark@nationaltrust.org.uk,https://www.nationaltrust.org.uk/sheffield-park-and-garden,
96,Overbeck's Garden,252,1,A hidden paradise of subtropical gardens,50.2202,-3.78489,Sharpitor,Salcombe,Devon,England,TQ8 8LW,South West,4.41549E+11,overbecks@nationaltrust.org.uk,https://www.nationaltrust.org.uk/overbecks-garden,
97,Dalton Castle,103,1,14th-century tower built to assert the authority of the Abbot of Furness Abbey,54.153801,-3.18896,Market Place,Dalton-in-Furness,Cumbria,England,LA15 8AX,North West,4.4154E+11,sizergh@nationaltrust.org.uk,https://www.nationaltrust.org.uk/dalton-castle,
98,Penrose,1130,0,"Wooded country around Cornwall's largest natural lake. Penrose features woodland tracks, stretches of coastline and open parkland, the perfect backdrop for a day out.",50.086196,-5.301873,Penrose,Helston,Cornwall,England,TR13 0RD,South West,4.41327E+11,penrose@nationaltrust.org.uk,https://www.nationaltrust.org.uk/penrose,
99,Duffield Castle,4508,1,The remains of one of England's largest castles,52.9925,-1.4892,Milford Road,Duffield,Derbyshire,England,DE56 4DW,Midlands,4.41333E+11,duffieldcastle@nationaltrust.org.uk,https://www.nationaltrust.org.uk/duffield-castle,
100,Wray Castle,6049,1,"Gothic Revival castle sitting on the shores of Lake Windermere with turrets, towers and informal grounds",54.400611,-2.964237,Low Wray,Ambleside,Cumbria,England,LA22 0JA,North West,4.41539E+11,wraycastle@nationaltrust.org.uk,https://www.nationaltrust.org.uk/wray-castle,
101,Uppark House and Garden,345,1,A tranquil 17th-century house set within intimate gardens and woodland.,50.952702,-0.88896,South Harting,Petersfield,West Sussex,England,GU31 5QR,London and South East,4.41731E+11,uppark@nationaltrust.org.uk,https://www.nationaltrust.org.uk/uppark-house-and-garden,
102,Patterson's Spade Mill,256,1,The last working water-driven spade mill in daily use in the British Isles,54.700777,-6.043718,751 Antrim Road,Templepatrick,County Antrim,Northern Ireland,BT39 0AP,Northern Ireland,4.42894E+11,pattersons@nationaltrust.org.uk,https://www.nationaltrust.org.uk/pattersons-spade-mill,
103,Lanhydrock,198,1,Magnificent late Victorian country house with garden and wooded estate,50.450248,-4.694002,--,Bodmin,Cornwall,England,PL30 4AB,South West,4.41208E+11,lanhydrock@nationaltrust.org.uk,https://www.nationaltrust.org.uk/lanhydrock,
104,Leith Hill Tower and Countryside,200,1,"Come and explore the trails through woodland, heathland, and farmland before climbing to the top of the majestic Leith Hill Tower.",51.176899,-0.37276,near Coldharbour village,Dorking,Surrey,England,--,London and South East,4.41307E+11,leithhill@nationaltrust.org.uk,https://www.nationaltrust.org.uk/leith-hill-tower-and-countryside,
105,Calke Abbey,61,1,The un-stately home and country estate,52.808253,-1.472834,Ticknall,Derby,Derbyshire,England,DE73 7JF,Midlands,4.41333E+11,calkeabbey@nationaltrust.org.uk,https://www.nationaltrust.org.uk/calke-abbey,
106,Quebec House,273,1,"Childhood home of General James Wolfe, victor of the Battle of Quebec (1759)",51.268002,0.07833,Quebec Square,Westerham,Kent,England,TN16 1TD,London and South East,4.4196E+11,quebechouse@nationaltrust.org.uk,https://www.nationaltrust.org.uk/quebec-house,
107,Old Soar Manor,247,1,Remains of a late 13th-century knight's dwelling,51.263059,0.319018,Plaxtol,Borough Green,Kent,England,TN15 0QX,London and South East,4.41733E+11,oldsoarmanor@nationaltrust.org.uk,https://www.nationaltrust.org.uk/old-soar-manor,
108,Hod Hill,5404,0,Dorset's largest hill fort renowned for its downland wildlife,50.875819,-2.203193,Stourpaine,Nr Blandford Forum,Dorset,England,--,South West,4.41297E+11,westdorset@nationaltrust.org.uk,https://www.nationaltrust.org.uk/hod-hill,
109,Mussenden Temple and Downhill Demesne,110,1,Visit this stunning landscape and beautiful gardens.,55.1609,-6.80705,Mussenden Road,Castlerock,County Londonderry,Northern Ireland,BT51 4RP,Northern Ireland,4.42871E+11,downhilldemesne@nationaltrust.org.uk,https://www.nationaltrust.org.uk/mussenden-temple-and-downhill-demesne,
110,Strangford Lough,5045,0,A most beautiful landscape of international importance,54.373741,-5.579002,--,Strangford,County Down,Northern Ireland,--,Northern Ireland,4.42843E+11,strangford@nationaltrust.org.uk,https://www.nationaltrust.org.uk/strangford-lough,
111,Penrhyn Castle and Garden,259,1,Fantasy castle with industrial and colonial foundations,53.217338,-4.1013778,--,Bangor,Gwynedd,Wales,LL57 4HT,Wales,4.41248E+11,penrhyncastle@nationaltrust.org.uk,https://www.nationaltrust.org.uk/penrhyn-castle,
112,Holywell,5053,0,A classic north Cornish beach with a sweep of golden sand and a towering dune system,50.385996,-5.1424974,North Cornwall coast,near Newquay,Cornwall,England,--,South West,4.41209E+11,holywell@nationaltrust.org.uk,https://www.nationaltrust.org.uk/holywell,
113,Bodysgallen Hall and Spa,3040,0,"Bodysgallen Hall Hotel Restaurant & Spa, C17th Grade 1 listed set in 220 acres",53.296799,-3.802557,The Royal Welsh Way,Llandudno,Conwy,Wales,LL30 1RS,Wales,4.41493E+11,info@bodysgallen.com,--,
114,Gibside,142,1,A Georgian landscape garden forged in an industrial past,54.920502,-1.73174,near Rowlands Gill,Gateshead,Tyne & Wear,England,NE16 6BG,Yorkshire and North East,4.41208E+11,gibside@nationaltrust.org.uk,https://www.nationaltrust.org.uk/gibside,
115,Rowallane Garden,281,1,A treasure trove of magical gardens and woodlands,54.447102,-5.82684,--,Saintfield,County Down,Northern Ireland,BT24 7LH,Northern Ireland,4.42898E+11,rowallane@nationaltrust.org.uk,https://www.nationaltrust.org.uk/rowallane-garden,
116,Fell Foot,128,0,Lakeshore park with stunning mountain views,54.27402,-2.952607,Newby Bridge,Windermere,Cumbria,England,LA12 8NN,North West,4.4154E+11,fellfoot@nationaltrust.org.uk,https://www.nationaltrust.org.uk/fell-foot,
117,Cadover Bridge,6218,0,"Tranquil moorland by the River Plym with pools. Starting point for walks across open moors and tors, or ancient woodland",50.463626,-4.036676,on Dartmoor; near Shaugh Prior,--,Devon,England,--,South West,4.41753E+11,dartmoor@nationaltrust.org.uk,https://www.nationaltrust.org.uk/cadover-bridge,
118,Beatrix Potter Gallery and Hawkshead,26,1,Beatrix Potter's original artwork on display in a 17th-century house,54.373798,-2.99525,Main Street,Hawkshead,Cumbria,England,LA22 0NS,North West,4.41539E+11,beatrixpottergallery@nationaltrust.org.uk,https://www.nationaltrust.org.uk/beatrix-potter-gallery-and-hawkshead,
119,Wembury,246,0,"A spectacular stretch of coastline boasting dramatic cliffs, diverse wildlife and a beach renowned for rockpooling",50.316836,-4.084386,Wembury Beach,Wembury,Devon,England,PL9 0HP,South West,4.41752E+11,wembury@nationaltrust.org.uk,https://www.nationaltrust.org.uk/wembury,
120,Combe Wood,6084,0,Escape the bustle and enjoy a secluded woodland walk,50.80767,-3.191013,--,near Honiton,Devon,England,EX14,South West,4.41752E+11,southdevon@nationaltrust.org.uk,--,
121,Roseberry Topping,282,0,Distinctive and iconic landmark with fine views across North Yorkshire and Cleveland,54.5056,-1.10471,--,Newton-under-Roseberry,North Yorkshire,England,TS9 6QR,Yorkshire and North East,4.41724E+11,roseberrytopping@nationaltrust.org.uk,https://www.nationaltrust.org.uk/roseberry-topping,
122,Coldrum Long Barrow,6067,0,Stunning views from the top of the barrow,51.3214,0.3665,Trottiscliffe,West Malling,Kent,England,ME19 5EG,London and South East,4.41733E+11,ighthammote@nationaltrust.org.uk,https://www.nationaltrust.org.uk/coldrum-long-barrow,
123,Port Quin,5425,0,A peaceful sheltered inlet on an outstanding stretch of unspoilt coast,50.588931,-4.866948,North Cornwall coast,near Polzeath,Cornwall,England,--,South West,4.41209E+11,portquin@nationaltrust.org.uk,https://www.nationaltrust.org.uk/port-quin,
124,Lizard Point,207,0,"Dramatic cliffs shaped by the Atlantic. The Lizard features white beaches, turquoise seas and unique nature.  ",49.959434,-5.2063796,The Lizard,near Helston,Cornwall,England,TR12 7NT,South West,4.41326E+11,lizard@nationaltrust.org.uk,https://www.nationaltrust.org.uk/lizard-point,
125,Bransdale,6246,0,"Surrounded by dramatic open moorland, Bransdale is a quiet green oasis characterised by a patchwork of farmland and drystone walls.",54.350815,-1.035879,Bransdale,Fadmoor,Yorkshire,England,YO62 7JL,Yorkshire and North East,4.41724E+11,bransdale@nationaltrust.org.uk,https://www.nationaltrust.org.uk/bransdale,
126,May Hill,5106,0,Wild and open landmark crowned with a distinctive row of pine trees,51.888107,-2.4431175,--,Near Huntley,Gloucestershire,England,--,South West,4.41453E+11,cotswolds@nationaltrust.org.uk,https://www.nationaltrust.org.uk/may-hill,
127,Coleridge Cottage,91,1,Home of Romantic poet Samuel Taylor Coleridge,51.151657,-3.157475,35 Lime Street; Nether Stowey,Bridgwater,Somerset,England,TA5 1NQ,South West,4.41279E+11,coleridge.cottage@nationaltrust.org.uk,https://www.nationaltrust.org.uk/coleridge-cottage,
128,George Stephenson's Birthplace,140,1,Birthplace of the world-famous railway engineer,54.979287,-1.80473,--,near Wylam,Northumberland,England,NE41 8DS,Yorkshire and North East,4.41662E+11,georgestephensons@nationaltrust.org.uk,https://www.nationaltrust.org.uk/george-stephensons-birthplace,
129,Loughwood Meeting House,211,1,Atmospheric 17th-century thatched Baptist meeting house,50.788428,-3.061108,Dalwood,Axminster,Devon,England,EX13 7DU,South West,4.41752E+11,loughwood@nationaltrust.org.uk,https://www.nationaltrust.org.uk/loughwood-meeting-house,
130,Max Gate,221,1,Atmospheric Victorian home designed by Thomas Hardy,50.707901,-2.419803,Alington Avenue,Dorchester,Dorset,England,DT1 2FN,South West,4.41305E+11,maxgate@nationaltrust.org.uk,https://www.nationaltrust.org.uk/max-gate,
131,Bookham Commons,6123,0,"Ancient commons, mentioned in the Domesday Book, with grassland plains, mighty oak woods and serene ponds",51.289827,-0.3804575,Church Road,Great Bookham,Surrey,England,Nearest postcode KT23 3LT,London and South East,4.41307E+11,northdownswest@nationaltrust.org.uk,https://www.nationaltrust.org.uk/bookham-commons,
132,Nymans,243,1," A garden lovers' home for all seasons, with an extensive yet intimate garden set around a romantic house and ruins. ",51.05228,-0.1993913,Handcross,near Haywards Heath,West Sussex,England,RH17 6EB,London and South East,4.41444E+11,nymans@nationaltrust.org.uk,https://www.nationaltrust.org.uk/nymans,
133,Oxburgh Hall,254,1,"Home to the Bedingfeld family for 500 years, Oxburgh reveals one family's unshakable Catholic faith and story of endurance",52.581215,0.5702691,Oxborough,near Swaffham,Norfolk,England,PE33 9PS,East of England,4.41366E+11,oxburghhall@nationaltrust.org.uk,https://www.nationaltrust.org.uk/oxburgh-hall,
134,Porth Meudwy,6169,0,It was from here that the Pilgrims set out to Ynys Enlli (Bardsey Island),52.847872,-4.532271,near Aberdaron,--,Gwynedd,Wales,--,Wales,4.41759E+11,porthmeudwy@nationaltrust.org.uk,--,
135,Saddlescombe Farm and Newtimber Hill,5253,0,A hidden hamlet nestled in the downs,50.888979,-0.1943217,Saddlescombe Road,near Brighton,West Sussex,England,BN45 7DE,London and South East,4.41274E+11,saddlescombe@nationaltrust.org.uk,https://www.nationaltrust.org.uk/saddlescombe-farm-and-newtimber-hill,
136,Winster Market House,6189,1,The first property to be acquired by the National Trust in the Peak District,53.14169,-1.639948,Winster Market House; Main Street,Winster,Derbyshire,England,DE4 2DJ,Midlands,4.41335E+11,winstermarkethouse@nationaltrust.org.uk,https://www.nationaltrust.org.uk/winster-market-house,
137,Boarstall Duck Decoy,40,1,A rare survival of a seventeenth-century duck decoy ,51.828999,-1.09014,Boarstall,near Bicester,Buckinghamshire,England,HP18 9UX,London and South East,4.41281E+11,boarstalldecoy@nationaltrust.org.uk,https://www.nationaltrust.org.uk/boarstall-duck-decoy,
138,Yorkshire Dales,222,0,"Enjoy picturesque villages, drystone walls, flower filled hay meadows and the characteristic rolling hills of the Dales.",54.104698,-2.17682,Malham Tarn; Waterhouses,Settle,North Yorkshire,England,BD24 9PT,Yorkshire and North East,4.4173E+11,yorkshiredales@nationaltrust.org.uk,https://www.nationaltrust.org.uk/yorkshire-dales,
139,Wordsworth House and Garden,382,1,Celebrate William Wordsworth's 250th birthday at his childhood home,54.663601,-3.36678,Main Street,Cockermouth,Cumbria,England,CA13 9RX,North West,4.41901E+11,wordsworthhouse@nationaltrust.org.uk,https://www.nationaltrust.org.uk/wordsworth-house-and-garden,
140,Upton House and Gardens,346,1,Lord and Lady Bearsted's 1930s country retreat.,52.1068,-1.45769,--,near Banbury,Warwickshire,England,OX15 6HT,Midlands,4.41296E+11,uptonhouse@nationaltrust.org.uk,https://www.nationaltrust.org.uk/upton-house-and-gardens,
141,Hidcote,172,1,Arts and Crafts-inspired garden with intricately designed outdoor spaces in the rolling Cotswold hills.,52.084,-1.74364,Hidcote Bartrim,near Chipping Campden,Gloucestershire,England,GL55 6LR,South West,4.41386E+11,hidcote@nationaltrust.org.uk,https://www.nationaltrust.org.uk/hidcote,
142,Hanbury Hall and Gardens,160,1,"William and Mary-style country house, garden and park",52.275398,-2.08633,School Road; Hanbury,Droitwich Spa,Worcestershire,England,WR9 7EA,Midlands,4.41528E+11,hanburyhall@nationaltrust.org.uk,https://www.nationaltrust.org.uk/hanbury-hall-and-gardens,
143,Strumble Head to Cardigan,6017,0,Pick up the pace in Pembrokeshire's walking country; this rugged and remote expanse of towering cliffs and rocky outcrops is punctuated with coastal paths and soaring sea views.,52.006828,-5.064023,--,"Strumble Head, Pencaer to Cardigan",Pembrokeshire,Wales,SA62,Wales,4.41438E+11,strumbletocardigan@nationaltrust.org.uk,https://www.nationaltrust.org.uk/strumble-head-to-cardigan,
144,Fyne Court,137,1,Explore a wild garden,51.082907,-3.112139,Broomfield,Bridgwater,Somerset,England,TA5 2EQ,South West,4.41823E+11,fynecourt@nationaltrust.org.uk,https://www.nationaltrust.org.uk/fyne-court,
145,Carnewas at Bedruthan,65,0,Dramatic coastline with views over huge rock stacks,50.481434,-5.027738,Bedruthan,near Padstow,Cornwall,England,PL27 7UW,South West,4.41638E+11,carnewas@nationaltrust.org.uk,https://www.nationaltrust.org.uk/carnewas-at-bedruthan,
146,Penmaen and Nicholaston Burrows,6095,0,"Archaeology, lichen rich dunes and the award winning Three Cliffs Bay",51.5718,-4.1204,--,--,Swansea,Wales,--,Wales,4.41792E+11,gower.admin@nationaltrust.org.uk,https://www.nationaltrust.org.uk/penmaen-and-nicholaston-burrows,
147,Lindisfarne Castle,202,1,"A year of stories, discoveries and contradictions in a castle (that's not a castle), on an island (that's not an island).",55.6698,-1.78756,Holy Island,Berwick-upon-Tweed,Northumberland,England,TD15 2SH,Yorkshire and North East,4.41289E+11,lindisfarne@nationaltrust.org.uk,https://www.nationaltrust.org.uk/lindisfarne-castle,
148,St Michael's Mount,288,1,"Rocky island crowned by medieval church and castle, home to a living community",50.118099,-5.47565,--,Marazion,Cornwall,England,TR17 0HS,South West,4.41737E+11,stmichaelsmount@nationaltrust.org.uk,https://www.nationaltrust.org.uk/st-michaels-mount,
149,Aberdulais Tin Works and Waterfall,3,1,"An Industrial Revolution, powered by water since 1584!",51.680698,-3.77791,Aberdulais,Neath,Neath Port Talbot,Wales,SA10 8EU,Wales,4.4164E+11,aberdulais@nationaltrust.org.uk,https://www.nationaltrust.org.uk/aberdulais-tin-works-and-waterfall,
150,Selworthy,6241,0,"A timeless rural landscape of thatched cottages, nestled in the vale of the Holnicote Estate.",51.210558,-3.547135,on Exmoor; near Minehead,--,Somerset,England,--,South West,4.41644E+11,selworthy@nationaltrust.org.uk,https://www.nationaltrust.org.uk/selworthy,
151,Shaw's Corner,294,1,Country home of playwright Bernard Shaw for 44 years,51.836215,-0.26844,Ayot St Lawrence,near Welwyn,Hertfordshire,England,AL6 9BX,East of England,4.41439E+11,shawscorner@nationaltrust.org.uk,https://www.nationaltrust.org.uk/shaws-corner,
152,Osterley Park and House,251,1,A Georgian country estate in west London,51.489498,-0.35289,Jersey Road,Isleworth,Middlesex,England,TW7 4RB (sat nav TW7 4RD),London and South East,4.42082E+11,osterley@nationaltrust.org.uk,https://www.nationaltrust.org.uk/osterley-park-and-house,
153,Blackcap,6054,0,A classic downland experience with secret woodland glades,50.895237,-0.04667,--,Lewes,East Sussex,England,--,London and South East,4.41323E+11,blackcap@nationaltrust.org.uk,https://www.nationaltrust.org.uk/blackcap,
154,Buttermere Valley,60,0,"Tranquil area of dramatic fells, farms and woodland, encompassing three lakes",54.523625,-3.268423,Buttermere,near Cockermouth,Cumbria,England,CA13 9UZ,North West,4.41769E+11,buttermere@nationaltrust.org.uk,https://www.nationaltrust.org.uk/buttermere-valley,
155,Souter Lighthouse and The Leas,304,1,A marvel of its age,54.967999,-1.36124,Coast Road; Whitburn,Sunderland,Tyne & Wear,England,SR6 7NH,Yorkshire and North East,4.41915E+11,souter@nationaltrust.org.uk,https://www.nationaltrust.org.uk/souter-lighthouse-and-the-leas,
156,Noss Mayo,6081,0,Discover dramatic cliffs and the tranquil Yealm Estuary,50.3071,-4.036142,Noss Mayo,Plymouth,Devon,England,PL8,South West,4.41752E+11,southdevon@nationaltrust.org.uk,https://www.nationaltrust.org.uk/noss-mayo,
157,South Snowdonia,6014,0,"Remote unspoilt mountains steeped in history, deep wooded valleys and spectacular estuaries",52.80119,-3.88969,Tyn-y-Coed workbase; Ganllwyd,Dolgellau,Gwynedd,Wales,LL40 2HE,Wales,4.41341E+11,eryri@nationaltrust.org.uk,https://www.nationaltrust.org.uk/south-snowdonia,
158,"Felbrigg Hall, Gardens and Estate",127,1,Truly a hidden gem,52.907469,1.25942499,Felbrigg,Norwich,Norfolk,England,NR11 8PP,East of England,4.41264E+11,felbrigg@nationaltrust.org.uk,https://www.nationaltrust.org.uk/felbrigg-hall-gardens-and-estate,
159,Derrymore House,104,1,Late 18th-century thatched house in gentrified vernacular style,54.189899,-6.38167,Bessbrook,Newry,County Armagh,Northern Ireland,BT35 7EF,Northern Ireland,4.42888E+11,derrymore@nationaltrust.org.uk,https://www.nationaltrust.org.uk/derrymore-house,
160,Tattershall Castle,326,1,Magnificent 15th century red brick castle - what wealth and power looks like,53.101002,-0.19063,Sleaford Road,Tattershall,Lincolnshire,England,LN4 4LR,Midlands,4.41526E+11,tattershallcastle@nationaltrust.org.uk,https://www.nationaltrust.org.uk/tattershall-castle,
161,The Hardmans' House,2505,1,Step back in time to the 1950s in this fascinating home and photographic studio,53.399843,-2.9737277,59 Rodney Street,Liverpool,Merseyside,England,L1 9ER,North West,4.41517E+11,thehardmanshouse@nationaltrust.org.uk,https://www.nationaltrust.org.uk/hardmans-house,
162,Chilterns Countryside,6131,0,"Rolling hills, distant views, chalk grassland, and acres of woodland to explore",51.751671,-0.771511,Lodge Hill; Butlers Cross,Aylesbury,Buckinghamshire,England,HP17 0UR,London and South East,4.41495E+11,chilternscountryside@nationaltrust.org.uk,https://www.nationaltrust.org.uk/chilterns-countryside,
163,Lanlay,5098,0,A landscape untouched by a generation of progress,51.47518,-3.32754,--,Peterston-super-Ely,Vale of Glamorgan,Wales,CF5 6LF,Wales,4.41875E+11,brecon@nationaltrust.org.uk,https://www.nationaltrust.org.uk/lanlay,
164,Woolacombe,5109,0,"Spectacular coastline of cliff, coves, beaches, dunes and headlands",51.178733,-4.167389,--,Woolacombe,Devon,England,EX34 7DL (Tourist Information),South West,4.41272E+11,northdevon@nationaltrust.org.uk,https://www.nationaltrust.org.uk/woolacombe,
165,The Weir Garden,356,1,Escape to this spectacular riverside garden and be absorbed by natural beauty. ,52.072899,-2.82203,Swainshill,Hereford,Herefordshire,England,HR4 7QF,Midlands,4.41982E+11,theweir@nationaltrust.org.uk,https://www.nationaltrust.org.uk/the-weir-garden,
166,West Runton and Beeston Regis Heath,6118,0,"Woods, heaths and the best coastal views",52.92557,1.247689,Roman Camp,West Runton,Norfolk,England,NR27 9ND,East of England,4.41264E+11,westrunton@nationaltrust.org.uk,https://www.nationaltrust.org.uk/west-runton-and-beeston-regis-heath,
167,Mill Bay,6216,0,"There are sandy beaches at Mill Bay, Sunny Cove and Seacombe Sands, with rugged walking past coastguard lookouts towards Prawle.",50.22916215,-3.76627275,--,--,--,--,--,--,--,--,--,
168,Lundy,214,0,"Unspoilt island, home to a fascinating array of wildlife amidst dramatic scenery",51.1735,-4.67047,Bristol Channel,--,Devon,England,EX39 2LY (Bookings office),South West,4.41272E+11,northdevon@nationaltrust.org.uk,https://www.nationaltrust.org.uk/lundy,
169,St David's Visitor Centre and Shop,655,0,"Nestled in St David's, the visitor centre and shop is a brilliant base for discovering Pembrokeshire. Plan your visit with the team, have a browse and help support our special places.",51.880299,-5.26292,Captain's House; High Street,St David's,Pembrokeshire,Wales,SA62 6SD,Wales,4.41438E+11,stdavids.shop@nationaltrust.org.uk,https://www.nationaltrust.org.uk/st-davids-visitor-centre-and-shop,
170,Swan Barn Farm,6063,0,A quiet retreat of woodland and pasture only 30 seconds from Haslemere High Street,51.087323,-0.703522,Black Down Estate; Collards Lane,Haslemere,Surrey,England,GU27 2HU,London and South East,4.41429E+11,southdownswest@nationaltrust.org.uk,https://www.nationaltrust.org.uk/swan-barn-farm,
171,The Vyne,348,1,"Explore a former Tudor powerhouse turned 17th-century family home, set in gardens, woodlands and wetlands. ",51.313783,-1.08401,Vyne Road; Sherborne St John,Basingstoke,Hampshire,England,RG24 9HL,London and South East,4.41257E+11,thevyne@nationaltrust.org.uk,https://www.nationaltrust.org.uk/the-vyne,
172,Watersmeet,355,0,Dramatic river gorge and ancient woodland in stunning surroundings,51.2211,-3.79444,Watersmeet Road,Lynmouth,Devon,England,EX35 6NT,South West,4.41599E+11,northdevon@nationaltrust.org.uk,https://www.nationaltrust.org.uk/watersmeet,
173,Benthall Hall,30,1,A family home for 500 years,52.6208,-2.50303,--,Broseley,Shropshire,England,TF12 5RX,Midlands,4.41953E+11,benthall@nationaltrust.org.uk,https://www.nationaltrust.org.uk/benthall-hall,
174,Sutton Lane Meadows,6108,0,Traditional hay meadows rich in wild flowers,51.497764,-2.078461,Sutton Lane; Sutton Benger,Chippenham,Wiltshire,England,SN15 4LW,South West,4.41673E+11,wiltshire.countryside@nationaltrust.org.uk,https://www.nationaltrust.org.uk/sutton-lane-meadows,
175,Levant Mine and Beam Engine,201,1,"High-up on the exposed cliffs of the 'Tin Coast' and part of the Cornish Mining World Heritage Site. At its heart, the restored 1840s beam engine running on steam.",50.151001,-5.6827,Trewellard; Pendeen,near St Just,Cornwall,England,TR19 7SX,South West,4.41737E+11,levant@nationaltrust.org.uk,https://www.nationaltrust.org.uk/levant-mine-and-beam-engine,
176,Aberconwy House,2,1,14th-century merchant's house,53.282101,-3.82732,Castle Street,--,Conwy,Wales,LL32 8AY,Wales,4.41493E+11,aberconwyhouse@nationaltrust.org.uk,https://www.nationaltrust.org.uk/aberconwy-house,
177,Knowles Mill,4529,1,Preserved derelict mill on the Dowles Brook in the Wyre Forest,52.386007,-2.351114,Dowles Brook,Bewdley,Worcestershire,England,DY12 2LX,Midlands,4.41528E+11,knowlesmill@nationaltrust.org.uk,https://www.nationaltrust.org.uk/knowles-mill,
178,Lantivet Bay,6223,0,"Coastal walks, wide open views and hidden coves",50.336196,-4.590936,Lantivet Bay; near Frogmore Farm,Lanteglos by Fowey,Cornwall,England,PL23 1NP,South West,4.41727E+11,lantivetbay@nationaltrust.org.uk,https://www.nationaltrust.org.uk/lantivet-bay,
179,Sugar Loaf and Usk Valley,6010,0,"Iconic mountains, rich countryside and a sweeping 18th century landscaped park ",51.844095,-3.062519,--,Abergavenny,Monmouthshire,Wales,NP7 7LA,Wales,4.41875E+11,brecon@nationaltrust.org.uk,https://www.nationaltrust.org.uk/sugarloaf-and-usk-valley,
180,Godrevy,2364,0,"A vast sandy beach, high cliffs and dramatic coves.",50.238321,-5.393736,Gwithian,near Hayle,Cornwall,England,TR27 5ED,South West,4.41873E+11,godrevy@nationaltrust.org.uk,https://www.nationaltrust.org.uk/godrevy,
181,Eifionydd,6013,0,Snowdon's pastoral foothills reach down to the sea,53.081867,-4.334769,--,Dinas Dinlle,Gwynedd,Wales,LL54,Wales,4.41767E+11,eryri@nationaltrust.org.uk,--,
182,Botallack,6232,1,"On the wild Tin Coast, the famed Crowns engine houses cling to the foot of the cliffs. Part of the Cornish Mining World Heritage Site and Poldark filming location.",50.140729,-5.689126,on the Tin Coast,near St Just,Cornwall,England,TR19 7QQ,South West,4.41737E+11,botallack@nationaltrust.org.uk,https://www.nationaltrust.org.uk/botallack,
183,Middlethorpe Hall and Spa,4500,0,"Middlethorpe Hall Hotel Restaurant & Spa, handsome William and Mary country house set in 20 acres of garden and parkland within the City of York",53.93051,-1.088655,Bishopthorpe Road,York,North Yorkshire,England,YO23 2GB,Yorkshire and North East,4.41905E+11,info@middlethorpe.com,--,
184,Westwood Manor,364,1,Fifteenth century stone manor house,51.329399,-2.27024,Westwood,near Bradford-on-Avon,Wiltshire,England,BA15 2AF,South West,4.41226E+11,westwoodmanor@nationaltrust.org.uk,https://www.nationaltrust.org.uk/westwood-manor,
185,Northcott Mouth,6228,0,This small rocky beach opens up to expansive sand and rock pools as the tide drops.,50.847404,-4.553248,near Bude,--,Cornwall,England,--,South West,4.41209E+11,northcottmouth@nationaltrust.org.uk,https://www.nationaltrust.org.uk/northcott-mouth,
186,Clent Hills,5233,0,A stunning countryside haven in the heart of the busy Midlands,52.424253,-2.089071,--,near Romsley,Worcestershire,England,--,Midlands,4.41563E+11,clenthills@nationaltrust.org.uk,https://www.nationaltrust.org.uk/clent-hills,
187,Cheddar Gorge,4512,0,Discover the heights of Somerset's famous Cheddar Gorge,51.28534,-2.764218,The Cliffs,Cheddar,Somerset,England,BS27 3QE,South West,4.41279E+11,cheddargorge@nationaltrust.org.uk,https://www.nationaltrust.org.uk/cheddar-gorge,
188,"Anglesey Abbey, Gardens and Lode Mill",9,1,Jacobean-style house with gardens and a working watermill,52.235915,0.2448,Quy Road; Lode,Cambridge,Cambridgeshire,England,CB25 9EJ,East of England,4.41224E+11,angleseyabbey@nationaltrust.org.uk,https://www.nationaltrust.org.uk/anglesey-abbey-gardens-and-lode-mill,
189,Runnymede and Ankerwycke,284,1,Riverside site of the sealing of Magna Carta,51.44799,-0.566896,Windsor Road,near Old Windsor,Surrey,England,SL4 2JL (SatNav: TW20 0AE),London and South East,4.41784E+11,runnymede@nationaltrust.org.uk,https://www.nationaltrust.org.uk/runnymede-and-ankerwycke,
190,Cragside,98,1,"Extraordinary Victorian house, gardens and woodland - the wonder of its age",55.312599,-1.8817,Rothbury,Morpeth,Northumberland,England,NE65 7PX,Yorkshire and North East,4.4167E+11,cragside@nationaltrust.org.uk,https://www.nationaltrust.org.uk/cragside,
191,"Priest's House, Easton on the Hill",267,1,Small pre-Reformation stone building,52.629364,-0.5095124,38 West Street; Easton on the Hill,near Stamford,Northamptonshire,England,PE9 3LS,Midlands,4.41832E+11,priestshouse2@nationaltrust.org.uk,https://www.nationaltrust.org.uk/priests-house-easton-on-the-hill,
192,East Riddlesden Hall,120,1,Historic house and intimate gardens with lots of natural play areas for families to enjoy.,53.873199,-1.87589,Bradford Road; Riddlesden,Keighley,West Yorkshire,England,BD20 5EL,Yorkshire and North East,4.41536E+11,eastriddlesden@nationaltrust.org.uk,https://www.nationaltrust.org.uk/east-riddlesden-hall,
193,Shaugh Bridge,6236,0,Ancient oakwoods and mossy boulders cloak the Plym Valley; riverside walks pass the atmospheric Dewerstone Rocks and industrial ruins.,50.453951,-4.06731,on Dartmoor; near Shaugh Prior,--,Devon,England,--,South West,4.41753E+11,dartmoor@nationaltrust.org.uk,https://www.nationaltrust.org.uk/shaugh-bridge,
194,Scotney Castle,291,1,Romantic garden with view of 14th century moated castle and the Victorian country mansion and - all in a beautiful wooded estate,51.092783,0.408198,Lamberhurst,Tunbridge Wells,Kent,England,TN3 8JB,London and South East,4.41893E+11,scotneycastle@nationaltrust.org.uk,https://www.nationaltrust.org.uk/scotney-castle,
195,St Anthony Head,6192,0,Tucked away at the bottom of the Roseland there's lots to discover for everyone.,50.141698,-5.0145383,St Anthony Head; nr Portscatho,Truro,Cornwall,England,TR2 5HA,South West,4.41873E+11,stanthonyhead@nationaltrust.org.uk,https://www.nationaltrust.org.uk/st-anthony-head,
196,Lockeridge Dene and Piggledene,6106,0,"Streams of lichen-rich sarsen stones litter the landscape and provide a safe environment for many species of plants, insects and birds.",51.404998,-1.795089,Lockeridge Lane; Lockeridge,Near Marlborough,Wiltshire,England,SN8 4EQ,South West,4.41673E+11,wiltshire.countryside@nationaltrust.org.uk,https://www.nationaltrust.org.uk/lockeridge-dene-and-piggledene,
197,Shugborough Estate,297,1,"A Staffordshire paradise: a rich blend of landscape, monuments, gardens and architecture, shaped by exploration and global encounters.",52.789294,-2.033064,Milford,near Stafford,Staffordshire,England,ST17 0UP,Midlands,4.4189E+11,shugborough@nationaltrust.org.uk,https://www.nationaltrust.org.uk/shugborough-estate,
198,The Fleece Inn,132,1,A traditional English pub,52.090099,-1.86567,Bretforton,near Evesham,Worcestershire,England,WR11 7JE,Midlands,4.41387E+11,fleeceinn@nationaltrust.org.uk,https://www.nationaltrust.org.uk/the-fleece-inn,
199,Bembridge Windmill,28,1,The only surviving windmill on the Isle of Wight,50.684213,-1.0943815,High Street/Mill Road,Bembridge,Isle of Wight,England,PO35 5SQ,London and South East,4.41984E+11,bembridgemill@nationaltrust.org.uk,https://www.nationaltrust.org.uk/bembridge-windmill,
200,The Homewood,179,1,One architect's vision of the future,51.356013,-0.381423,Portsmouth Road,Esher,Surrey,England,KT10 9JL,London and South East,4.43442E+11,thehomewood@nationaltrust.org.uk,https://www.nationaltrust.org.uk/the-homewood,
201,Stonehenge Landscape,316,0,A World Heritage Site for its ancient ceremonial landscape of great archaeological interest.,51.177601,-1.82776,--,near Amesbury,Wiltshire,England,--,South West,4.41673E+11,stonehenge@nationaltrust.org.uk,https://www.nationaltrust.org.uk/stonehenge-landscape,
202,Chillerton Down,5073,0,An impressive flank of open downland,50.64444,-1.3207304,--,--,Isle of Wight,England,PO30 3HA,London and South East,4.41984E+11,isleofwight@nationaltrust.org.uk,https://www.nationaltrust.org.uk/chillerton-down,
203,Footprint,6209,0,A truly inspirational space,54.389002,-2.9117954,"Footprint; St Catherine's, Patterdale Road",Windermere,Cumbria,England,LA23 1NH,North West,4.41539E+11,footprint@nationaltrust.org.uk,https://www.nationaltrust.org.uk/footprint,
204,Sizergh,300,1,Beautiful medieval house with rich gardens and estate,54.284168,-2.7716124,Sizergh,near Kendal,Cumbria,England,LA8 8DZ,North West,4.4154E+11,sizergh@nationaltrust.org.uk,https://www.nationaltrust.org.uk/sizergh,
205,Drovers Estate,6057,0,"Nestled in undulating hills, step back to a timeless rural life",50.9111971,-0.7571577,Enter Estate behind the cricket pavillion; Sheepwash Meadow,Singleton,West Sussex,England,PO18 0HA,London and South East,4.41731E+11,southdownscentral@nationaltrust.org.uk,https://www.nationaltrust.org.uk/drovers-estate,
206,Sutton Hoo,323,1,Awe-inspiring Anglo-Saxon royal burial site,52.095652,1.349691,Tranmer House; Sutton Hoo,Woodbridge,Suffolk,England,IP12 3DJ,East of England,4.41394E+11,suttonhoo@nationaltrust.org.uk,https://www.nationaltrust.org.uk/sutton-hoo,
207,Foxbury,90001,0,"A blooming landscape of heathland restoration, open for special events which help people connect to nature",50.957814,-1.575196,"Access via Half Moon car park; Blackhill Road, East Wellow",Romsey,Hampshire,UK,SO51 6AQ,London and South East,4.41426E+11,info.newforest@nationaltrust.org.uk,https://www.nationaltrust.org.uk/foxbury,
208,Danbury Commons and Blakes Wood,5326,0,Explore Essex's second largest area of common land ,51.710061,0.576404,"National Trust Danbury Common; The Armoury, Penny Royal Road",Danbury,Essex,England,CM3 4ED,East of England,4.41245E+11,danbury@nationaltrust.org.uk,https://www.nationaltrust.org.uk/danbury-commons-and-blakes-wood,
209,Pilsdon Pen,5290,0,"One of Dorset's prominent landmarks, dominated by an Iron Age hill fort",50.8,-2.833333,Nr Broadwindsor,Beaminster,Dorset,England,--,South West,4.41297E+11,westdorset@nationaltrust.org.uk,https://www.nationaltrust.org.uk/pilsdon-pen,
210,Lyme,215,1,"Glorious house, surrounded by gardens, moorland and deer park",53.337002,-2.05322,Disley,Stockport,Cheshire,England,SK12 2NR,North West,4.41664E+11,lyme@nationaltrust.org.uk,https://www.nationaltrust.org.uk/lyme,
211,Gray's Printing Press,149,1,18th-century printing press,54.8246,-7.46152,49 Main Street,Strabane,County Tyrone,Northern Ireland,BT82 8AU,Northern Ireland,4.42887E+11,grays@nationaltrust.org.uk,https://www.nationaltrust.org.uk/grays-printing-press,
212,Compton Castle,93,1,Dramatic fortified manor house and small formal garden,50.472198,-3.59649,Marldon,Paignton,Devon,England,TQ3 1TA,South West,4.41804E+11,comptoncastle@nationaltrust.org.uk,https://www.nationaltrust.org.uk/compton-castle,
213,Letocetum Roman Baths and Museum,351,1,"Excavated Roman bathhouse, other remains and museum",52.657001,-1.85605,Watling Street; Wall,near Lichfield,Staffordshire,England,WS14 0AW,Midlands,--,letocetum@nationaltrust.org.uk,https://www.nationaltrust.org.uk/letocetum-roman-baths-and-museum,
214,Boarstall Tower,41,1,Fourteenth-century moated gatehouse and beautiful gardens,51.821301,-1.09333,Boarstall,near Bicester,Buckinghamshire,England,HP18 9UX,London and South East,4.41281E+11,boarstalltower@nationaltrust.org.uk,https://www.nationaltrust.org.uk/boarstall-tower,
215,Cushendun,6213,0,"Situated in the heart of the Glens of Antrim, Cushendun village is steeped in character and folklore",55.1257,-6.04293,--,Cushendun,County Antrim,Northern Ireland,BT44 0PH,Northern Ireland,4.42871E+11,cushendun@nationaltrust.org.uk,https://www.nationaltrust.org.uk/cushendun,
216,The Roundhouse,6247,1,"Nineteenth century canal-side stables and stores in Birmingham city centre. To be transformed into a hub from which to explore the city by foot, bike or boat.",52.478946,-1.918828,The Roundhouse; 1 Sheepcote Street,Birmingham,West Midlands,England,B16 8AE,Midlands,--,hello@roundhousebirmingham.org.uk,https://www.nationaltrust.org.uk/roundhouse-birmingham,
217,Coughton Court,90,1,Coughton Court is an imposing Tudor house set in beautiful gardens with a collection of Catholic treasures,52.242802,-1.87794,--,Alcester,Warwickshire,England,B49 5JA,Midlands,4.41789E+11,coughtoncourt@nationaltrust.org.uk,https://www.nationaltrust.org.uk/coughton-court,
218,Embleton and Newton Links,5402,0,Breathtaking stretch of silver sands surrounded by wildlife-rich dunes,55.512768,-1.618353,Low Newton by the Sea,Alnwick,Northumberland,England,NE66 3EW,Yorkshire and North East,--,northumberlandcoast@nationaltrust.org.uk,https://www.nationaltrust.org.uk/embleton-and-newton-links,
219,Lacock,197,1,"Country house with monastic roots, once home to William Henry Fox Talbot, inventor of the photographic negative",51.414799,-2.11941,Lacock,near Chippenham,Wiltshire,England,SN15 2LG,South West,4.4125E+11,lacock@nationaltrust.org.uk,https://www.nationaltrust.org.uk/lacock-abbey-fox-talbot-museum-and-village,
220,Emmetts Garden,123,1,Interesting hillside garden with year-round features,51.250599,0.11573,Ide Hill,Sevenoaks,Kent,England,TN14 6BA,London and South East,4.41733E+11,emmetts@nationaltrust.org.uk,https://www.nationaltrust.org.uk/emmetts-garden,
221,Whipsnade Tree Cathedral,365,0,"Trees, hedges and shrubs planted in the form of a medieval cathedral",51.851636,-0.5358892,Whipsnade,Dunstable,Bedfordshire,England,LU6 2LQ,East of England,4.41583E+11,whipsnadetc@nationaltrust.org.uk,https://www.nationaltrust.org.uk/whipsnade-tree-cathedral,
222,Lamb House,195,1,Georgian house with literary associations,50.949699,0.73426,West Street,Rye,East Sussex,England,TN31 7ES,London and South East,4.41797E+11,lambhouse@nationaltrust.org.uk,https://www.nationaltrust.org.uk/lamb-house,
223,Stoneywell,6140,1,The home of a family who lived and loved the Arts and Crafts ,52.7034271,-1.2706485,Whitcrofts Lane; Ulverscroft,--,Leicestershire,UK,LE67 9QE,Midlands,4.4153E+11,Stoneywell@nationaltrust.org.uk,https://www.nationaltrust.org.uk/stoneywell,
224,T Mawr Wybrnant,341,1,Traditional stone-built upland 16th-century farmhouse,53.052502,-3.83218,Penmachno,Betws-y-Coed,Conwy,Wales,LL25 0HJ,Wales,4.41767E+11,eryri@nationaltrust.org.uk,https://www.nationaltrust.org.uk/ty-mawr-wybrnant,
225,Mortehoe,6217,0,"Gateway to a wild, remote coast with a rich history of wrecking and smuggling. Amazing walking, wildlife and sunbathing seals.",51.187373,-4.198934,Contact - Woolacombe Rangers; Pay & Display car park (not NT),Mortehoe,Devon,United Kingdom,EX34 7DT - SatNav for car park,South West,4.41272E+11,northdevon@nationaltrust.org.uk,https://www.nationaltrust.org.uk/mortehoe,
226,Buckland Abbey,57,0,"Discovery, tranquillity and history  an ancient gem in the Tavy Valley landscape",50.481098,-4.13074,--,Yelverton,Devon,England,PL20 6EY,South West,4.41823E+11,bucklandabbey@nationaltrust.org.uk,https://www.nationaltrust.org.uk/buckland-abbey,
227,Wenlock Edge,6208,0,An 18 mile limestone escarpment,52.5915,-2.57391,--,--,Shropshire,--,--,Midlands,4.41695E+11,wenlockedge@nationaltrust.org.uk,https://www.nationaltrust.org.uk/wenlock-edge,
228,"Pennard, Pwll Du and Bishopston Valley",6096,0,"Rich in industrial heritage, caves, ancient woodland and rare species",51.5669,-4.0878,near Southgate,--,Swansea,Wales,--,Wales,4.41792E+11,gower.admin@nationaltrust.org.uk,https://www.nationaltrust.org.uk/pennard-pwll-du-and-bishopston-valley,
229,Golden Cap,5090,0,Stunning coastline and England's only natural World Heritage Site,50.73693,-2.874292,Golden Cap Estate; Morcombelake,Bridport,Dorset,England,--,South West,4.41297E+11,goldencap@nationaltrust.org.uk,https://www.nationaltrust.org.uk/golden-cap,
230,Little Clarendon,204,1,Late 15th-century stone house and chapel,51.0839,-1.97897,Dinton,Salisbury,Wiltshire,England,SP3 5DZ,South West,4.41673E+11,littleclarendon@nationaltrust.org.uk,https://www.nationaltrust.org.uk/little-clarendon,
231,Yorkshire Coast,384,0,Varied coastal area with natural history and industrial archaeology interest,54.400398,-0.48725,--,near Ravenscar,North Yorkshire,England,--,Yorkshire and North East,4.41724E+11,yorkshirecoast@nationaltrust.org.uk,https://www.nationaltrust.org.uk/yorkshire-coast,
232,Ditchling Beacon,6065,0,Panoramic views from the top of world,50.90084,-0.105186,near Ditchling,--,East Sussex,England,--,London and South East,4.41323E+11,ditchlingbeacon@nationaltrust.org.uk,https://www.nationaltrust.org.uk/ditchling-beacon,
233,Knole,193,1,Be part of a 400 year history of visiting Knole,51.267601,0.20122,--,Sevenoaks,Kent,England,TN15 0RP (Sat Nav TN13 1HX),London and South East,4.41732E+11,knole@nationaltrust.org.uk,https://www.nationaltrust.org.uk/knole,
234,St David's Peninsula,5133,0,"A colourful coastline with heaps of history, this pretty peninsula's been a cultural hotspot for thousands of years. Discover the area's ancestry, from Celtic life to Wales' patron saint.",51.880868,-5.26617,--,St David's Peninsula,Pembrokeshire,Wales,SA62,Wales,4.41438E+11,stdavids@nationaltrust.org.uk,https://www.nationaltrust.org.uk/st-davids-peninsula,
235,Acorn Bank,5,1,Delightful garden renowned for its herbs and fruit orchards,54.646301,-2.59228,Temple Sowerby,near Penrith,Cumbria,England,CA10 1SP,North West,4.41768E+11,acornbank@nationaltrust.org.uk,https://www.nationaltrust.org.uk/acorn-bank,
236,Gunby Hall Estate: Monksthorpe Chapel,657,1,Remote late 17th-century Baptist chapel,53.164902,0.16874,Monksthorpe,near Spilsby,Lincolnshire,England,PE23 5PP,Midlands,4.41755E+11,monksthorpe@nationaltrust.org.uk,https://www.nationaltrust.org.uk/gunby-hall-estate-monksthorpe-chapel,
237,The Needles Headland and Tennyson Down,5141,0,"Beautiful open downland,sheer chalk cliffs and dramatic sea views",50.668967,-1.5420824,Tennyson Down; Totland Bay,--,Isle of Wight,England,PO39 0HY,London and South East,4.41984E+11,isleofwight@nationaltrust.org.uk,https://www.nationaltrust.org.uk/the-needles-headland-and-tennyson-down,
238,Snowshill Manor and Garden,303,1,"Snowshill is the unconventional home of the eccentric Charles Wade, who delighted in creating a stage for his life and passions.",52.006093,-1.861509,Snowshill,near Broadway,Gloucestershire,England,WR12 7JU,South West,4.41387E+11,snowshillmanor@nationaltrust.org.uk,https://www.nationaltrust.org.uk/snowshill-manor-and-garden,
239,Morston Quay,900012,0,Explore the Norfolk Coast from Morston Quay,52.956741,0.98656,Morston Quay; Quay Lane,Holt,Norfolk,--,NR25 7BH,East of England,4.41264E+11,norfolkcoast@nationaltrust.org.uk,--,
240,Ormesby Hall,250,1,"Home to the Pennyman family, Ormesby Hall, garden and parkland is a green oasis in the heart of industrial Middlesbrough.",54.5432,-1.1829,Church Lane; Ormesby,near Middlesbrough,Redcar & Cleveland,England,TS7 9AS,Yorkshire and North East,4.41642E+11,ormesbyhall@nationaltrust.org.uk,https://www.nationaltrust.org.uk/ormesby-hall,
241,Porth,6224,0,Creekside and coastal footpaths make for great walking and wildlife spotting. Towan beach at Porth is perfect for children.,50.157783,-4.9867335,Porth; near Portscatho,--,Cornwall,England,TR2 5EX,South West,4.41873E+11,porth@nationaltrust.org.uk,https://www.nationaltrust.org.uk/porth,
242,Allen Banks and Staward Gorge,7,1,Gorge of the River Allen with ornamental and ancient woodland,54.964001,-2.31392,near Ridley Hall; Bardon Mill,Hexham,Northumberland,England,NE47 7BP,Yorkshire and North East,4.41434E+11,allenbanks@nationaltrust.org.uk,https://www.nationaltrust.org.uk/allen-banks-and-staward-gorge,
243,Montacute House,228,1,"A masterpiece of Elizabethan Renaissance architecture and design, with towering walls of glass, glowing ham stone and surrounding garden.",50.950569,-2.715212,Montacute,--,Somerset,England,TA15 6XP,South West,4.41936E+11,montacute@nationaltrust.org.uk,https://www.nationaltrust.org.uk/montacute-house,
244,Templetown Mausoleum,6117,1,The finest example in Ireland of Robert Adam's neoclassical architecture,54.706,-6.095,Antrim Road,Templepatrick,County Antrim,Northern Ireland,BT39 0AH,Northern Ireland,4.42891E+11,--,https://www.nationaltrust.org.uk/templetown-mausoleum,
245,Ventnor Downs,5148,0,Dramatic views from the highest point on the Island,50.603989,-1.197933,Ventnor Downs,Wroxall,Isle of Wight,England,PO38 1AH,London and South East,4.41984E+11,isleofwight@nationaltrust.org.uk,https://www.nationaltrust.org.uk/ventnor-downs,
246,Little Moreton Hall,206,1,Iconic Tudor Manor House,53.126499,-2.24874,--,Congleton,Cheshire,England,CW12 4SD,North West,4.4126E+11,littlemoretonhall@nationaltrust.org.uk,https://www.nationaltrust.org.uk/little-moreton-hall,
247,Theatre Royal Bury St Edmunds,328,1,The only surviving Regency playhouse in Britain,52.24063,0.716911,Westgate Street,Bury St Edmunds,Suffolk,England,IP33 1QR,East of England,4.41285E+11,theatreroyal@nationaltrust.org.uk,https://www.nationaltrust.org.uk/theatre-royal-bury-st-edmunds,
248,"Polperro, Looe and Whitsand Bay",6098,0,Exploring South East Cornwall's history and culture,50.36160123,-4.43098783,--,Polperro,Cornwall,England,PL13,South West,4.41727E+11,southeastcornwall@nationaltrust.org.uk,https://www.nationaltrust.org.uk/polperro-looe-and-whitsand-bay,
249,Leigh Woods,5100,0,A wilderness of tranquility set against Brunel's famous suspension bridge,51.454221,-2.641826,--,near Bristol,Bristol,England,--,South West,4.4118E+11,leighwoods@nationaltrust.org.uk,https://www.nationaltrust.org.uk/leigh-woods,
250,Dumpdon Hill Fort,6085,0,An ancient hill fort with views over the Otter Valley,50.831461,-3.169994,Dumpdon Lane; near Beacon,Honiton,Devon,England,EX14,South West,4.41752E+11,southdevon@nationaltrust.org.uk,--,
251,Bossington,6239,0,"A peaceful coastal hamlet on the edge of the Holnicote Estate, with distinctive thatched cottages.",51.22117,-3.582119,on Exmoor; near Minehead,--,Somerset,England,--,South West,4.41644E+11,bossington@nationaltrust.org.uk,https://www.nationaltrust.org.uk/bossington,
252,Hughenden,181,1,Country home of the Victorian statesman Benjamin Disraeli,51.650214,-0.7565552,--,High Wycombe,Buckinghamshire,England,HP14 4LA,London and South East,4.41495E+11,hughenden@nationaltrust.org.uk,https://www.nationaltrust.org.uk/hughenden,
253,Ynys Mon Coast and Countryside,6159,0,TBC,53.412641,-4.517091,--,--,Anglesey,Wales,--,Wales,--,ynysmon@nationaltrust.org.uk,--,
254,Porth y Swnt,6144,0,"Come in and explore, learn, reflect and enjoy the natural environment",52.804818,-4.7116944,Henfaes; Aberdaron,Pwllheli,--,Wales,LL53 8BE,Wales,4.41759E+11,porthyswnt@nationaltrust.org.uk,https://www.nationaltrust.org.uk/porth-y-swnt,
255,Wellbrook Beetling Mill,357,1,Working water-powered mill used in the manufacture of linen,54.6553,-6.83957,20 Wellbrook Road; Corkhill,Cookstown,County Tyrone,Northern Ireland,BT80 9RY,Northern Ireland,4.42887E+11,wellbrook@nationaltrust.org.uk,https://www.nationaltrust.org.uk/wellbrook-beetling-mill,
256,Dorneywood Garden,109,1,"1930s-style garden, with herbaceous borders, cottage garden and lily pond",51.5546,-0.64688,Dorneywood; Dorney Wood Road,Burnham,Buckinghamshire,England,SL1 8PY,London and South East,--,dorneywood@nationaltrust.org.uk,https://www.nationaltrust.org.uk/dorneywood-garden,
257,Wightwick Manor and Gardens,371,1,"Paint, Politics and Pre-Raphaelite Artists",52.582765,-2.196453,Wightwick Bank,Wolverhampton,West Midlands,England,WV6 8EE  Use SAT NAV WV6 8BN,Midlands,4.41903E+11,wightwickmanor@nationaltrust.org.uk,https://www.nationaltrust.org.uk/wightwick-manor-and-gardens,
258,St Catherine's Down and Knowles Farm,5132,0,"A wild rocky coast with jutting cliffs, a windswept down and sheltered wooded valley",50.58043,-1.3028374,--,Blackgang,Isle of Wight,England,PO38 2JB,London and South East,4.41984E+11,isleofwight@nationaltrust.org.uk,https://www.nationaltrust.org.uk/st-catherines-down-and-knowles-farm,
259,Packwood House,255,1,"Much-restored Tudor house, park and garden with notable topiary",52.3465,-1.74551,Packwood Lane,Lapworth,Warwickshire,England,B94 6AT,Midlands,4.41565E+11,packwood@nationaltrust.org.uk,https://www.nationaltrust.org.uk/packwood-house,
260,Croft Castle and Parkland,99,1,"1000 years of power, politics and pleasure in an intimate family home",52.284199,-2.79835,Yarpole,near Leominster,Herefordshire,England,HR6 9PW,Midlands,4.41569E+11,croftcastle@nationaltrust.org.uk,https://www.nationaltrust.org.uk/croft-castle-and-parkland,
261,Morden Hall Park,229,0,A park at the heart of the community,51.400611,-0.188722,Morden Hall Road,Morden,London,England,SM4 5JD,London and South East,4.42085E+11,mordenhallpark@nationaltrust.org.uk,https://www.nationaltrust.org.uk/morden-hall-park,
262,The Royal Oak Foundation Conservation Studio,90003,0,Conserving and preserving our history for the future.,51.26717,0.19741,--,Sevenoaks,Kent,--,TN15 0RP (Sat Nav TN13 1HX),London and South East,4.41732E+11,ROFConservationStudio@nationaltrust.org.uk,https://www.nationaltrust.org.uk/the-royal-oak-foundation-conservation-studio,
263,Freshwater West and Gupton Farm,6245,0,"A wild, sandy stretch adored by adventurous souls and nature lovers. Make the most of the coast, head inland for wildlife wows and sleep easy under the stars at our rustic farm campsite.",51.65007,-5.04454,Freshwater West and Gupton Farm; Castlemartin,--,Pembrokeshire,Wales,SA71 5HW,Wales,4.41647E+11,guptonfarm@nationaltrust.org.uk,https://www.nationaltrust.org.uk/freshwater-west-and-gupton-farm,
264,Porthor,5202,0,Famous for its whistling sands' and glistening waters. ,52.832284,-4.7235739,Porthor; Aberdaron,--,Gwynedd,Wales,LL53 8LG,Wales,4.41759E+11,llyn@nationaltrust.org.uk,https://www.nationaltrust.org.uk/porthor,
265,Failand,5205,0,Rolling countryside with small fields and woodlands divided by hedges and sunken lanes,51.459312,-2.695153,Failand,Nr Bristol,Somerset,England,BS8,South West,4.4118E+11,leighwoods@nationaltrust.org.uk,https://www.nationaltrust.org.uk/failand,
266,Cerne Giant,5072,0,Ancient naked figure sculpted into the chalk hillside above Cerne Abbas,50.812979,-2.475441,--,Cerne Abbas,Dorset,England,DT2 7AL,South West,4.41297E+11,westdorset@nationaltrust.org.uk,https://www.nationaltrust.org.uk/cerne-giant,
267,Coleton Fishacre,92,1,A 1920s country retreat complete with luxuriant garden by the sea,50.345299,-3.53439,Brownstone Road,Kingswear,Devon,England,TQ6 0EQ,South West,4.41804E+11,coletonfishacre@nationaltrust.org.uk,https://www.nationaltrust.org.uk/coleton-fishacre,
268,Dinefwr,107,1,Historic Newton House surrounded by a National Nature Reserve and 18th century landscape Deer Park,51.882099,-4.01424,Dinefwr Park; Newton House,Llandeilo,Carmarthenshire,Wales,SA19 6RT,Wales,4.41559E+11,dinefwr@nationaltrust.org.uk,https://www.nationaltrust.org.uk/dinefwr,
269,Bodnant Garden,37,1,A world-famous garden home to National Collections and Champion Trees,53.236099,-3.79996,Tal-y-Cafn,near Colwyn Bay,Conwy,Wales,LL28 5RE,Wales,4.41493E+11,bodnantgarden@nationaltrust.org.uk,https://www.nationaltrust.org.uk/bodnant-garden,
270,Market Hall,4550,1,Outstanding 400-year-old Cotswold market hall,52.050686,-1.780686,High Street,Chipping Campden,Gloucestershire,England,GL55 6AJ,South West,4.41386E+11,markethall@nationaltrust.org.uk,https://www.nationaltrust.org.uk/market-hall,
271,Lorna Doone Valley,90009,0,Mystical valley and peaceful walks in countryside made famous by RD Blackmore,51.216183,-3.728033,Lorna Doone Farm; Malmsmead,Lynton,Devon,UK,EX35 6NU,South West,4.41272E+11,northdevon@nationaltrust.org.uk,https://www.nationaltrust.org.uk/lorna-doone-valley,
272,Kinwarton Dovecote,188,1,Circular 14th-century dovecote,52.2232,-1.8495,Kinwarton,near Alcester,Warwickshire,England,B49 6HB,Midlands,4.41789E+11,kinwartondovecote@nationaltrust.org.uk,https://www.nationaltrust.org.uk/kinwarton-dovecote,
273,Whiteford and North Gower,6094,0,The quiet north Gower coast with its extensive saltmarsh and dunes,51.63,-4.2503,--,--,Swansea,Wales,--,Wales,4.41792E+11,gower.admin@nationaltrust.org.uk,https://www.nationaltrust.org.uk/whiteford-and-north-gower,
274,Northumberland Coast,6153,0,TBC,55.48078075,-1.594529286,--,--,--,--,--,--,4.41289E+11,northumberlandcoast@nationaltrust.org.uk,--,
275,Stoke-sub-Hamdon Priory,314,1,"14th/15th-century farm buildings, formerly a priest's residence",50.952,-2.75451,North Street,Stoke-sub-Hamdon,Somerset,England,TA14 6QP,South West,4.41936E+11,stokehamdonpriory@nationaltrust.org.uk,https://www.nationaltrust.org.uk/stoke-sub-hamdon-priory,
276,Blaise Hamlet,36,0,Nine rustic cottages around a green,51.5061,-2.63912,--,Henbury,Bristol,England,BS10 7QY,South West,4.41275E+11,blaisehamlet@nationaltrust.org.uk,https://www.nationaltrust.org.uk/blaise-hamlet,
277,Ulverscroft Nature Reserve,344,0,Reserve in the care of the Leicestershire and Rutland Wildlife Trust,52.701401,-1.27259,Ulverscroft; Copt Oak,near Loughborough,Leicestershire,England,--,Midlands,4.41333E+11,ulverscroftnaturereserve@nationaltrust.org.uk,https://www.nationaltrust.org.uk/ulverscroft-nature-reserve,
278,Mottisfont,232,1,A romantic house and gallery set in beautiful riverside gardens,51.040901,-1.53573,--,near Romsey,Hampshire,England,SO51 0LP,London and South East,4.41794E+11,mottisfont@nationaltrust.org.uk,https://www.nationaltrust.org.uk/mottisfont,
279,Castle Coole,67,1,Magnificent 18th-century mansion and landscape park,54.336184,-7.624401,--,Enniskillen,County Fermanagh,Northern Ireland,BT74 6JY,Northern Ireland,4.42866E+11,castlecoole@nationaltrust.org.uk,https://www.nationaltrust.org.uk/castle-coole,
280,Mompesson House,226,1,Homely and welcoming 18th-century townhouse in the heart of Salisbury's Cathedral Close ,51.0662,-1.79679,The Close,Salisbury,Wiltshire,England,SP1 2EL,South West,4.41722E+11,mompessonhouse@nationaltrust.org.uk,https://www.nationaltrust.org.uk/mompesson-house,
281,Cuckmere Valley,5432,0,Flower-rich chalk grassland with stunning views of the Cuckmere River,50.78974,0.139652,--,--,East Sussex,England,BN26 5TT,London and South East,4.41323E+11,cuckmere@nationaltrust.org.uk,https://www.nationaltrust.org.uk/cuckmere-valley,
282,Flatford,131,0,Discover the views that John Constable painted,51.957802,1.0261,Flatford,East Bergholt,Suffolk,England,CO7 6UL,East of England,4.41206E+11,flatfordbridgecottage@nationaltrust.org.uk,https://www.nationaltrust.org.uk/flatford,
283,Crom,100,1,"Tranquil landscape of islands, woodland and historical ruins",54.162601,-7.44284,Upper Lough Erne,Newtownbutler,County Fermanagh,Northern Ireland,BT92 8AJ,Northern Ireland,4.42868E+11,crom@nationaltrust.org.uk,https://www.nationaltrust.org.uk/crom,
284,Grantham House,147,1,"Handsome town house, with architectural features from various eras and riverside walled garden",52.914799,-0.63818,Castlegate,Grantham,Lincolnshire,England,NG31 6SS,Midlands,--,granthamhouse@nationaltrust.org.uk,https://www.nationaltrust.org.uk/grantham-house,
285,Leith Hill Place,6198,1,Beauty and genius in the Surrey Hills,51.169511,-0.379853, Leith Hill Lane ,Leith Hill,Surrey,England,RH5 6LY,London and South East,4.41307E+11,leithhillplace@nationaltrust.org.uk,https://www.nationaltrust.org.uk/leith-hill-place,
286,2 Willow Road,374,1,Innovative and influential Modernist home from 1939,51.557499,-0.16861,--,Hampstead,London,England,NW3 1TH,London and South East,4.42074E+11,2willowroad@nationaltrust.org.uk,https://www.nationaltrust.org.uk/2-willow-road,
287,Branscombe,49,0,"Tucked away in a valley that runs down to a beach on the famous Jurassic Coast, there is a timeless magic about this old village",50.6922,-3.13646,--,Seaton,Devon,England,EX12 3DB,South West,4.41752E+11,branscombe@nationaltrust.org.uk,https://www.nationaltrust.org.uk/branscombe,
288,Mount Stewart,236,0,"Neo-classical house, celebrated gardens and demesne",54.551498,-5.60127,Portaferry Road,Newtownards,County Down,Northern Ireland,BT22 2AD,Northern Ireland,4.42843E+11,mountstewart@nationaltrust.org.uk,https://www.nationaltrust.org.uk/mount-stewart,
289,Abergwesyn Common,5051,0,A wild and ancient landscape with far-reaching views,52.160639,-3.676753,--,--,Powys,Wales,--,Wales,4.41875E+11,brecon@nationaltrust.org.uk,https://www.nationaltrust.org.uk/abergwesyn-common,
290,Stackpole,611,0,"Discover Stackpole's beautiful stretch of coastline for yourself. With award-winning sandy beaches, tranquil wooded valleys, wildlife-rich lily ponds, walking trails and watersports, there's lots to see and do.",51.612813,-4.926159,Stackpole,near Pembroke,Pembrokeshire,Wales,--,Wales,4.41647E+11,stackpole@nationaltrust.org.uk,https://www.nationaltrust.org.uk/stackpole,
291,Webber's Post,6242,0,"A fine lookout on the Holnicote Estate with views over Horner Wood and the wild expanse of moorland stretching up to Dunkery Beacon, the highest point on Exmoor.",51.18288,-3.571351,on Exmoor; near Minehead,--,Somerset,England,--,South West,4.41644E+11,webberspost@nationaltrust.org.uk,https://www.nationaltrust.org.uk/webbers-post,
292,Colby Woodland Garden,87,1,"Colby's hidden wooded valley is full of surprises. With an industrial past and a secret garden, it's the perfect place for heritage hunting and natural play.",51.742001,-4.67168,--,near Amroth,Pembrokeshire,Wales,SA67 8PP,Wales,4.41835E+11,colby@nationaltrust.org.uk,https://www.nationaltrust.org.uk/colby-woodland-garden,
293,Wakehurst,350,1,Botanical garden with the world's largest seed conservation project,51.064999,-0.08934,Ardingly,Haywards Heath,West Sussex,England,RH17 6TN,London and South East,4.41445E+11,wakehurst@kew.org,https://www.nationaltrust.org.uk/wakehurst,
294,Sheringham Park,296,1,Landscape park and woodland garden with miles of stunning coastal views,52.9240788,1.1814163,--,Upper Sheringham,Norfolk,England,NR26 8TL,East of England,4.41264E+11,sheringhampark@nationaltrust.org.uk,https://www.nationaltrust.org.uk/sheringham-park,
295,Brean Down,2365,1,A natural pier with dramatic cliffs and Victorian fort,51.324402,-3.01443,--,Brean,Somerset,England,TA8 2RS,South West,4.41279E+11,breandown@nationaltrust.org.uk,https://www.nationaltrust.org.uk/brean-down,
296,Monk's House,227,1,Leonard and Virginia Woolf's 16th-century country retreat,50.8396,0.01917,Rodmell,Lewes,East Sussex,England,BN7 3HF,London and South East,4.41273E+11,monkshouse@nationaltrust.org.uk,https://www.nationaltrust.org.uk/monks-house,
297,Polesden Lacey,265,1,The perfect setting for an Edwardian country retreat,51.261002,-0.36886,Great Bookham,near Dorking,Surrey,England,RH5 6BD,London and South East,4.41372E+11,polesdenlacey@nationaltrust.org.uk,https://www.nationaltrust.org.uk/polesden-lacey,
298,Killerton,189,1,A family home and a great estate. Glorious landscape garden surrounded by parkland with fine 18th-century house ,50.792,-3.4565,Broadclyst,Exeter,Devon,England,EX5 3LE,South West,4.41393E+11,killerton@nationaltrust.org.uk,https://www.nationaltrust.org.uk/killerton,
299,Attingham Park Estate: Town Walls Tower,332,1,Shrewsbury's last remaining watchtower,52.705002,-2.75512,--,Shrewsbury,Shropshire,England,SY1 1TN,Midlands,4.41744E+11,townwallstower@nationaltrust.org.uk,https://www.nationaltrust.org.uk/attingham-park-estate-town-walls-tower,
300,A la Ronde,1,1,"Quirky 18th-century, 16 sided house with fascinating interior decoration and collections",50.641718,-3.408798,Summer Lane,Exmouth,Devon,England,EX8 5BD,South West,4.41395E+11,alaronde@nationaltrust.org.uk,https://www.nationaltrust.org.uk/a-la-ronde,
301,Grange Barn,86,1,13th-century monastic barn,51.869099,0.68332,Grange Hill; Coggeshall,Colchester,Essex,England,CO6 1RE,East of England,4.41377E+11,coggeshall@nationaltrust.org.uk,https://www.nationaltrust.org.uk/grange-barn,
302,Llanbedrog Beach,6148,0,A sheltered sandy beach with colourful beach huts overlooking Cardigan Bay.,52.857872,-4.484416,Llanbedrog,--,Gwynedd,Wales,LL53 7TT,Wales,4.41759E+11,llyn@nationaltrust.org.uk,https://www.nationaltrust.org.uk/llanbedrog-beach,
303,Quarry Bank,272,1,"One of Britain's greatest industrial heritage sites, home to a complete industrial community",53.3461,-2.2487,Styal,Wilmslow,Cheshire,England,SK9 4LA,North West,4.41626E+11,quarrybank@nationaltrust.org.uk,https://www.nationaltrust.org.uk/quarry-bank,
304,Duckpool,6227,0,A remote beach with rock pools overlooked by cliffs often carpeted with wild flowers.,50.87657,-4.557695,near Bude,--,Cornwall,England,--,South West,4.41209E+11,duckpool@nationaltrust.org.uk,https://www.nationaltrust.org.uk/duckpool,
305,The Needles Old Battery and New Battery,237,1,Victorian coastal defence and secret rocket testing site perched high above the Needles Rocks,50.666543,-1.5658388,West High Down,Alum Bay,Isle of Wight,England,PO39 0JH,London and South East,4.41984E+11,needlesoldbattery@nationaltrust.org.uk,https://www.nationaltrust.org.uk/the-needles-old-battery-and-new-battery,
306,Winkworth Arboretum,378,1,A landscape arboretum reflecting the colours of each changing season,51.1614,-0.58113,Hascombe Road,Godalming,Surrey,England,GU8 4AD,London and South East,4.41483E+11,winkwortharboretum@nationaltrust.org.uk,https://www.nationaltrust.org.uk/winkworth-arboretum,
307,Smallhythe Place,302,1,Ellen Terry's early 16th-century house and cottage gardens,51.0383,0.70182,Smallhythe,Tenterden,Kent,England,TN30 7NG,London and South East,4.41581E+11,smallhytheplace@nationaltrust.org.uk,https://www.nationaltrust.org.uk/smallhythe-place,
308,Sandscale Haws National Nature Reserve,5162,0,Outstanding dune habitat supporting a wealth of wildlife and with magnificent views across the Duddon Estuary onto the Lakeland Fells.,54.170756,-3.225736,Roanhead; Hawthwaite Lane,near Barrow-in-Furness,Cumbria,England,LA14 4QJ,North West,4.41229E+11,MorecambeBayProperties@nationaltrust.org.uk,https://www.nationaltrust.org.uk/sandscale-haws-national-nature-reserve,
309,Elizabethan House Museum,122,1,Delightful treasury of 16th-century domestic history,52.605,1.72721,4 South Quay,Great Yarmouth,Norfolk,England,NR30 2QH,East of England,4.41494E+11,elizabethanhouse@nationaltrust.org.uk,https://www.nationaltrust.org.uk/elizabethan-house-museum,
310,Wilderhope Manor,372,1,Elizabethan gabled manor house,52.529301,-2.6725,Longville,Much Wenlock,Shropshire,England,TF13 6EG,Midlands,4.41695E+11,For countryside: wilderhope@nationaltrust.org.uk,https://www.nationaltrust.org.uk/wilderhope-manor,
311,Fingle Bridge,6219,0,A calm spot over the River Teign with unspoilt woods,50.695276,-3.780949,Teign Gorge; near Drewsteignton,Exeter,Devon,England,--,South West,4.41647E+11,castledrogo@nationaltrust.org.uk,https://www.nationaltrust.org.uk/fingle-bridge,
312,Plymbridge Woods,5423,0,A wooded valley opening up to the moors of Dartmoor with a rich and varied industrious past,50.4089,-4.0786,Plymbridge Road,Plympton,Devon,England,PL7 4SR,South West,4.41752E+11,plymbridgewoods@nationaltrust.org.uk,https://www.nationaltrust.org.uk/plymbridge-woods,
313,Wellington Monument,6205,1,"A striking landmark at the heart of an appeal for repair, on the edge of the Blackdown Hills.",50.948397,-3.229276,--,--,Somerset,England,TA21 9PB,South West,4.41823E+11,wellington.monument@nationaltrust.org.uk,https://www.nationaltrust.org.uk/wellington-monument,
314,Heelis,2580,0,Central office for the National Trust,51.563767,-1.79707,Kemble Drive,Swindon,Wiltshire,England,SN2 2NA,South West,4.41794E+11,heelisreception@nationaltrust.org.uk,https://www.nationaltrust.org.uk/heelis,
315,Beesands to Hallsands,6076,1,Discover the haunting remains of the lost village of Hallsands,50.24369,-3.659649,--,Beesands,Devon,England,TQ7,South West,4.41752E+11,southdevon@nationaltrust.org.uk,--,
316,Lavenham Guildhall,196,1,One of the most spectacular timber framed buildings of medieval England at the heart of village life,52.10876,0.79662,Market Place; Lavenham,Sudbury,Suffolk,England,CO10 9QZ,East of England,4.41787E+11,lavenhamguildhall@nationaltrust.org.uk,https://www.nationaltrust.org.uk/lavenham-guildhall,
317,Ashdown,15,1,Unusual Dutch-style house on the Berkshire Downs,51.535999,-1.59116,--,Lambourn,Berkshire,England,RG17 8RE,London and South East,4.41794E+11,ashdownhouse@nationaltrust.org.uk,https://www.nationaltrust.org.uk/ashdown,
318,Tredegar House,4524,1,"A place shaped by the local community, Tredegar House and its surrounding gardens and parkland stand proudly at the heart of Newport's heritage.",51.561601,-3.028106,Tredegar House; Pencarn Way,Newport,--,Wales,NP10 8YW,Wales,4.41634E+11,tredegar@nationaltrust.org.uk,https://www.nationaltrust.org.uk/tredegar-house,
319,Hembury and Holne Woods,5283,0,"Lichen-clad, ancient oak woodland valleys following the River Dart",50.499378,-3.795526,--,--,Hembury: SX730 680 / Holne: SX712 710,England,--,South West,4.41365E+11,dartmoor@nationaltrust.org.uk,https://www.nationaltrust.org.uk/hembury-and-holne-woods,
320,South Foreland Lighthouse,305,1,The first lighthouse to use an electric light,51.1320901,1.3345979,St Margaret's Bay,Dover,Kent,England,--,London and South East,4.41305E+11,southforeland@nationaltrust.org.uk,https://www.nationaltrust.org.uk/south-foreland-lighthouse,
321,Claydon,81,1,Splendid eighteenth-century English interiors in an idyllic country setting,51.924599,-0.95617,Middle Claydon,near Buckingham,Buckinghamshire,England,MK18 2EY,London and South East,4.41297E+11,claydon@nationaltrust.org.uk,https://www.nationaltrust.org.uk/claydon,
322,Totternhoe Knolls,6197,0,Totternhoe Knolls sits within an important medieval quarrying area ,51.885604,-0.569598,Castle Hill Road,Totternhoe,Bedfordshire,England,--,East of England,4.41583E+11,dunstabledowns@nationaltrust.org.uk,--,
323,Lewesdon Hill,5289,0,"The highest point in Dorset with views between the trees over Devon, Somerset and out to sea",50.807833,-2.799555,Nr Broadwindsor,Beaminster,Dorset,England,--,South West,4.41297E+11,westdorset@nationaltrust.org.uk,https://www.nationaltrust.org.uk/lewesdon-hill,
324,"The Workhouse, Southwell",656,1,Atmospheric Victorian workhouse,53.0795,-0.93981,Upton Road,Southwell,Nottinghamshire,England,NG25 0PT,Midlands,4.41637E+11,theworkhouse@nationaltrust.org.uk,https://www.nationaltrust.org.uk/the-workhouse-southwell,
325,Fountains Abbey and Studley Royal Water Garden,134,1,Ancient abbey ruins and an awe-inspiring water garden at this World Heritage Site,54.1096,-1.58033,Fountains,Ripon,North Yorkshire,England,HG4 3DY,Yorkshire and North East,4.41766E+11,fountainsabbey@nationaltrust.org.uk,https://www.nationaltrust.org.uk/fountains-abbey-and-studley-royal-water-garden,
326,Wicken Fen National Nature Reserve,370,0,"The National Trust's oldest nature reserve, and England's most famous fen",52.3101,0.29291,Lode Lane; Wicken,Ely,Cambridgeshire,England,CB7 5XP,East of England,4.41354E+11,wickenfen@nationaltrust.org.uk,https://www.nationaltrust.org.uk/wicken-fen-nature-reserve,
327,Mullion Cove,6225,0,"Originally built in the 1890s, the picturesque harbour at Mullion Cove shelters a small fishing fleet from powerful westerly storms.",50.01651,-5.256341,on the Lizard peninsula,near Helston,Cornwall,England,TR12 7ES,South West,4.41326E+11,mullioncove@nationaltrust.org.uk,https://www.nationaltrust.org.uk/mullion-cove,
328,Durham Coast,6171,0,County Durham's coastline has emerged from a polluted industrial past to become a haven for wildlife,54.823619,-1.322313,Nose's Point Car Park; East Cliff Road,Seaham,County Durham,England,SR7 7PS,Yorkshire and North East,4.41724E+11,durhamcoast@nationaltrust.org.uk,https://www.nationaltrust.org.uk/durham-coast,
329,Berrington Hall,31,1,Georgian grandeur on a human scale; neoclassical mansion by Henry Holland set in 'Capability' Brown's final landscape and gardens,52.269501,-2.71427,--,near Leominster,Herefordshire,England,HR6 0DW,Midlands,4.41569E+11,berrington@nationaltrust.org.uk,https://www.nationaltrust.org.uk/berrington-hall,
330,Kinver Edge and the Rock Houses,187,1,High sandstone ridge and hill fort overlooking dramatic red sandstone rock houses,52.450109,-2.242739,Holy Austin Rock Houses; Compton Road,"Kinver, near Stourbridge",Staffordshire,England,DY7 6DL,Midlands,4.41385E+11,kinveredge@nationaltrust.org.uk,https://www.nationaltrust.org.uk/kinver-edge-and-the-rock-houses,
331,Corfe Castle,94,1,Thousand-year-old royal castle shaped by warfare,50.637901,-2.05654,The Square; Corfe Castle,Wareham,Dorset,England,BH20 5EZ,South West,4.41929E+11,corfecastle@nationaltrust.org.uk,https://www.nationaltrust.org.uk/corfe-castle,
332,Alderley Edge and Cheshire Countryside,473,0,"Dramatic red sandstone escarpment, with impressive views",53.296501,-2.21235,Macclesfield Road; Nether Alderley,Macclesfield,Cheshire,England,SK10 4UB,North West,4.41626E+11,alderleyedge@nationaltrust.org.uk,https://www.nationaltrust.org.uk/alderley-edge-and-cheshire-countryside,
333,Rainham Hall,274,1,"An elegant Georgian House with a diverse history, peaceful garden and changing exhibitions to explore.",51.521696,0.193162,The Broadway; Rainham,Havering,London,England,RM13 9YN,London and South East,4.41709E+11,rainhamhall@nationaltrust.org.uk,https://www.nationaltrust.org.uk/rainham-hall,
334,Dolaucothi Gold Mines,108,1,Golden Days Out Come Rain or Shine!,52.0443,-3.94824,Pumsaint,Llanwrda,Carmarthenshire,Wales,SA19 8US,Wales,4.41559E+11,dolaucothi@nationaltrust.org.uk,https://www.nationaltrust.org.uk/dolaucothi-gold-mines,
335,Sharpenhoe,5306,0,Ancient woodland and chalk escarpment with fantastic views,51.95354,-0.450765,Sharpenhoe Road,Streatley,Bedfordshire,England,--,East of England,4.41583E+11,dunstabledowns@nationaltrust.org.uk,https://www.nationaltrust.org.uk/sharpenhoe,
336,Woolbeding Countryside,6064,0,Experience a landscape shaped by traditional rural life,50.9890827,-0.7559299,Woolbeding Estate Office; Pound Common Estate Yard,Woolbeding,West Sussex,England,GU29 0QB,London and South East,4.41731E+11,southdownswest@nationaltrust.org.uk,https://www.nationaltrust.org.uk/woolbeding-countryside,
337,Bosveal,6214,0,Tucked in wooded valleys and surprising views of the restful Helford River,50.107933,-5.1134464,near Mawnan Smith; Falmouth,--,Cornwall,England,TR11 5JR,South West,4.41326E+11,bosveal@nationaltrust.org.uk,https://www.nationaltrust.org.uk/bosveal,
338,Rievaulx Terrace,278,1,"One of Yorkshire's finest 18th-century landscape gardens, containing two temples",54.253899,-1.11556,Rievaulx,Helmsley,North Yorkshire,England,YO62 5LJ,Yorkshire and North East,4.4144E+11,nunningtonhall@nationaltrust.org.uk,https://www.nationaltrust.org.uk/rievaulx-terrace,
339,Trevose Head,90002,0,"Jutting into the Atlantic, Trevose Head commands views for miles along the coast",50.543132,-5.0187851,Trevose Head,near Padstow,Cornwall,Cornwall,PL28 8SL,South West,4.41209E+11,trevosehead@nationaltrust.org.uk,https://www.nationaltrust.org.uk/trevose-head,
340,Badbury Rings,900013,0,TBC,50.8272,2.0583,--,--,--,--,--,South West,--,--,--,
341,Crickley Hill,4515,0,"Distinctive landmark rich in wildlife and archaeology with a tremendous panorama, jointly owned with Gloucestershire Wildlife Trust",51.847053,-2.103022,--,Birdlip,Gloucestershire,England,GL4 8JY,South West,4.41453E+11,cotswolds@nationaltrust.org.uk,https://www.nationaltrust.org.uk/crickley-hill,
342,Dunster Castle and Watermill,115,1,An ancient castle and comfortable country home with dramatic vistas and subtropical gardens,51.186187,-3.438736,Dunster,near Minehead,Somerset,England,TA24 6RL,South West,4.41644E+11,dunstercastle@nationaltrust.org.uk,https://www.nationaltrust.org.uk/dunster-castle-and-watermill,
343,Wallington,352,1,"Discover Wallington, where an historical house meets rolling hills, woodlands and walled gardens.",55.1507,-1.95144,Cambo,near Morpeth,Northumberland,England,NE61 4AR,Yorkshire and North East,4.41671E+11,wallington@nationaltrust.org.uk,https://www.nationaltrust.org.uk/wallington,
344,Prior Park Landscape Garden,270,1,Beautiful and intimate 18th-century landscape garden in Bath - undergoing a major restoration on its historic dams,51.367298,-2.34352,Ralph Allen Drive,Bath,Somerset,England,BA2 5AH,South West,4.41226E+11,priorpark@nationaltrust.org.uk,https://www.nationaltrust.org.uk/prior-park-landscape-garden,
345,Chapel Porth,6099,0,"A wild but cosy beach, rich in heritage and legend. ",50.300003,-5.234277,Chapel Porth,St Agnes,Cornwall,England,TR5 0NS,South West,4.41873E+11,chapelporth@nationaltrust.org.uk,https://www.nationaltrust.org.uk/chapel-porth,
346,Moleskin and Markham Hills,6212,0,"Wildlife-rich chalk grassland, beech woodland and meadows managed as a nature reserve.",51.94473,-0.44615,--,near Streatley,Bedfordshire,England,--,East of England,4.41583E+11,moleskinmarkhamhills@nationaltrust.org.uk,https://www.nationaltrust.org.uk/moleskin-and-markham-hills,
347,Wentworth Castle Gardens,90008,1,"Glorious gardens, woodland and parkland, created for the privileged few and preserved for everyone to enjoy",53.527001,-1.5181156,Wentworth Castle Gardens; Park Drive,Barnsley,South Yorkshire,--,S75 3EN,Yorkshire and North East,4.41226E+11,wentworthcastlegardens@nationaltrust.org.uk,https://www.nationaltrust.org.uk/wentworth-castle-gardens,
348,Belton House,27,1,The perfect English country house?,52.944901,-0.6137,--,Grantham,Lincolnshire,England,NG32 2LS (SatNav: NG32 2LW),Midlands,4.41477E+11,belton@nationaltrust.org.uk,https://www.nationaltrust.org.uk/belton-house,
349,Horsey Windpump,176,1,An iconic Norfolk Broads landmark,52.74247,1.638635,Horsey,Great Yarmouth,Norfolk,England,NR29 4EF,East of England,4.41264E+11,horseywindpump@nationaltrust.org.uk,https://www.nationaltrust.org.uk/horsey-windpump,
350,Seaton Delaval Hall,4032,1,A place of great theatre and drama,55.082846,-1.496508,The Avenue,Seaton Sluice,Northumberland,England,NE26 4QR,Yorkshire and North East,4.41912E+11,seatondelavalhall@nationaltrust.org.uk,https://www.nationaltrust.org.uk/seaton-delaval-hall,
351,Washington Old Hall,354,1,"Manor house associated with the family of George Washington, first president of the USA",54.901901,-1.5146,The Avenue; Washington Village,Washington,Tyne & Wear,England,NE38 7LE,Yorkshire and North East,4.41914E+11,washingtonoldhall@nationaltrust.org.uk,https://www.nationaltrust.org.uk/washington-old-hall,
352,Petworth,260,1,"Inspired by the Baroque palaces of Europe and nestled in the South Downs, Petworth House displays one of the finest art collections in the care of the National Trust. ",50.986099,-0.61281,Petworth House and Park,Petworth,West Sussex,England,GU28 9LR,London and South East,4.41798E+11,petworth@nationaltrust.org.uk,https://www.nationaltrust.org.uk/petworth-house-and-park,
353,Tyntesfield,2362,1,"An ornate Victorian Gothic Revival house with extensive garden and parkland, just a stone's throw from Bristol",51.4485,-2.71889,Wraxall,Bristol,North Somerset,England,BS48 1NX,South West,4.41275E+11,tyntesfield@nationaltrust.org.uk,https://www.nationaltrust.org.uk/tyntesfield,
354,Hailes Abbey,158,1,13th-century Cistercian abbey,51.9702,-1.92724,near Winchcombe,Cheltenham,Gloucestershire,England,GL54 5PB,South West,4.41243E+11,Cotswolds@nationaltrust.org.uk,https://www.nationaltrust.org.uk/hailes-abbey,
355,East Pool Mine,95,1,Impressive Cornish beam engines and industrial heritage discovery centre,50.231016,-5.262162,Pool,near Redruth,Cornwall,England,TR15 3NP,South West,4.41209E+11,eastpool@nationaltrust.org.uk,https://www.nationaltrust.org.uk/east-pool-mine,
356,St Helens Duver,6006,0,Sand dunes with a royal history and great coastal views,50.698751,-1.0995964,St Helens Duver,St Helens,Isle of Wight,England,PO33 1XZ,London and South East,4.41984E+11,isleofwight@nationaltrust.org.uk,https://www.nationaltrust.org.uk/st-helens-duver,
357,Melford Hall,224,1,Discover the stories behind this eclectic home.,52.0844,0.7281,Long Melford,Sudbury,Suffolk,England,CO10 9AA,East of England,4.41787E+11,melford@nationaltrust.org.uk,https://www.nationaltrust.org.uk/melford-hall,
358,Ashridge Estate,17,0,"Ancient trees, rolling chalk downlands and lush meadows in an area of outstanding natural beauty",51.805599,-0.58542,Moneybury Hill; Ringshall,Near Berkhamsted,Hertfordshire,England,HP4 1LT,East of England,4.41443E+11,ashridge@nationaltrust.org.uk,https://www.nationaltrust.org.uk/ashridge-estate,
359,Nunnington Hall,242,1,Picturesque Yorkshire manor house with organic garden and exciting exhibitions,54.204601,-0.97233,Nunnington,near York,North Yorkshire,England,YO62 5UY,Yorkshire and North East,4.4144E+11,nunningtonhall@nationaltrust.org.uk,https://www.nationaltrust.org.uk/nunnington-hall,
360,Solva Coast,5410,0,"Solva's jutting headlands, gentle valleys and sweeping shores all have a tale to tell. From Iron Age settlements and industry to chilling coastal chronicles, there's lots to uncover.",51.874002,-5.188659,--,Caerfi to Newgale,Pembrokeshire,Wales,SA62,Wales,4.41438E+11,solvacoast@nationaltrust.org.uk,https://www.nationaltrust.org.uk/solva-coast,
361,Knightshayes,192,1,"Discover Knightshayes - a great post-war garden, 19th-century parkland and grand Gothic Revival architecture by Victorian visionary William Burges.",50.920777,-3.485064,Bolham,Tiverton,Devon,England,EX16 7RG,South West,4.41884E+11,knightshayes@nationaltrust.org.uk,https://www.nationaltrust.org.uk/knightshayes,
362,The Buscot and Coleshill Estates,2575,0,Villages and countryside criss-crossed with trails,51.640444,-1.660634,Coleshill,near Swindon,Wiltshire,England,SN6 7PT,London and South East,4.41794E+11,buscotandcoleshill@nationaltrust.org.uk,https://www.nationaltrust.org.uk/the-buscot-and-coleshill-estates,
363,Pin Mill,6194,1,Enjoy a wander around Pin Mill and escape from it all,51.996323,1.213511,Pin Mill - Council Car park,near Chelmondiston,Suffolk,England,IP9 1JJ,East of England,--,pinmill@nationaltrust.org.uk,https://www.nationaltrust.org.uk/pin-mill,
364,"Ilam Park, Dovedale and the White Peak",4510,0,"White Peak Estate, including Ilam Park, Dovedale and Hamps and Manifold Valleys",53.052624,-1.805627,Ilam,Ashbourne,Derbyshire,England,DE6 2AZ,Midlands,4.41335E+11,peakdistrict@nationaltrust.org.uk,https://www.nationaltrust.org.uk/ilam-park-dovedale-and-the-white-peak,
365,Glendurgan Garden,144,0,"Stroll down through the peaceful, exotic and playful valley to a sheltered beach at the bottom.",50.10914,-5.116531,Mawnan Smith,near Falmouth,Cornwall,England,TR11 5JZ,South West,4.41326E+11,glendurgan@nationaltrust.org.uk,https://www.nationaltrust.org.uk/glendurgan-garden,
366,Powis Castle and Garden,266,1,Medieval castle rising dramatically above the celebrated garden,52.6492,-3.15764,--,Welshpool,Powys,Wales,SY21 8RF,Wales,4.41939E+11,powiscastle@nationaltrust.org.uk,https://www.nationaltrust.org.uk/powis-castle-and-garden,
367,Haresfield Beacon and Standish Wood,5091,0,A superb Cotswold landscape of mixed woodland and open grassland with extensive views,51.7784,-2.26233,Nr Whiteshill Village,Stroud,Gloucestershire,England,GL6 6PP,South West,4.41453E+11,cotswolds@nationaltrust.org.uk,https://www.nationaltrust.org.uk/haresfield-beacon-and-standish-wood,
368,Chiddingstone Village,5361,1,One of the most beautiful and oldest villages in Kent,51.185947,0.1464504,Chiddingstone Road; Chiddingstone,near Edenbridge,Kent,England,TN8 7AH,London and South East,4.41733E+11,chiddingstone@nationaltrust.org.uk,https://www.nationaltrust.org.uk/chiddingstone-village,
369,Holnicote Estate,178,0,"Varied landscape of moorland, woods, farms and coast, rich in wildlife",51.21106,-3.54753,--,near Minehead,Somerset,England,--,South West,4.41644E+11,holnicote@nationaltrust.org.uk,https://www.nationaltrust.org.uk/holnicote-estate,
370,Eastbury Manor House,121,1,Striking Elizabethan brick-built gentry house set in tranquil gardens,51.534199,0.10061,Eastbury Square,Barking,Essex,England,IG11 9SN,London and South East,4.42082E+11,eastburymanorhouse@lbbd.gov.uk,https://www.nationaltrust.org.uk/eastbury-manor-house,
371,Hardcastle Crags,165,1,A spectacular wooded valley with 19th-century Gibson Mill at its heart,53.758548,-2.01806,Gibson Mill; Midgehole Road,Hebden Bridge,West Yorkshire,England,HX7 7AW,Yorkshire and North East,4.41423E+11,hardcastlecrags@nationaltrust.org.uk,https://www.nationaltrust.org.uk/hardcastle-crags,
372,Trelissick,336,1,A welcoming garden set in an estate with stunning maritime views and lovely woodland walks,50.217241,-5.0337821,Feock,near Truro,Cornwall,England,TR3 6QL,South West,4.41873E+11,trelissick@nationaltrust.org.uk,https://www.nationaltrust.org.uk/trelissick,
373,Braithwaite Hall,45,1,17th-century farmhouse in beautiful Coverdale,54.2668,-1.81933,East Witton,Leyburn,North Yorkshire,England,DL8 4SY,Yorkshire and North East,4.4197E+11,braithwaitehall@nationaltrust.org.uk,https://www.nationaltrust.org.uk/braithwaite-hall,
374,Darrow Wood,6210,0,Discover this hidden historical site in the midst of surrounding farmland ,52.455557,1.33221613,Darrow Green Road; Denton,Harleston,Norfolk,England,IP20 0AY,East of England,--,darrowwood@nationaltrust.org.uk,https://www.nationaltrust.org.uk/darrow-wood,
375,Godolphin,145,1,An ancient and atmospheric estate with a medieval garden and historic house,50.1367,-5.36116,Godolphin Cross,Helston,Cornwall,England,TR13 9RE,South West,4.41737E+11,godolphin@nationaltrust.org.uk,https://www.nationaltrust.org.uk/godolphin,
376,Stembridge Tower Mill,313,1,The last remaining thatched windmill in England,51.070301,-2.80628,--,High Ham,Somerset,England,TA10 9DJ,South West,4.41936E+11,stembridgemill@nationaltrust.org.uk,--,
377,Badbury,6199,0,Woodland with an Iron Age past  ,51.6505,-1.6227,Coleshill,near Swindon,Oxfordshire,England,SN7 7NL,London and South East,4.41794E+11,badburyclump@nationaltrust.org.uk,https://www.nationaltrust.org.uk/badbury,
378,Slindon Estate,6062,1,A great and ancient downland estate,50.8608835,-0.6364376,Slindon,near Arundel,West Sussex,England,--,London and South East,4.41244E+11,southdownscentral@nationaltrust.org.uk,https://www.nationaltrust.org.uk/slindon-estate,
379,Maister House,219,1,18th-century merchant's house,53.743301,-0.32944,160 High Street,Hull,East Yorkshire,England,HU1 1NL,Yorkshire and North East,--,maisterhouse@nationaltrust.org.uk,https://www.nationaltrust.org.uk/maister-house,
380,Cilgerran Castle,78,1,Uncover nearly 800 years of history at the magnificent Cilgerran Castle. This striking 13th-century fortress is perched overlooking the spectacular Teifi Gorge.,52.0574,-4.63413,--,near Cardigan,Pembrokeshire,Wales,SA43 2SF,Wales,4.4124E+11,cilgerrancastle@nationaltrust.org.uk,https://www.nationaltrust.org.uk/cilgerran-castle,
381,Plas Newydd House and Garden,263,1,"Enchanting mansion and gardens, with spectacular views of Snowdonia. A whole day of things to see and do.",53.202599,-4.21541,--,Llanfairpwll,Anglesey,Wales,LL61 6DQ,Wales,4.41249E+11,plasnewydd@nationaltrust.org.uk,https://www.nationaltrust.org.uk/plas-newydd-house-and-garden,
382,Cissbury Ring,6056,0,The most historic hill on the South Downs,50.86014,-0.37932,--,Near Findon,West Sussex,England,BN14 0HT,London and South East,4.41274E+11,saddlescombe@nationaltrust.org.uk,https://www.nationaltrust.org.uk/cissbury-ring,
383,Blickling Estate,35,1,One day is never enough. Discover a complete Norfolk estate with something for everyone.,52.812,1.23139,Blickling Estate,Aylsham,Norfolk,England,NR11 6NF,East of England,4.41264E+11,blickling@nationaltrust.org.uk,https://www.nationaltrust.org.uk/blickling-estate,
384,The Textile Conservation Studio,4507,0,The Studio aims to provide a complete conservation service for historic textiles,52.80089,1.191523,Malthouse Barn; Oulton Street,--,Norfolk,England,NR11 6AF,East of England,4.41264E+11,textilestudio@nationaltrust.org.uk,https://www.nationaltrust.org.uk/the-textile-conservation-studio,
385,Carrick-a-Rede,407,0,Carrick-a-Rede Rope Bridge was first erected by salmon fishermen in 1755,55.236698,-6.3328,119a Whitepark Road,Ballintoy,County Antrim,Northern Ireland,BT54 6LS,Northern Ireland,4.42821E+11,carrick-a-rede@nationaltrust.org.uk,https://www.nationaltrust.org.uk/carrick-a-rede,
386,Dyffryn Gardens,5284,1,"From forlorn to fabulous, an ambitious Edwardian garden revival",51.437563,-3.304228,--,St Nicholas,Vale of Glamorgan,Wales,CF5 6SU,Wales,4.42921E+11,dyffryn@nationaltrust.org.uk,https://www.nationaltrust.org.uk/dyffryn-gardens,
387,Greenway,152,1,Greenway house and garden: 'the loveliest place in the world',50.382401,-3.5872,Greenway Road; Galmpton,near Brixham,Devon,England,TQ5 0ES,South West,4.41804E+11,greenway@nationaltrust.org.uk,https://www.nationaltrust.org.uk/greenway,
388,Goddards House and Garden,2361,1,A hidden garden on the edge of York.,53.940102,-1.10261,27 Tadcaster Road,York,North Yorkshire,England,YO24 1GG,Yorkshire and North East,--,goddards@nationaltrust.org.uk,https://www.nationaltrust.org.uk/goddards-house-and-garden,
389,Mill Bay,6083,0,"Unspoilt, wild coastline with turquoise waters and golden beaches",50.229439,-3.7666917,Mill Bay car park,East Portlemouth,Devon,England,TQ8 8PU,South West,4.41752E+11,southdevon@nationaltrust.org.uk,https://www.nationaltrust.org.uk/mill-bay,
390,Brockhampton,55,1,Traditionally farmed estate and medieval manor house,52.1991,-2.4569,Brockhampton Estate; Bringsty,near Bromyard,Herefordshire,England,WR6 5TB,Midlands,4.41885E+11,brockhampton@nationaltrust.org.uk,https://www.nationaltrust.org.uk/brockhampton,
391,Trengwainton Garden,337,1,Sheltered garden bursting with exotic trees and shrubs,50.127899,-5.5695,Madron,near Penzance,Cornwall,England,TR20 8RZ,South West,4.41736E+11,trengwainton@nationaltrust.org.uk,https://www.nationaltrust.org.uk/trengwainton-garden,
392,Studland Bay,320,0,Vast area of sandy beaches and heathland,50.651732,-1.953806,Studland,near Swanage,Dorset,England,--,South West,4.41929E+11,studlandbay@nationaltrust.org.uk,https://www.nationaltrust.org.uk/studland-bay,
393,Willington Dovecote and Stables,373,1,Outstanding 16th-century stone dovecote and stable building,52.137501,-0.3808,Willington; Church End,near Bedford,Bedfordshire,England,MK44 3PX,East of England,4.41285E+11,willingtondovecote@nationaltrust.org.uk,https://www.nationaltrust.org.uk/willington-dovecote-and-stables,
394,Sidmouth countryside,6091,0,Gentle countryside walks and coastal hikes,50.693485,-3.2076165,Salcombe Hill ,Sidmouth,Devon,England,EX10 0NY,South West,4.41752E+11,southdevon@nationaltrust.org.uk,https://www.nationaltrust.org.uk/sidmouth-countryside,
395,St John's Jerusalem,287,1,Tranquil garden and 13th-century chapel,51.4095,0.24053,Sutton-at-Hone,Dartford,Kent,England,DA4 9HQ,London and South East,4.41733E+11,stjohnsjerusalem@nationaltrust.org.uk,https://www.nationaltrust.org.uk/st-johns-jerusalem,
396,Toys Hill,6075,0,Discover the place that inspired Octavia Hill to found the National Trust,51.248285,0.101976,Brasted Chart,--,Kent,England,TN16 1QG,London and South East,4.41733E+11,--,https://www.nationaltrust.org.uk/toys-hill,
397,Glastonbury Tor,143,0,"Prominent hill overlooking the Isle of Avalon, Glastonbury and Somerset",51.145343,-2.6974365,--,near Glastonbury,Somerset,England,--,South West,4.41279E+11,glastonburytor@nationaltrust.org.uk,https://www.nationaltrust.org.uk/glastonbury-tor,
398,Figsbury Ring,6111,0,"Neolithic and Iron Age site rich in wildlife, offering sweeping views of surrounding countryside",51.103196,-1.732867,Figbsury Ring; A30 near Bracknell Croft,North-east of Salisbury,Wiltshire,England,SP4 6DT,South West,4.41673E+11,wiltshire.countryside@nationaltrust.org.uk,https://www.nationaltrust.org.uk/figsbury-ring,
399,Wichenford Dovecote,369,1,17th-century half-timbered dovecote,52.236801,-2.31302,--,Wichenford,Worcestershire,England,WR6 6XY,Midlands,4.41528E+11,wichenforddovecote@nationaltrust.org.uk,https://www.nationaltrust.org.uk/wichenford-dovecote,
400,"Treasurer's House, York",335,1,Step inside this house of contradictions in the centre of York.,53.962764,-1.080973,Minster Yard,York,North Yorkshire,England,YO1 7JL,Yorkshire and North East,4.41905E+11,treasurershouse@nationaltrust.org.uk,https://www.nationaltrust.org.uk/treasurers-house-york,
401,Belmont Tower,6186,1,"This landmark building, formerly Belmont Primary School, has a history dating back to the 1890s",54.59929,-5.865647,82 Belmont Church Road,Belfast,County Antrim,Northern Ireland,BT4 3FG,Northern Ireland,4.42891E+11,belmonttower@nationaltrust.org.uk,https://www.nationaltrust.org.uk/belmont-tower,
402,Heysham Coast,5160,0,Beautiful sandstone headland renowned for its eighth-century chapel and rock hewn graves; a wonderful urban green space,54.046973,-2.902574,Heysham village; near Morecambe,--,Lancashire,England,--,North West,4.41525E+11,morecambebayproperties@nationaltrust.org.uk,https://www.nationaltrust.org.uk/heysham-coast,
403,The Chase,6207,0,Quiet nature reserve with a surprising array of habitats,51.364727,-1.3671876,Station Road; East Woodhay,Woolton Hill,Hampshire,England,RG20 9TN,London and South East,--,thevyne@nationaltrust.org.uk,https://www.nationaltrust.org.uk/the-chase,
404,Nostell,241,1,18th-century architectural masterpiece with landscape park and gardens,53.652599,-1.38881,Doncaster Road; Nostell,near Wakefield,West Yorkshire,England,WF4 1QE,Yorkshire and North East,4.41925E+11,nostell@nationaltrust.org.uk,https://www.nationaltrust.org.uk/nostell,
405,Waddesdon,349,1,A Rothschild House and Gardens,51.845406,-0.925868,Waddesdon,near Aylesbury,Buckinghamshire,England,HP18 0JH,London and South East,--,enquiries@waddesdon.org.uk,https://www.nationaltrust.org.uk/waddesdon,
406,Divis and the Black Mountain,2546,0,Divis and the Black Mountain offers a spectacular viewpoint for walkers seeking panoramic views over Belfast and beyond,54.60074,-6.041651,Divis Road; Hannahstown,near Belfast,County Antrim,Northern Ireland,BT17 0NG,Northern Ireland,4.42891E+11,belfast@nationaltrust.org.uk,https://www.nationaltrust.org.uk/divis-and-the-black-mountain,
407,Rufford Old Hall,283,1,"A fine Tudor building, the home for stories of romance, wealth and 500 years of Hesketh family history.",53.63775,-2.81365,200 Liverpool Road; Rufford,near Ormskirk,Lancashire,England,L40 1SG,North West,4.41705E+11,ruffordoldhall@nationaltrust.org.uk,https://www.nationaltrust.org.uk/rufford-old-hall,
408,Middle Littleton Tithe Barn,225,1,"13th-century tithe barn, one of the largest and finest in the country",52.1213,-1.88429,Middle Littleton,Evesham,Worcestershire,England,WR11 8LN,Midlands,4.41905E+11,croome@nationaltrust.org.uk,https://www.nationaltrust.org.uk/middle-littleton-tithe-barn,
409,Tintagel Old Post Office,330,1,"One of the Trust's most delightful medieval buildings, enhanced by a cottage garden",50.663371,-4.751645,Fore Street,Tintagel,Cornwall,England,PL34 0DB,South West,4.41841E+11,tintageloldpo@nationaltrust.org.uk,https://www.nationaltrust.org.uk/tintagel-old-post-office,
410,St George's Guildhall,286,1,Rare large medieval guildhall,52.755199,0.39507,29 King Street,King's Lynn,Norfolk,England,PE30 1HA,East of England,--,stgeorgesguildhall@nationaltrust.org.uk,--,
411,Standen House and Garden,311,1,"Arts and Crafts family home with Morris & Co. interiors, set in a beautiful hillside garden",51.103506,-0.01664,West Hoathly Road,East Grinstead,West Sussex,England,RH19 4NE,London and South East,4.41342E+11,standen@nationaltrust.org.uk,https://www.nationaltrust.org.uk/standen-house-and-garden,
412,Avebury,19,1,"Ancient stone circle, museum and manor house in the heart of the Avebury World Heritage Site",51.427502,-1.85611,--,near Marlborough,Wiltshire,England,SN8 1RD,South West,4.41673E+11,avebury@nationaltrust.org.uk,https://www.nationaltrust.org.uk/avebury,
413,The Old Manor,245,1,"A Low, stone-built medieval hall, set in the picturesque countryside of Derbyshire. ",52.978401,-1.81594,Norbury,Ashbourne,Derbyshire,England,DE6 2ED,Midlands,4.41284E+11,oldmanor@nationaltrust.org.uk,https://www.nationaltrust.org.uk/the-old-manor,
414,Lydford Gorge,217,0,"The deepest river gorge in the South West, with 30m high waterfall",50.641089,-4.1102412,Lydford,near Tavistock,Devon,England,EX20 4BH,South West,4.41823E+11,lydfordgorge@nationaltrust.org.uk,https://www.nationaltrust.org.uk/lydford-gorge,
415,Brancaster Estate,46,0,Iconic coastline famous for its sandy beaches,52.9669,0.66877,Brancaster Beach; Beach Road,Brancaster,Norfolk,England,PE31 8BW,East of England,4.41264E+11,brancaster@nationaltrust.org.uk,https://www.nationaltrust.org.uk/brancaster-estate,
416,Hatfield Forest,163,9,Ancient royal hunting forest,51.8592,0.2363,Bush End Road; Takeley,Bishop's Stortford,Essex,England,CM22 6NE,East of England,4.4128E+11,hatfieldforest@nationaltrust.org.uk,https://www.nationaltrust.org.uk/hatfield-forest,
417,White Mill,366,1,Corn mill with original wooden machinery in a peaceful riverside setting,50.804501,-2.05923,Sturminster Marshall,near Wimborne Minster,Dorset,England,BH21 4BX,South West,4.41259E+11,whitemill@nationaltrust.org.uk,https://www.nationaltrust.org.uk/white-mill,
418,"West Wycombe Park, Village and Hill",360,1,The elegant Palladian home of the Dashwood family and historic village,51.641701,-0.80065,--,West Wycombe,Buckinghamshire,England,HP14 3AJ,London and South East,--,westwycombe@nationaltrust.org.uk,https://www.nationaltrust.org.uk/west-wycombe-park-village-and-hill,
419,St Agnes Head,6137,0,Walk over a jewel-like carpet of heather and gorse,50.31736,-5.2322227,St Agnes Head; Off Beacon Drive,St Agnes,Cornwall,England,TR5 0NU,South West,4.41873E+11,stagneshead@nationaltrust.org.uk,https://www.nationaltrust.org.uk/st-agnes-head,
420,Lawrence House,199,1,Beautiful Georgian town house,50.638599,-4.36567,9 Castle Street,Launceston,Cornwall,England,PL15 8BA,South West,4.41567E+11,lawrencehouse@nationaltrust.org.uk,https://www.nationaltrust.org.uk/lawrence-house,
421,Headley Heath,6122,0,"A wonderful mix of open heathland, woodland and chalk downland",51.26353606,-0.28147465,Headley Common Road,Headley Heath,Surrey,England,KT18 6NN,London and South East,4.41307E+11,headleyheath@nationaltrust.org.uk,https://www.nationaltrust.org.uk/headley-heath,
422,Mount's Bay,6102,0,"Look through the opaque cloak of today's apparent wilderness, to see the marks left by the farmers, miners, worshippers and fishermen who worked and walked this coast.",50.11421,-5.4521,Mount's Bay coast; East of St Michael's Mount,--,Cornwall,England,--,South West,4.41737E+11,Kate.Evans1@nationaltrust.org.uk,https://www.nationaltrust.org.uk/mounts-bay,
423,Rayleigh Mount,276,0,"The site of a medieval castle, now a green oasis for wildlife ",51.587898,0.60605,--,Rayleigh,Essex,England,--,East of England,4.41285E+11,rayleighmount@nationaltrust.org.uk,https://www.nationaltrust.org.uk/rayleigh-mount,
424,Ardress House,11,1,17th-century house with elegant 18th-century decoration and a traditional farmyard,54.442902,-6.59239,64 Ardress Road; Annaghmore,Portadown,County Armagh,Northern Ireland,BT62 1SQ,Northern Ireland,4.42888E+11,ardress@nationaltrust.org.uk,https://www.nationaltrust.org.uk/ardress-house,
425,Ham House and Garden,159,1,A unique 17th-century treasure trove ,51.443199,-0.31505,Ham Street; Ham,Richmond,Surrey,England,TW10 7RS,London and South East,4.42089E+11,hamhouse@nationaltrust.org.uk,https://www.nationaltrust.org.uk/ham-house-and-garden,
426,Ightham Mote,183,1,Outstanding 14th-century moated manor house,51.258598,0.27088,Mote Road; Ivy Hatch,Sevenoaks,Kent,England,TN15 0NT,London and South East,4.41733E+11,ighthammote@nationaltrust.org.uk,https://www.nationaltrust.org.uk/ightham-mote,
427,Selborne Common,6157,0,Discover the magnificent beech woods and flower-filled meadows that inspired Gilbert White,51.096107,-0.951764,--,Selborne,Hampshire,England,GU34 3JR ,London and South East,4.41429E+11, selborneandludshott@nationaltrust.org.uk,https://www.nationaltrust.org.uk/selborne-common,
428,Wheal Coates,6249,1,Dramatic ruins on cliffs carpeted with heather and gorse.,50.306226,-5.2315736,Wheal Coates; Beacon Drive,St Agnes,Cornwall,England,TR5 0NT,South West,4.41873E+11,whealcoates@nationaltrust.org.uk,https://www.nationaltrust.org.uk/wheal-coates,
429,Ambleside,5231,0,Family fun and adventure in the heart of the English Lake District,54.417745,-2.956934,--,near Windermere,Cumbria,England,--,North West,4.41539E+11,windermere@nationaltrust.org.uk,https://www.nationaltrust.org.uk/ambleside,
430,Ramsey Abbey Gatehouse,275,1,Remains of a former Benedictine abbey,52.448502,-0.0997,Abbey School; Ramsey,Huntingdon,Cambridgeshire,England,PE26 1DH,East of England,4.41285E+11,ramseyabbey@nationaltrust.org.uk,https://www.nationaltrust.org.uk/ramsey-abbey-gatehouse,
431,The Argory,13,1,Atmospheric Irish gentry house and wooded riverside estate,54.464401,-6.66035,144 Derrycaw Road; Moy,Dungannon,County Armagh,Northern Ireland,BT71 6NA,Northern Ireland,4.42888E+11,argory@nationaltrust.org.uk,https://www.nationaltrust.org.uk/the-argory,
432,Sand Point,6238,0,"A natural pier into the Bristol Channel, north of Weston-super-Mare and Brean Down. Perfect for picnics; views across Sand Bay.",51.388837,-2.963809,near Kewstoke,Weston-super-Mare,Somerset,England,--,South West,4.41279E+11,somerset.countryside@nationaltrust.org.uk,https://www.nationaltrust.org.uk/sand-point,
433,Ringstead Bay,5062,0,"Unspoilt beach, farmland and cliffs on the Jurassic Coast",50.630861,-2.35342,Ringstead,near Weymouth,Dorset,England,DT2 8NQ,South West,4.41297E+11,westdorset@nationaltrust.org.uk,https://www.nationaltrust.org.uk/ringstead-bay,
434,Dunham Massey,112,1,"A garden for all seasons, an ancient deer park and a house filled with treasures and stories.",53.3832,-2.4045,--,Altrincham,Greater Manchester,England,WA14 4SJ,North West,4.41619E+11,dunhammassey@nationaltrust.org.uk,https://www.nationaltrust.org.uk/dunham-massey,
435,Portstewart Strand,559,0,Miles of golden sand,55.172117,-6.724648,118 Strand Road,Portstewart,County Londonderry,Northern Ireland,BT55 7PG,Northern Ireland,4.42871E+11,portstewart@nationaltrust.org.uk,https://www.nationaltrust.org.uk/portstewart-strand,
436,Basildon Park,23,1,An estate saved from almost certain demolition and lovingly revived ,51.4995,-1.11858,Lower Basildon,Reading,Berkshire,England,RG8 9NR,London and South East,4.41492E+11,basildonpark@nationaltrust.org.uk,https://www.nationaltrust.org.uk/basildon-park,
437,Antony,10,1,"18th-Century house set within a magnificent landscape garden, still home to the Carew Pole family",50.3848,-4.22563,--,Torpoint,Cornwall,England,PL11 2QA,South West,4.41753E+11,antony@nationaltrust.org.uk,https://www.nationaltrust.org.uk/antony,
438,The Crown Bar,102,1,The most famous pub in Belfast,54.5947,-5.9342,46 Great Victoria Street,Belfast,County Antrim,Northern Ireland,BT2 7BA,Northern Ireland,4.4289E+11,--,https://www.nationaltrust.org.uk/the-crown-bar,
439,Win Green,6113,0,Prominent landmark with fine views,50.985132,-2.108106,Win Green; Donhead Hollow,Near Ludwell,Wiltshire,England,--,South West,4.41297E+11,Westdorset@nationaltrust.org.uk,https://www.nationaltrust.org.uk/win-green,
440,St Ives to Pendeen,6105,0,"The 14-mile stretch of coast that runs westwards from the holiday resort of St Ives to the mining village of Pendeen, can lay proud claim to being the most startlingly beautiful in south-west England.",50.191615,-5.569793,North coast,Land's End Peninsula,Cornwall,England,--,South West,4.41737E+11,shaun.boyns@nationalturst.org.uk,https://www.nationaltrust.org.uk/st-ives-to-pendeen,
441,Trerice,338,1,Elizabethan manor house with fine interiors and delightful garden,50.384998,-5.03814,Kestle Mill,near Newquay,Cornwall,England,TR8 4PG,South West,4.41638E+11,trerice@nationaltrust.org.uk,https://www.nationaltrust.org.uk/trerice,
442,Harewoods,6121,0,"Hidden woodlands, lush green meadows, tranquil ponds and an ancient common",51.20469344,-0.09928361,Outwood Lane; Outwood,Redhill,Surrey,England,RH1 5PW,London and South East,4.41343E+11,harewoods@nationaltrust.org.uk,https://www.nationaltrust.org.uk/harewoods,
443,Claremont Landscape Garden,80,1,This grade 1 listed garden created by the great landscape designers of the 18th century charts the evolution of the English Landscape Garden ,51.355785,-0.381433,Portsmouth Road,Esher,Surrey,England,KT10 9JG,London and South East,4.41372E+11,claremont@nationaltrust.org.uk,https://www.nationaltrust.org.uk/claremont-landscape-garden,
444,Clumber Park,83,1,Freedom to discover,53.2691,-1.06568,--,Worksop,Nottinghamshire,England,S80 3AZ,Midlands,4.41909E+11,clumberpark@nationaltrust.org.uk,https://www.nationaltrust.org.uk/clumber-park,
445,Woolbeding Gardens,5389,1,"Nestled in a quiet corner of West Sussex lies a true horticultural haven bursting with colourful planting, sensational views and a whole host of surprises. ",50.9973848,-0.7579017,--,Midhurst,West Sussex,England,GU29 9RR,London and South East,4.43442E+11,woolbedinggardens@nationaltrust.org.uk,https://www.nationaltrust.org.uk/woolbeding-gardens,
446,"Priest's House, Muchelney",268,1,Late medieval hall-house in a picturesque village,51.0214,-2.80763,Muchelney,Langport,Somerset,England,TA10 0DQ,South West,4.41458E+11,priestshouse@nationaltrust.org.uk,https://www.nationaltrust.org.uk/priests-house-muchelney,
447,Stowe,318,1,Gardening on the grandest scale in this Georgian landscape garden and park,52.022154,-1.00785,--,Buckingham,Buckinghamshire,England,MK18 5EQ,London and South East,4.41281E+11,stowe@nationaltrust.org.uk,https://www.nationaltrust.org.uk/stowe,
448,Bourne Mill,39,1,"Picturesque watermill with working waterwheel, set in the Essex countryside. ",51.875999,0.91378,Bourne Road,Colchester,Essex,England,CO2 8RT,East of England,4.41207E+11,bournemill@nationaltrust.org.uk,https://www.nationaltrust.org.uk/bourne-mill,
449,Penshaw Monument,6130,1,Stunning views from this 70-foot high monument,54.883243,-1.48092,Chester Road,Penshaw,Tyne & Wear,England,DH4 7NJ,Yorkshire and North East,4.41914E+11,penshaw.monument@nationaltrust.org.uk,https://www.nationaltrust.org.uk/penshaw-monument,
450,Borthwood Copse,5063,0,Paths wind through ancient oak woodland with sunny glades,50.656034,-1.1999137,--,near Winford,Isle of Wight,England,PO36 0LD,London and South East,4.41984E+11,isleofwight@nationaltrust.org.uk,https://www.nationaltrust.org.uk/borthwood-copse,
451,Brimham Rocks,52,0,Explore dramatic moorland rock formations,54.081699,-1.67613,Brimham Moor Road; Summerbridge,Harrogate,North Yorkshire,England,HG3 4DW,Yorkshire and North East,4.41424E+11,brimhamrocks@nationaltrust.org.uk,https://www.nationaltrust.org.uk/brimham-rocks,
452,Hawksmoor,6104,0,Discover Staffordshire's secret woodlands,52.995079,-1.943121,Oakamoor Road,Cheadle,Staffordshire,England,ST10 3AW,Midlands,4.4189E+11,hawksmoor@nationaltrust.org.uk,https://www.nationaltrust.org.uk/hawksmoor,
453,Cwmmau Farmhouse,2367,1,Superb early 17th-century 'black and white' farmhouse with stone-tiled roof and vernacular buildings,52.153999,-3.05911,Brilley,Whitney-on-Wye,Herefordshire,England,HR3 6JP,Midlands,4.41569E+11,cwmmaufarmhouse@nationaltrust.org.uk,https://www.nationaltrust.org.uk/cwmmau-farmhouse,
454,Bath Skyline,5055,0,Wide open space overlooking the World Heritage City of Bath,51.3808819,-2.345693,--,South East of the city of Bath,Bath and NE Somerset,England,--,South West,4.41226E+11,bathskyline@nationaltrust.org.uk,https://www.nationaltrust.org.uk/bath-skyline,
455,Frensham Little Pond,6124,0,Medieval bishops' fish pond in tranquil wildlife haven amidst precious heathland,51.16990143,-0.77272665,Priory Lane,Frensham,Surrey,England,GU10 3BT,London and South East,4.41429E+11,frensham@nationaltrust.org.uk,https://www.nationaltrust.org.uk/frensham-little-pond,
456,Ysbyty Ifan,6012,0,"An agricultural estate, rich in wildlife and history",53.023045,-3.726415,Dinas,Betws y Coed,Conwy,Wales,LL24 0HF,Wales,4.41691E+11,eryri@nationaltrust.org.uk,https://www.nationaltrust.org.uk/ysbyty-ifan,
457,Fontmell and Melbury Downs,5292,0,Open expanses of flowery downland and far-reaching views,50.967604,-2.163719,--,Near Shaftesbury,Dorset,England,--,South West,4.41297E+11,westdorset@nationaltrust.org.uk,https://www.nationaltrust.org.uk/fontmell-and-melbury-downs,
458,Fowey Estuary,5322,0,"Spectacular walks, secluded beaches and exceptional views",50.328865,-4.642749,Fowey Estuary,Fowey,Cornwall,England,PL23,South West,4.41727E+11,southeastcornwall@nationaltrust.org.uk,https://www.nationaltrust.org.uk/fowey-estuary,
459,Poldhu Cove,6155,0,"A sandy sheltered beach on the west coast of the Lizard. A favourite amongst locals and visitors, surfers and wildlife watchers.",50.015599,-5.256492,Poldhu Cove; Mullion,near Helston,Cornwall,England,TR12 7JB,South West,4.41326E+11,poldhucove@nationaltrust.org.uk,https://www.nationaltrust.org.uk/poldhu-cove,
460,Box Hill,44,0,So much to explore,51.248901,-0.3101,The Old Fort; Box Hill Road,Tadworth,Surrey,England,KT20 7LB,London and South East,4.41307E+11,boxhill@nationaltrust.org.uk,https://www.nationaltrust.org.uk/box-hill,
461,Rhosili and South Gower Coast,5131,0,Beautiful and breathtaking views on the Gower peninsula,51.568525,-4.286882,--,Rhosili,Swansea,--,SA3 1PR,Wales,4.41792E+11,gower.admin@nationaltrust.org.uk,https://www.nationaltrust.org.uk/rhosili-and-south-gower-coast,
462,East Head,6058,0,"Shifting sand dunes, salt marsh and flowing tides ",50.78114,-0.903841,Coast Guard Lane,Chichester,West Sussex,England,PO20 8AJ,London and South East,4.41244E+11,southdownscentral@nationaltrust.org.uk,https://www.nationaltrust.org.uk/east-head,
463,Kingston Lacy,191,1,A lavish family home re-imagined as a Venetian Palace in the rural Dorset countryside.,50.810398,-2.0306,--,Wimborne Minster,Dorset,England,BH21 4EA,South West,4.41203E+11,kingstonlacy@nationaltrust.org.uk,https://www.nationaltrust.org.uk/kingston-lacy,
464,Kedleston Hall,185,1,"18th-century mansion with Adam interiors, colonial history and vast parkland",52.9585,-1.53348,near Quarndon,Derby,Derbyshire,England,DE22 5JH,Midlands,4.41333E+11,kedlestonhall@nationaltrust.org.uk,https://www.nationaltrust.org.uk/kedleston-hall,
465,Formby,135,0,"Glorious beach with dramatic sand dunes, surrounded by sweeping coastal pinewoods.",53.563,-3.09217,Victoria Road,near Formby,Liverpool,England,L37 1LJ,North West,4.41705E+11,formby@nationaltrust.org.uk,https://www.nationaltrust.org.uk/formby,
466,Calstone and Cherhill Downs,6103,0,"Cherhill Down, with a chalk white horse, Iron Age hillfort and obelisk has breath-taking views over the wildlife haven of Calstone coombes.",51.42359,-1.935232,South of Cherhill village; Near Calne,--,Wiltshire,England,--,South West,4.41673E+11,wiltshire.countryside@nationaltrust.org.uk,https://www.nationaltrust.org.uk/calstone-and-cherhill-downs,
467,Sennen to Penberth,6101,0,"The south coast of Penwith vividly expresses the changes in man's use of the land over time. From towering cliffs keeping watch over the western approaches, to gentle, lush valley slopes, and sun kissed beaches  all is here.",50.047585,-5.630339,South coast; Land's End Peninsula,--,Cornwall,England,--,South West,4.41737E+11,simon.hocking@nationaltrust.org.uk,https://www.nationaltrust.org.uk/sennen-to-penberth,
468,Farne Islands,126,0,"Rocky islands, habitat for seals and many species of seabird",55.616001,-1.6538,Near Seahouses,--,Northumberland,England,--,Yorkshire and North East,4.41289E+11,farneislands@nationaltrust.org.uk,https://www.nationaltrust.org.uk/farne-islands,
469,Hatchlands Park,162,0,Stretches of sweeping parkland sheltering a classic country house,51.253544,-0.4776021,East Clandon,Guildford,Surrey,England,GU4 7RT,London and South East,4.41483E+11,hatchlands@nationaltrust.org.uk,https://www.nationaltrust.org.uk/hatchlands-park,
470,Westbury Court Garden,363,1,Dutch water garden - a rare and beautiful survival,51.822172,-2.410684,--,Westbury-on-Severn,Gloucestershire,England,GL14 1PD,South West,4.41453E+11,westburycourt@nationaltrust.org.uk,https://www.nationaltrust.org.uk/westbury-court-garden,
471,Giant's Causeway,141,0,In the footsteps of giants...,55.240807,-6.511572,44 Causeway Road,Bushmills,County Antrim,Northern Ireland,BT57 8SU,Northern Ireland,4.42821E+11,giantscauseway@nationaltrust.org.uk,https://www.nationaltrust.org.uk/giants-causeway,
472,Carding Mill Valley and the Long Mynd,63,0,"Take a walk across the wildlife-rich heathland and enjoy the views across the Shropshire Hills, or simply play in the stream in the valley.",52.5448,-2.82018,Church Stretton,--,Shropshire,England,--,Midlands,4.41695E+11,cardingmill@nationaltrust.org.uk,https://www.nationaltrust.org.uk/carding-mill-valley-and-the-long-mynd,
473,Exmouth,6090,0,"The western gateway to the Jurassic Coast, a World Heritage Site",50.609062,-3.383188,Orcombe Point; Queen's Drive,Exmouth,Devon,England,EX8 2AY,South West,4.41235E+11,exmouth@nationaltrust.org.uk,https://www.nationaltrust.org.uk/exmouth,
474,Castle Ward,70,1,"Unique 18th-century mansion, famed for its mixture of architectural styles",54.368301,-5.58034,Strangford,Downpatrick,County Down,Northern Ireland,BT30 7BA,Northern Ireland,4.42845E+11,castleward@nationaltrust.org.uk,https://www.nationaltrust.org.uk/castle-ward,
475,Woolsthorpe Manor,381,1,Isaac Newton changed the world here,52.807598,-0.62633,Water Lane; Woolsthorpe by Colsterworth,near Grantham,Lincolnshire,England,NG33 5PD,Midlands,4.41477E+11,woolsthorpemanor@nationaltrust.org.uk,https://www.nationaltrust.org.uk/woolsthorpe-manor,
476,Bembridge Fort and Downs,4517,1,An unrestored Victorian fort set on dramatic chalk cliffs and open downland with coastal views,50.671156,-1.11801,Bembridge Down,near Bembridge,Isle of Wight,England,PO36 8QY,London and South East,4.41984E+11,bembridgefort@nationaltrust.org.uk,https://www.nationaltrust.org.uk/bembridge-fort-and-downs,
477,Pentire,900010,0,An exceptionally beautiful headland with far reaching views and managed for wildlife.,50.581,-4.905,Pentire,near Wadebridge,Cornwall,--,PL27 6QY,South West,4.41209E+11,pentire@nationaltrust.org.uk,https://www.nationaltrust.org.uk/pentire,
478,Lambert's and Coney's Castle,5103,0,Walk in the footsteps of previous generations along these ancient hill forts,50.78438,-2.902129,Nr Marshwood,Bridport,Dorset,England,--,South West,4.41297E+11,westdorset@nationaltrust.org.uk,https://www.nationaltrust.org.uk/lamberts-and-coneys-castle,
479,Bolberry Down,2778,0,An easily accessible and wild stretch of coastline,50.223454,-3.827255,--,near Salcombe,Devon,England,TQ7 3DY,South West,4.41752E+11,bolberrydown@nationaltrust.org.uk,https://www.nationaltrust.org.uk/bolberry-down,
480,Brecon Beacons,5067,0,"Featuring the iconic skyline of Pen y Fan, Corn Du and Cribyn",51.869149,-3.473123,Pont ar Daf car park (access to Pen y Fan); Near Storey Arms,Libanus,Powys,Wales,LD3 8NL,Wales,4.41875E+11,brecon@nationaltrust.org.uk,https://www.nationaltrust.org.uk/brecon-beacons,
481,Harting Down,6059,0,"Dramatic hill-top views and secluded valleys, with abundant wild flowers",50.9565598,-0.875635,Woolbeding Estate Office; Linch Road,Woolbeding,West Sussex,England,--,London and South East,4.41731E+11,southdownswest@nationaltrust.org.uk,https://www.nationaltrust.org.uk/harting-down,
482,The White Cliffs of Dover,367,0,Magnificent coastal site overlooking the English Channel,51.132205,1.339026,Langdon Cliffs; Upper Road,Dover,Kent,England,CT16 1HJ,London and South East,4.41304E+11,whitecliffs@nationaltrust.org.uk,https://www.nationaltrust.org.uk/the-white-cliffs-of-dover,
483,"Treasurer's House, Martock",334,1,Small medieval house,50.965801,-2.76586,--,Martock,Somerset,England,TA12 6JL,South West,4.41936E+11,treasurersmartock@nationaltrust.org.uk,https://www.nationaltrust.org.uk/treasurers-house-martock,
484,White Park Bay,5048,0,Beautiful stretch of golden sand on the North Antrim coast,55.230638,-6.4028506,--,--,County Antrim,Northern Ireland,--,Northern Ireland,4.42871E+11,northcoast@nationaltrust.org.uk,https://www.nationaltrust.org.uk/white-park-bay,
485,George Inn,139,1,Last remaining galleried inn in London,51.503799,-0.08904,The George Inn Yard; 77 Borough High Street,Southwark,London,England,SE1 1NH,London and South East,4.42074E+11,georgeinn@nationaltrust.org.uk,https://www.nationaltrust.org.uk/george-inn,
486,Boscastle,43,0,A sheltered natural inlet with an unspoilt harbour village,50.690974,-4.695761,--,--,Cornwall,England,PL35 0HD,South West,--,boscastle@nationaltrust.org.uk,https://www.nationaltrust.org.uk/boscastle,
487,Roseland,6133,0,"Discover secluded bays, magical creeks - a quieter pace of life",50.185857,-4.9680841,Parc Caragloose ranger base; Veryan,Truro,Cornwall,England,TR2 5PH,South West,4.41873E+11,roseland@nationaltrust.org.uk,https://www.nationaltrust.org.uk/roseland,
488,The Mournes,5037,0,The most famous of the mountains in the country,54.171137,-6.083736,The Mountains of Mourne,near Newcastle,County Down,Northern Ireland,--,Northern Ireland,4.42844E+11,mournes@nationaltrust.org.uk,https://www.nationaltrust.org.uk/the-mournes,
489,East Soar,6231,0,"A coastline of dramatic cliffs, open farmland and hidden sandy coves",50.2208852,-3.8274018,East Soar car park,near Malborough,Devon,England,TQ7 3DR,South West,4.41752E+11,eastsoar@nationaltrust.org.uk,https://www.nationaltrust.org.uk/east-soar,
490,"Beningbrough Hall, Gallery and Gardens",29,1,A place of reinvention; evolving gardens and changing art exhibitions. ,54.022099,-1.21315,Beningbrough,York,North Yorkshire,England,YO30 1DD,Yorkshire and North East,4.41904E+11,beningbrough@nationaltrust.org.uk,https://www.nationaltrust.org.uk/beningbrough-hall-gallery-and-gardens,
491,Greys Court,154,1,"A family home, delightful gardens and an idyllic setting",51.5452,-0.95151,Rotherfield Greys,Henley-on-Thames,Oxfordshire,England,RG9 4PG,London and South East,4.41492E+11,greyscourt@nationaltrust.org.uk,https://www.nationaltrust.org.uk/greys-court,
492,Clandon Park,79,1,Follow our progress on one of the UK's biggest heritage projects as we remake a remarkable ruin,51.253399,-0.50805,West Clandon,Guildford,Surrey,England,GU4 7RQ,London and South East,4.41483E+11,clandonpark@nationaltrust.org.uk,https://www.nationaltrust.org.uk/clandon-park,
493,Shalford Mill,293,1,18th-century watermill with well-preserved machinery,51.2192,-0.56645,Shalford,near Guildford,Surrey,England,GU4 8BS,London and South East,4.41484E+11,shalfordmill@nationaltrust.org.uk,https://www.nationaltrust.org.uk/shalford-mill,
494,575 Wandsworth Road,4504,1,An extraordinary home and an intriguing work of art,51.46979,-0.140628,575 Wandsworth Road; Lambeth,London,London,England,SW8 3JD,London and South East,--,575wandsworthroad@nationaltrust.org.uk,https://www.nationaltrust.org.uk/575-wandsworth-road,
495,Minnowburn,5036,0,"Close to the city, in the heart of the country",54.548434,-5.9526157,Edenderry Road,Belfast,County Down,Northern Ireland,BT8 8LE,Northern Ireland,4.42891E+11,belfast@nationaltrust.org.uk,https://www.nationaltrust.org.uk/minnowburn,
496,Sundon Hills Country Park,6195,0,One of the highest points in Bedfordshire,51.946487,-0.476063,Harlington Road,Upper Sundon,Bedfordshire,England,--,East of England,4.41583E+11,sundonhills@nationaltrust.org.uk,--,
497,Cotehele Mill,653,1,A Victorian watermill and workshops nestled in a wooded valley,50.492164,-4.233089,St Dominick,near Saltash,Cornwall,England,PL12 6TA,South West,4.41579E+11,cotehele@nationaltrust.org.uk,https://www.nationaltrust.org.uk/cotehele-mill,
498,Baddesley Clinton,21,1,"Discover a secluded, intimate estate set in the heart of the Forest of Arden with 500 years of fascinating and unexpected stories",52.343832,-1.7084634,Rising Lane,Baddesley Clinton,Warwickshire,England,B93 0DQ,Midlands,4.41565E+11,baddesleyclinton@nationaltrust.org.uk,https://www.nationaltrust.org.uk/baddesley-clinton,
499,Morven Park,6193,0,20 acres of peaceful parkland located in the heart of Potters Bar,51.700131,-0.174226,Hatfield Road,Potters Bar,Hertfordshire,England,EN6 1HS,East of England,4.47795E+11,morvenpark@nationaltrust.org.uk,https://www.nationaltrust.org.uk/morven-park,
500,Red House,2503,1,Iconic Arts and Crafts home of William and Jane Morris and the centre of the Pre-Raphaelite circle.,51.455623,0.13025478,Red House Lane,Bexleyheath,London,England,DA6 8JF,London and South East,4.42083E+11,red.house@nationaltrust.org.uk,https://www.nationaltrust.org.uk/red-house,
501,Allan Bank and Grasmere,5215,1,The loveliest spot that man hath ever found,54.460536,-3.029754,Allan Bank; Grasmere,Ambleside,Cumbria,England,LA22 9QB,North West,4.41539E+11,allanbank@nationaltrust.org.uk,https://www.nationaltrust.org.uk/allan-bank-and-grasmere,
502,Stoneacre,315,1,Medieval yeoman's house and garden,51.2533,0.58178,Otham,Maidstone,Kent,England,ME15 8RS,London and South East,4.41581E+11,stoneacre@nationaltrust.org.uk,https://www.nationaltrust.org.uk/stoneacre,
503,River Wey and Godalming Navigations and Dapdune Wharf,279,1,Tranquil waterway running for nearly 20 miles through the heart of Surrey,51.2421,-0.57808,Navigations Office and Dapdune Wharf; Wharf Road,Guildford,Surrey,England,GU1 4RR,London and South East,4.41484E+11,riverwey@nationaltrust.org.uk,https://www.nationaltrust.org.uk/river-wey-and-godalming-navigations-and-dapdune-wharf,
504,Lyveden,216,1,Intriguing Elizabethan lodge and moated garden,52.458401,-0.5502,--,near Oundle,Northamptonshire,England,PE8 5AT,Midlands,4.41832E+11,lyveden@nationaltrust.org.uk,https://www.nationaltrust.org.uk/lyveden,
505,Budlake Old Post Office,90007,1,Old village Post Office,50.789093,-3.4482353,Broadclyst; Killerton,Exeter,Devon,England,EX5 3LW,South West,4.41393E+11,budlakepostoffice@nationaltrust.org.uk,https://www.nationaltrust.org.uk/budlake-old-post-office,
506,Salcombe to Hope Cove,5123,0,"A coastline of dramatic cliffs, open farmland and sandy coves",50.231093,-3.839207,--,Salcombe,Devon,England,--,South West,4.41752E+11,salcombe@nationaltrust.org.uk,--,
507,Hawford Dovecote,164,1,16th-century half-timbered dovecote,52.242401,-2.22556,--,Hawford,Worcestershire,England,WR3 7SG,Midlands,4.41528E+11,hawforddovecote@nationaltrust.org.uk,https://www.nationaltrust.org.uk/hawford-dovecote,
508,Florence Court,133,1,Beautiful 18th-century home set on a sustainable estate and gardens,54.258301,-7.72989,--,Enniskillen,County Fermanagh,Northern Ireland,BT92 1DB,Northern Ireland,4.42866E+11,florencecourt@nationaltrust.org.uk,https://www.nationaltrust.org.uk/florence-court,
509,West Green House Garden,358,1,Celebrated garden with an intriguing collection of follies,51.3027,-0.9343,West Green,Hartley Wintney,Hampshire,England,RG27 8JB,London and South East,4.41253E+11,thevyne@nationaltrust.org.uk,https://www.nationaltrust.org.uk/west-green-house-garden,
510,Mottistone Gardens and Estate,233,1,Enchanting gardens set in a sheltered valley and surrounded by rolling downland,50.652447,-1.4283997,Mottistone,near Brighstone,Isle of Wight,England,PO30 4ED,London and South East,4.41984E+11,mottistonegardens@nationaltrust.org.uk,https://www.nationaltrust.org.uk/mottistone-gardens-and-estate,
511,Paycocke's House and Garden,257,1,A stunning Tudor merchant's house whose walls have more than a few stories to tell,51.87075,0.68338,25 West Street; Coggeshall,Colchester,Essex,England,CO6 1NS,East of England,4.41377E+11,paycockes@nationaltrust.org.uk,https://www.nationaltrust.org.uk/paycockes-house-and-garden,
512,Ickworth,182,1,An Italianate Palace in the heart of Suffolk,52.222136,0.6563212,The Rotunda; Horringer,Bury St Edmunds,Suffolk,England,IP29 5QE,East of England,4.41285E+11,ickworth@nationaltrust.org.uk,https://www.nationaltrust.org.uk/ickworth,
513,Dunwich Heath and Beach,117,0,A precious landscape on the Suffolk coast,52.25889,1.626715,Coastguard Cottages; Minsmere Road,Dunwich,Suffolk,England,IP17 3DJ,East of England,4.41729E+11,dunwichheath@nationaltrust.org.uk,https://www.nationaltrust.org.uk/dunwich-heath-and-beach,
514,The Courts Garden,97,1,Delightful English country garden,51.354401,-2.20101,Holt,near Bradford on Avon,Wiltshire,England,BA14 6RR,South West,4.41226E+11,courtsgarden@nationaltrust.org.uk,https://www.nationaltrust.org.uk/the-courts-garden,
515,Buscot Old Parsonage,58,1,Early 18th-century riverside house with small garden,51.679798,-1.66544,Buscot,Faringdon,Oxfordshire,England,SN7 8DQ,London and South East,4.41794E+11,buscot@nationaltrust.org.uk,https://www.nationaltrust.org.uk/buscot-old-parsonage,
516,Staunton Harold Church,312,1,"Imposing church built in 1653, with fine panelled interior",52.783401,-1.43658,Staunton Harold Estate,Ashby-de-la-Zouch,Leicestershire,England,LE65 1RW,Midlands,4.41333E+11,stauntonharold@nationaltrust.org.uk,https://www.nationaltrust.org.uk/staunton-harold-church,
517,Tintinhull Garden,331,1,"A place of floral beauty, tranquillity and innovation - a gardener's garden paradise.",50.975237,-2.709428,Farm Street; Tintinhull,Yeovil,Somerset,England,BA22 8PZ,South West,4.41458E+11,tintinhull@nationaltrust.org.uk,https://www.nationaltrust.org.uk/tintinhull-garden,
518,Hill Top,174,1,Beatrix Potter's 17th-century farmhouse: a time-capsule of her life,54.351101,-2.97054,Near Sawrey; Hawkshead,Ambleside,Cumbria,England,LA22 0LF,North West,4.41539E+11,hilltop@nationaltrust.org.uk,https://www.nationaltrust.org.uk/hill-top,
519,Llanerchaeron,208,1,"An elegant Georgian villa, set in the wooded Aeron valley. Remarkably unaltered for over 200 years, this self-sufficient estate includes a farm, walled gardens and lake",52.218201,-4.22546,Ciliau Aeron,near Aberaeron,Ceredigion,Wales,SA48 8DG,Wales,4.41546E+11,llanerchaeron@nationaltrust.org.uk,https://www.nationaltrust.org.uk/llanerchaeron,
520,Penbryn,6150,0,One of Ceredigion's best-kept secrets,52.139237,-4.491561,Sarnau,near Cardigan,Ceredigion,Wales,SA44 6QL,Wales,4.41546E+11,penbryn@nationaltrust.org.uk,https://www.nationaltrust.org.uk/penbryn,
521,Bath Assembly Rooms,25,1,Elegant public rooms at the heart of fashionable 18th-century Bath life,51.385799,-2.36123,Bennett Street,Bath,Somerset,England,BA1 2QH,South West,4.41225E+11,bathassemblyrooms@nationaltrust.org.uk,https://www.nationaltrust.org.uk/bath-assembly-rooms,
522,The Dodman,6134,0,"Towering above the sea, this historic headland offers dramatic, panoramic views",50.21985,-4.803553,Penare car park; Penare,St Austell,Cornwall,England,PL26 6NY,South West,4.41873E+11,thedodman@nationaltrust.org.uk,https://www.nationaltrust.org.uk/the-dodman,
523,Bideford Bay and Hartland,5060,0,Miles of unspoilt coastline that inspired Rudyard Kipling,51.013201,-4.443378,Rangers office; Brownsham,Hartland nr Bideford,Devon,England,EX39 6AN,South West,4.41237E+11,northdevon@nationaltrust.org.uk,https://www.nationaltrust.org.uk/bideford-bay-and-hartland,
524,Mr Straw's House,319,1,"Ordinary house, extraordinary home",53.3148,-1.11243,5-7 Blyth Grove,Worksop,Nottinghamshire,England,S81 0JG,Midlands,4.41909E+11,mrstrawshouse@nationaltrust.org.uk,https://www.nationaltrust.org.uk/mr-straws-house,
525,Witley and Milford Commons,5351,0,A rich and varied landscape buzzing with wildlife,51.155602,-0.66853,Haslemere Road,Witley,Surrey,England,GU8 5QA,London and South East,4.41429E+11,witley@nationaltrust.org.uk ,https://www.nationaltrust.org.uk/witley-and-milford-commons,
526,Ogwen Cottage,6235,0,Ranger base and outdoor centre nestled between the dramatic Carneddau and Glyderau mountain ranges ,53.123328,-4.018443,Ogwen Cottage; Nant Ffrancon,Bethesda,Gwynedd,Wales,LL57 3LZ,Wales,4.41249E+11,ogwen@nationaltrust.org.uk,https://www.nationaltrust.org.uk/ogwen-cottage,
527,Hardy Monument,167,1,Monument to Vice-Admiral Hardy,50.686199,-2.54871,Black Down,Portesham,Dorset,England,DT2 9HY,South West,4.41305E+11,hardymonument@nationaltrust.org.uk,https://www.nationaltrust.org.uk/hardy-monument,
528,Morwenstow,6229,0,A fascinating area of coast steeped in a history dominated by Parson Hawker,50.908706,-4.553768,near Bude,--,Cornwall,England,--,South West,4.41209E+11,morwenstow@nationaltrust.org.uk,https://www.nationaltrust.org.uk/morwenstow,
529,The Firs,6248,1,Birthplace of Sir Edward Elgar,52.1989833,-2.2834974,Elgar's Birthplace; Crown East Lane,Lower Broadheath,Worcestershire,England,WR2 6RH,Midlands,4.41905E+11,the.firs@nationaltrust.org.uk,https://www.nationaltrust.org.uk/the-firs,
530,Tatton Park,327,1,"An historical estate with a neo-classical mansion, 50 acres of landscaped Gardens, 1000 acres of deer Park, a rare breed farm and medieval Old Hall.",53.327599,-2.37039,--,Knutsford,Cheshire,England,WA16 6QN,North West,4.41625E+11,tatton@cheshireeast.gov.uk,https://www.nationaltrust.org.uk/tatton-park,
531,Hindhead Commons and the Devil's Punch Bowl,106,0,Spectacular views and walks in the Surrey Hills countryside,51.113998,-0.72858,London Road,Hindhead,Surrey,England,GU26 6AB,London and South East,4.41429E+11,--,https://www.nationaltrust.org.uk/hindhead-commons-and-the-devils-punch-bowl,
532,Ringmore and Kingston,6082,0,"A secluded, unspolit beach at Ayrmer",50.295425,-3.90933,Ringmore,Kingsbridge,Devon,England,TQ7,South West,4.41752E+11,southdevon@nationaltrust.org.uk,--,
533,Hardwick,161,1,An Elizabethan masterpiece,53.167801,-1.30813,Doe Lea,Chesterfield,Derbyshire,England,S44 5QJ,Midlands,4.41247E+11,hardwickhall@nationaltrust.org.uk,https://www.nationaltrust.org.uk/hardwick-hall,
534,Croome,101,1,"Expect the unexpected. Incredible innovation, colonial links, devastating loss, remarkable survival and magnificent restoration all in one place.",52.105154,-2.1662722,near High Green,Worcester,Worcestershire,England,WR8 9DW,Midlands,4.41905E+11,croome@nationaltrust.org.uk,https://www.nationaltrust.org.uk/croome,
535,Tudor Merchant's House,339,1,Time travel to Tudor Tenby and discover what life was like at our 15th century merchant's house.,51.671299,-4.69714,Quay Hill,Tenby,Pembrokeshire,Wales,SA70 7BX,Wales,4.41835E+11,tudormerchantshouse@nationaltrust.org.uk,https://www.nationaltrust.org.uk/tudor-merchants-house,
536,Pitstone Windmill,262,1, A rare and striking example of an early form of post mill,51.831402,-0.62699,--,Ivinghoe,Buckinghamshire,England,LU7 9ER,London and South East,4.41443E+11,pitstonemill@nationaltrust.org.uk,https://www.nationaltrust.org.uk/pitstone-windmill,
537,Keld Chapel,5220,1,Remote medieval chapel,54.523859,-2.691178,Keld Lane,Shap,Cumbria,England,CA10 3NW,North West,4.41768E+11,keldchapel@nationaltrust.org.uk,https://www.nationaltrust.org.uk/keld-chapel,
538,Canons Ashby,62,1,"A tranquil Tudor manor house set in rare terraced gardens, with the 'antient' Dryden family at its heart",52.149502,-1.16034,--,near Daventry,Northamptonshire,England,NN11 3SD,Midlands,4.41328E+11,canonsashby@nationaltrust.org.uk,https://www.nationaltrust.org.uk/canons-ashby,
539,Limpsfield Common,6127,0,Ancient common on the Greensand Ridge where time comes home to sleep,51.250685,0.042615,Limpsfield,Oxted,Surrey,England,RH8 0TW,London and South East,4.41343E+11,limpsfieldcommon@nationaltrust.org.uk,https://www.nationaltrust.org.uk/limpsfield-common,
540,Horner Wood,6240,0,"One of the largest and most beautiful ancient oak woods in Britain, a National Nature Reserve nestled on the Holnicote Estate.",51.184803,-3.585608,on Exmoor; near Minehead,--,Somerset,England,--,South West,4.41644E+11,hornerwood@nationaltrust.org.uk,https://www.nationaltrust.org.uk/horner-wood,
541,Arnside and Silverdale,5159,0,A place to explore miles of coastal countryside from clifftops to woodland and wildflower meadows.,54.189403,-2.844373,--,near Arnside,Cumbria,England,--,North West,4.41525E+11,morecambebayproperties@nationaltrust.org.uk,https://www.nationaltrust.org.uk/arnside-and-silverdale,
542,Springhill,307,1,A pretty 17th-century plantation house with walled garden,54.685699,-6.65569,20 Springhill Road; Moneymore,Magherafelt,County Londonderry,Northern Ireland,BT45 7NQ,Northern Ireland,4.42887E+11,springhill@nationaltrust.org.uk,https://www.nationaltrust.org.uk/springhill,
543,Hadrian's Wall and Housesteads Fort,157,0,Roman wall running through an often wild landscape,55.013199,-2.32881,Near Bardon Mill,Hexham,Northumberland,England,NE47 6NN,Yorkshire and North East,4.41434E+11,housesteads@nationaltrust.org.uk,https://www.nationaltrust.org.uk/hadrians-wall-and-housesteads-fort,
544,Crantock Beach,6230,0,"An expanse of golden sand, great for sandcastles and surfing",50.407092,-5.113636,North Cornwall coast,near Newquay,Cornwall,England,--,South West,4.41209E+11,crantockbeach@nationaltrust.org.uk,https://www.nationaltrust.org.uk/crantock-beach,
545,Spyway,5287,0,Towering sea cliffs and grasslands rich in wild flowers,50.6065,-2.005599,Langton Matravers,near Swanage,Dorset,England,BH19 3HG,South West,4.41929E+11,purbeck@nationaltrust.org.uk,https://www.nationaltrust.org.uk/spyway,
546,The Kymin,69,1,Charming 18th-century Round House and Naval Temple,51.809101,-2.68323,The Round House; The Kymin,Monmouth,Monmouthshire,Wales,NP25 3SF,Wales,4.41601E+11,kymin@nationaltrust.org.uk,https://www.nationaltrust.org.uk/kymin,
547,Charlecote Park,71,1,A Victorian home set in landscaped deer park,52.205101,-1.62103,Wellesbourne,Warwick,Warwickshire,England,CV35 9ER,Midlands,4.41789E+11,charlecotepark@nationaltrust.org.uk,https://www.nationaltrust.org.uk/charlecote-park,
548,Speke Hall,306,1,"A green oasis with a rare Tudor house at its heart, surrounded by beautiful gardens, woodland and glorious views over the River Mersey.",53.336498,-2.87353,The Walk,Speke,Liverpool,England,L24 1XD,North West,4.41514E+11,spekehall@nationaltrust.org.uk,https://www.nationaltrust.org.uk/speke-hall-garden-and-estate,
549,Clouds Hill,85,1,The rural retreat of T. E. Lawrence,50.717878,-2.251675,King George V Road; Bovington,near Wareham,Dorset,England,BH20 7NQ,South West,4.41929E+11,cloudshill@nationaltrust.org.uk,https://www.nationaltrust.org.uk/clouds-hill,
550,Orford Ness National Nature Reserve,249,0,"Internationally important coastal nature reserve, with a fascinating 20th-century military history",52.087399,1.54772,Quay Street; Orford,Woodbridge,Suffolk,England,IP12 2NU,East of England,4.41394E+11,orfordness@nationaltrust.org.uk,https://www.nationaltrust.org.uk/orford-ness-national-nature-reserve,
551,Porthcurno,6143,0,Exceptionally beautiful beach on a turquoise bay backed by granite cliffs.,50.0473,-5.6558,--,Porthcurno,Cornwall,England,TR19 6JX,South West,4.41737E+11,simon.hocking@nationaltrust.org.uk,https://www.nationaltrust.org.uk/porthcurno,
552,Hydon's Ball and Heath,6126,0,Memorial to Octavia Hill overlooking the Surrey Hills Area of Outstanding Natural Beauty,51.152508,-0.6014,Salt Lane,Godalming,Surrey,England,GU8 4BB,London and South East,4.41429E+11,hindhead@nationaltrust.org.uk,https://www.nationaltrust.org.uk/hydons-ball-and-heath,
553,Cape Cornwall,6100,0,The distinctive headland juts out into the ocean where two great bodies of water meet. Part of the Tin Coast and Cornish Mining World Heritage Site.,50.122658,-5.703191,Cape Cornwall Road; St Just,Penzance,Cornwall,England,TR19 7NN,South West,4.41737E+11,tincoast@nationaltrust.org.uk,https://www.nationaltrust.org.uk/cape-cornwall,
554,Carneddau and Glyderau,6011,0,Experience the wildest scenery that Snowdonia has to offer,53.123603,-4.020383,"National Trust, Bwthyn Ogwen; Nant Ffrancon",Bethesda,Gwynedd,Wales,LL57 3LZ,Wales,4.41249E+11,eryri@nationaltrust.org.uk,https://www.nationaltrust.org.uk/carneddau-and-glyderau,
555,Marsden Moor Estate,223,0,Take a walk on the wild side and enjoy the rugged moorland landscape.,53.601845,-1.93045,"Marsden Moor Office and Information Room; The Old Goods Yard, Station Road",Marsden,West Yorkshire,England,HD7 6DH,Yorkshire and North East,4.41485E+11,marsdenmoor@nationaltrust.org.uk,https://www.nationaltrust.org.uk/marsden-moor-estate,
556,Dunstable Downs and the Whipsnade Estate,118,0,"Enjoy your day your way. Relax, exercise or play with spectacular views and a seemingly endless sky in an Area of Outstanding Natural Beauty",51.865538,-0.537432,Whipsnade Road,Dunstable,Bedfordshire,England,LU6 2GY,East of England,4.41583E+11,dunstabledowns@nationaltrust.org.uk,https://www.nationaltrust.org.uk/dunstable-downs-and-whipsnade-estate,
557,Wimpole Estate,375,1,"A working estate still guided by the seasons, with an impressive mansion, parkland, gardens and Home Farm",52.1400038,-0.0488461,Arrington,Royston,Cambridgeshire,England,SG8 0BW,East of England,4.41223E+11,wimpolehall@nationaltrust.org.uk,https://www.nationaltrust.org.uk/wimpole-estate,
558,Woodchester Park,383,1,Beautiful secluded wooded valley,51.710999,-2.28751,Nympsfield,near Stonehouse,Gloucestershire,England,GL10 3TS,South West,4.41453E+11,cotswolds@nationaltrust.org.uk,https://www.nationaltrust.org.uk/woodchester-park,
559,Bradley,48,1,"Delightful medieval manor house, set in woodland and meadows",50.5256,-3.62486,Totnes road,Newton Abbot,Devon,England,TQ12 1LX,South West,4.41804E+11,bradley@nationaltrust.org.uk,https://www.nationaltrust.org.uk/bradley,
560,Sudbury Hall and the National Trust Museum of Childhood,321,1,Late 17th-century house with lavish interiors and the Museum of Childhood,52.886299,-1.76674,Main Road; Sudbury,Ashbourne,Derbyshire,England,DE6 5HT,Midlands,4.41284E+11,sudburyhall@nationaltrust.org.uk,https://www.nationaltrust.org.uk/sudbury-hall-and-the-national-trust-museum-of-childhood,
561,Stackpole Centre,4552,0,Award-winning centre for educational and corporate needs as well as family holidays ,51.622639,-4.92739,Old Home Farm Yard; Stackpole,near Pembroke,Pembrokeshire,Wales,SA71 5DQ,Wales,--,stackpole.bookings@nationaltrust.org.uk,https://www.nationaltrust.org.uk/stackpole-centre,
562,Lansallos,6097,0,A wild and quiet Cornish landscape,50.33766,-4.5681627,Lansallos,Looe,Cornwall,England,PL13 2PX,South West,4.41727E+11,southeastcornwall@nationaltrust.org.uk,https://www.nationaltrust.org.uk/lansallos,
563,Marloes Sands and Mere,5105,0,"Escape to the Marloes Peninsula, a hidden gem nestled on the very western edge of Pembrokeshire. Stunning seascapes and a wealth of wildlife are waiting to greet you.",51.726572,-5.218818,Marloes Peninsula,--,Pembrokeshire,Wales,SA62,Wales,4.41438E+11,marloessands@nationaltrust.org.uk ,https://www.nationaltrust.org.uk/marloes-sands-and-mere,
564,Carlyle's House,64,1,The Chelsea home of a Victorian literary couple,51.484326,-0.170021,24 Cheyne Row,Chelsea,London,England,SW3 5HL,London and South East,4.42074E+11,carlyleshouse@nationaltrust.org.uk,https://www.nationaltrust.org.uk/carlyles-house,
565,Outridge Farm,6073,0,A traditional English landscape,51.253806,0.100372,Piper's Green Road; Brasted,Westerham,Kent,England,TN16 1ND,London and South East,4.41733E+11,kentcountryside@nationaltrust.org.uk,--,
566,Chastleton House,73,1,"Discover the myths and memories of an ancient country house, a compelling time capsule of 400 years of family life",51.960098,-1.63895,Chastleton,near Moreton-in-Marsh,Oxfordshire,England,GL56 0SU,London and South East,4.41609E+11,chastleton@nationaltrust.org.uk,https://www.nationaltrust.org.uk/chastleton-house,
567,Oakhurst Cottage,244,1,A glimpse into England's rural past,51.132801,-0.62291,Hambledon,near Godalming,Surrey,England,GU8 4HF,London and South East,4.41483E+11,oakhurstcottage@nationaltrust.org.uk,https://www.nationaltrust.org.uk/oakhurst-cottage,
568,Mwnt,6146,0,Beautiful secluded bay with a sandy beach,52.1354,-4.64063,--,near Cardigan,--,Wales,SA43 1QH,Wales,4.41546E+11,mwnt@nationaltrust.org.uk,https://www.nationaltrust.org.uk/mwnt,
569,Wasdale,353,0,Towering mountains and the deepest lake in England,54.4561,-3.2626,Lake Head car park,near Seascale,Cumbria,England,CA20 1EX,North West,4.41947E+11,wasdale@nationaltrust.org.uk,https://www.nationaltrust.org.uk/wasdale,
570,Winchester City Mill,377,1,Working watermill in the heart of Winchester,51.062,-1.30771,Bridge Street,Winchester,Hampshire,England,SO23 9BH,London and South East,4.41963E+11,winchestercitymill@nationaltrust.org.uk,https://www.nationaltrust.org.uk/winchester-city-mill,
571,Devil's Dyke,5204,0,A legendary beauty spot on the South Downs,50.8845954,-0.2123548,Devil's Dyke,Nr Brighton,West Sussex,England,--,London and South East,4.41274E+11,devilsdyke@nationaltrust.org.uk,https://www.nationaltrust.org.uk/devils-dyke,
572,Bredon Barn,47,1,Large medieval threshing barn,52.030201,-2.11954,Bredon,near Tewkesbury,Worcestershire,England,GL20 7EG,South West,4.41453E+11,cotswolds@nationaltrust.org.uk,https://www.nationaltrust.org.uk/bredon-barn,
573,Cley Hill,6109,0,Distinctive landmark rich in wildlife and archaeology with a tremendous panorama,51.20299,-2.232584,Cley Hill; Corsley,Warminster,Wiltshire,England,BA12 7QU,South West,4.41673E+11,wiltshire.countryside@nationaltrust.org.uk,https://www.nationaltrust.org.uk/cley-hill,
574,Saltram,289,1,"A house full of treasures, stories & intrigue. A secret garden to lose yourself in, plus a park that cyclists, walkers, & our four legged friends love.",50.3815,-4.08548,Plympton,Plymouth,Devon,England,PL7 1UH,South West,4.41752E+11,saltram@nationaltrust.org.uk,https://www.nationaltrust.org.uk/saltram,
575,Cliveden,82,1,Glorious gardens and woodlands overlooking the River Thames,51.556596,-0.681394,Cliveden Road; Taplow,Maidenhead,Buckinghamshire,England,SL1 8NS,London and South East,4.41629E+11,cliveden@nationaltrust.org.uk,https://www.nationaltrust.org.uk/cliveden,
576,Hinton Ampner,175,1,Elegant country house with highly distinctive gardens,51.044591,-1.151521,Hinton Ampner,near Alresford,Hampshire,England,SO24 0LA,London and South East,4.41963E+11,hintonampner@nationaltrust.org.uk,https://www.nationaltrust.org.uk/hinton-ampner,
577,Sutton House and Breaker's Yard,324,1,A fascinating Tudor house at the heart of a vibrant community,51.548,-0.04921,2 and 4 Homerton High Street,Hackney,London,England,E9 6JQ,London and South East,4.4209E+11,suttonhouse@nationaltrust.org.uk,https://www.nationaltrust.org.uk/sutton-house-and-breakers-yard,
578,Gunwalloe,6215,0,"A site of archaeological importance surrounded by dunes, beaches, a medieval church and a reedbed rich in wildlife.",50.041934,-5.2701813,Gunwalloe; near Helston,--,Cornwall,England,TR12 7QE,South West,4.41327E+11,gunwalloe@nationaltrust.org.uk,https://www.nationaltrust.org.uk/gunwalloe,
579,Attingham Park,18,1,An 18th-century estate for all seasons with 200 acres of parkland and Regency Mansion,52.685842,-2.671193,Atcham,Shrewsbury,Shropshire,England,SY4 4TP,Midlands,4.41744E+11,attingham@nationaltrust.org.uk,https://www.nationaltrust.org.uk/attingham-park,
580,Birling Gap and the Seven Sisters,5125,0,"A popular coastal hub, where the South Downs meet the sea",50.742905,0.201166,East Dean,near Eastbourne,East Sussex,England,BN20 0AB,London and South East,4.41323E+11,birlinggap@nationaltrust.org.uk,https://www.nationaltrust.org.uk/birling-gap-and-the-seven-sisters,
581,Mount Grace Priory,235,1,Ruin of a 14th-century Carthusian priory,54.380402,-1.30984,Staddle Bridge,Northallerton,North Yorkshire,England,DL6 3JG,Yorkshire and North East,4.4161E+11,mountgracepriory@nationaltrust.org.uk,https://www.nationaltrust.org.uk/mount-grace-priory,
582,Little Dartmouth,6080,0,"A gentle coastal landscape west of Dartmouth with wonderful views, wild flowers and the ruins of a Civil War encampment",50.333683,-3.57502,Stoke Fleming,Dartmouth,Devon,England,TQ6 0JP,South West,4.41752E+11,littledartmouth@nationaltrust.org.uk,https://www.nationaltrust.org.uk/little-dartmouth,
583,Baggy Point,4528,0,The impressive headland at Croyde with crashing waves and dramatic cliffs,51.136017,-4.245381,Moor Lane,Croyde,Devon,England,EX33 1PA,South West,4.41272E+11,northdevon@nationaltrust.org.uk,https://www.nationaltrust.org.uk/baggy-point,
584,Copt Hall Marshes,5327,0,Explore the beautiful Blackwater Estuary,51.795619,0.869801,Copt Hall Lane,Little Wigborough,Essex,England,CO5 7RD,East of England,--,copthall@nationaltrust.org.uk,https://www.nationaltrust.org.uk/copt-hall-marshes,
585,Plas yn Rhiw,264,1,Delightful manor house with ornamental garden and wonderful views,52.823399,-4.616,Rhiw,Pwllheli,Gwynedd,Wales,LL53 8AB,Wales,4.41759E+11,plasynrhiw@nationaltrust.org.uk,https://www.nationaltrust.org.uk/plas-yn-rhiw,
586,Hare Hill,166,1,"A tranquil wooded garden, surrounded by historic parkland, with a delightful walled garden at its heart.",53.283518,-2.191945,Over Alderley,Macclesfield,Cheshire,England,SK10 4PY,North West,4.41626E+11,harehill2@nationaltrust.org.uk,https://www.nationaltrust.org.uk/hare-hill,
587,Pepperbox Hill,6107,0,Chalk ridge landmark with far-reaching views and rich natural heritage,51.022227,-1.698016,"Pepperbox Hill; A36, 6 miles south of Salisbury",Salisbury,Wiltshire,England,SP5 3QL,South West,4.41673E+11,wiltshire.countryside@nationaltrust.org.uk,https://www.nationaltrust.org.uk/pepperbox-hill,
588,Great Coxwell Barn,151,1,13th-century stone barn,51.642799,-1.61404,Great Coxwell,Faringdon,Oxfordshire,England,SN7 7LZ,London and South East,4.41794E+11,greatcoxwellbarn@nationaltrust.org.uk,https://www.nationaltrust.org.uk/great-coxwell-barn,
589,Birmingham Back to Backs,2506,1,"Carefully restored, atmospheric 19th-century courtyard of working people's houses",52.473999,-1.8963,55-63 Hurst Street/50-54 Inge Street,Birmingham,West Midlands,England,B5 4TE,Midlands,4.41217E+11,backtobacks@nationaltrust.org.uk,https://www.nationaltrust.org.uk/birmingham-back-to-backs,
590,Attingham Park Estate: Cronkhill,2507,1,One of the first and finest examples of John Nash's Italianate villa designs,52.669399,-2.68733,near Atcham,Shrewsbury,Shropshire,England,SY5 6JP,Midlands,4.41744E+11,cronkhill@nationaltrust.org.uk,https://www.nationaltrust.org.uk/attingham-park-estate-cronkhill,
591,Maidenhead and Cookham Commons,6119,0,An historic landscape full of natural beauty,51.559538,-0.714663,Pinkneys Green; Pinkneys Drive,Maidenhead,Berkshire,England,SL6 6QD,London and South East,--,maidenheadandcookham@nationaltrust.org.uk,https://www.nationaltrust.org.uk/maidenhead-and-cookham-commons,
592,Farnborough Hall,125,1,Honey-coloured stone house with exquisite plasterwork and fine landscaped garden,52.136902,-1.36541,Farnborough,near Banbury,Warwickshire,England,OX17 1DU,Midlands,4.41296E+11,farnboroughhall@nationaltrust.org.uk,https://www.nationaltrust.org.uk/farnborough-hall,
593,Stourhead,317,1,Palladian house and world-famous landscape garden,51.108601,-2.31469,--,near Mere,Wiltshire,England,BA12 6QD,South West,4.41748E+11,stourhead@nationaltrust.org.uk,https://www.nationaltrust.org.uk/stourhead,
594,Northey Island,5330,0,The closest you'll get to true wilderness in Essex,51.718012,0.702822,--,Maldon,Essex,England,CM9 6PP,East of England,--,northeyisland@nationaltrust.org.uk,https://www.nationaltrust.org.uk/northey-island,
595,White Horse Hill,5147,0,"Ancient rolling downland, home to an enigmatic chalk hill figure",51.577465,-1.567032,--,Uffington,Oxfordshire,England,SN7 7UK,London and South East,4.41794E+11,whitehorsehill@nationaltrust.org.uk,https://www.nationaltrust.org.uk/white-horse-hill,
596,Lodge Park and Sherborne Park Estate,212,1,"England's only surviving 17th-century grandstand, within a tranquil Cotswold estate full of diverse wildlife",51.8069,-1.79225,Sherborne Park Estate; Aldsworth,near Cheltenham,Gloucestershire,England,GL54 3DT,South West,4.41452E+11,Cotswolds@nationaltrust.org.uk,https://www.nationaltrust.org.uk/lodge-park-and-sherborne-park-estate,
597,Abinger Roughs and Netley Park,6120,0,"Hidden woods with ancient trees and flower-sprinkled grasslands, just off the North Downs and Pilgrims Ways",51.22138228,-0.43698789,NT Car park on White Downs Lane,Abinger Hammer,Surrey,England,RH5 6QS (nearest postcode),London and South East,--,--,https://www.nationaltrust.org.uk/abinger-roughs-and-netley-park,
598,Chirk Castle,76,1,Magnificent medieval fortress of the Welsh Marches,52.935902,-3.08353,--,Chirk,Wrexham,Wales,LL14 5AF,Wales,4.41692E+11,chirkcastle@nationaltrust.org.uk,https://www.nationaltrust.org.uk/chirk-castle,
599,Glenoe,6114,0,A beautiful waterfall nestling in the glens of Antrim,54.799617,-5.832079,Waterfall Road,Gleno,County Antrim,Northern Ireland,BT40 3LE,Northern Ireland,4.42891E+11,minnowburn@nationaltrust.org.uk,https://www.nationaltrust.org.uk/glenoe,
600,South Milton Sands,794,0,"A long sweep of golden sand and rock pools, with crystal clear waters and iconic rock archway",50.259597,-3.857038,Thurlestone,near Kingsbridge,Devon,England,TQ7 3JY,South West,4.41752E+11,southmiltonsands@nationaltrust.org.uk,https://www.nationaltrust.org.uk/south-milton-sands,
601,Minchinhampton and Rodborough Commons,5107,0,Rolling hills and open spaces above the Stroud Valleys and Severn estuary,51.707547,-2.211243,near Stroud; Gloucestershire,--,Gloucestershire,England,--,South West,4.41453E+11,cotswolds@nationaltrust.org.uk,https://www.nationaltrust.org.uk/minchinhampton-and-rodborough-commons,
602,Erddig,124,1,"Explore a much-loved home, garden and estate filled with the stories of a family and their servants.",53.027302,-3.00296,--,--,Wrexham,Wales,LL13 0YT,Wales,4.41978E+11,erddig@nationaltrust.org.uk,https://www.nationaltrust.org.uk/erddig,
603,Finch Foundry,130,1,The last working water-powered forge in England,50.730202,-3.92589,Sticklepath,Okehampton,Devon,England,EX20 2NW,South West,4.41838E+11,finchfoundry@nationaltrust.org.uk,https://www.nationaltrust.org.uk/finch-foundry,
604,The Beatles' Childhood Homes,2504,1,"A combined tour of 'Mendips' and 20 Forthlin Road, Liverpool",53.376751,-2.880458,--,Woolton and Allerton,Liverpool,England,--,North West,4.43442E+11,thebeatleshomes@nationaltrust.org.uk,https://www.nationaltrust.org.uk/beatles-childhood-homes,
605,Kynance Cove,6226,0,"A tidal beach for the adventurous, famous for its white sand, turquoise sea and rock stacks. Very busy in the summer holidays. ",49.97421,-5.2251121,Kynance Cove; The Lizard,Nr. Helston,Cornwall,England,TR12 7PJ,South West,4.41326E+11,kynancecove@nationaltrust.org.uk,https://www.nationaltrust.org.uk/kynance-cove,
606,Brownstone and Coleton Camp,5203,0,Rugged and captivating stretch of coast,50.338755,-3.547343,--,--,Devon,England,--,South West,4.41804E+11,coletoncamp@nationaltrust.org.uk,https://www.nationaltrust.org.uk/brownstone-and-coleton-camp,
607,Eskdale and Duddon Valley,6187,0,Valleys of many delights,54.353694,-3.190045,--,--,Cumbria,England,--,North West,4.41947E+11,eskdaleandduddon@nationaltrust.org.uk,https://www.nationaltrust.org.uk/eskdale-and-duddon-valley,
608,Borrowdale and Derwent Water,38,0,Spectacular and varied lakeland landscape around Derwent Water,54.523286,-3.148592,--,near Keswick,Cumbria,England,--,North West,4.41769E+11,borrowdale@nationaltrust.org.uk,https://www.nationaltrust.org.uk/borrowdale-and-derwent-water,
609,Porthdinllaen,5201,0,An old fishing village perched on the end of a thin ribbon of land stretching into the Irish Sea,52.942939,-4.567633,Morfa Nefyn,--,Gwynedd,Wales,LL53 6DA,Wales,4.41759E+11,llyn@nationaltrust.org.uk,https://www.nationaltrust.org.uk/porthdinllaen,
610,Lantic Bay,6222,0,"Large shingly beach on a beautiful bay, great spot for paddling and picnicking, well worth the climb back up.",50.333005,-4.6013886,near Polruan,--,Cornwall,England,PL23 1NP,South West,4.41727E+11,lanticbay@nationaltrust.org.uk,https://www.nationaltrust.org.uk/lantic-bay,
611,Clevedon Court,84,1,Outstanding 14th-century manor house and 18th-century terraced garden,51.439657,-2.831597,Tickenham Road,Clevedon,North Somerset,England,BS21 6QU,South West,4.41276E+11,clevedoncourt@nationaltrust.org.uk,https://www.nationaltrust.org.uk/clevedon-court,
612,Chedworth Roman Villa,74,1,Cradled in a beautiful Cotswold valley rest the remains of one of the grandest Roman villas in Britain,51.819401,-1.92295,Yanworth,near Cheltenham,Gloucestershire,England,GL54 3LJ,South West,4.41243E+11,chedworth@nationaltrust.org.uk,https://www.nationaltrust.org.uk/chedworth-roman-villa,
613,Islandmagee,5029,0,A haven on the east coast of County Antrim,54.847016,-5.7272294,Portmuck Road,Islandmagee,County Antrim,Northern Ireland,BT40 3TP,Northern Ireland,4.42891E+11,belfast@nationaltrust.org.uk,https://www.nationaltrust.org.uk/islandmagee,
614,Gawthorpe Hall,138,1,An Elizabethan gem in the heart of industrial Lancashire ,53.803799,-2.29093,Burnley Road; Padiham,near Burnley,Lancashire,England,BB12 8UA,North West,4.41283E+11,gawthorpehall@nationaltrust.org.uk,https://www.nationaltrust.org.uk/gawthorpe-hall,
615,Skenfrith Castle,301,1,Remains of an early 13th-century fortress,51.8778,-2.78942,Skenfrith,near Abergavenny,Monmouthshire,Wales,NP7 8UH,Wales,4.41875E+11,skenfrithcastle@nationaltrust.org.uk,https://www.nationaltrust.org.uk/skenfrith-castle,
616,Moseley Old Hall,231,1,An atmospheric Elizabethan farmhouse that saved a King,52.635101,-2.10463,Moseley Old Hall Lane; Fordhouses,Wolverhampton,Staffordshire,England,WV10 7HY,Midlands,4.41903E+11,moseleyoldhall@nationaltrust.org.uk,https://www.nationaltrust.org.uk/moseley-old-hall,
617,Eggardon Hill,5015,0,Iron Age hill fort and downland with views across the Marshwood Vale to the coast,50.748316,-2.644877,Nr Askerwell,Bridport,Dorset,England,--,South West,4.41297E+11,westdorset@nationaltrust.org.uk,https://www.nationaltrust.org.uk/eggardon-hill,
618,Parke,5116,0,A peaceful retreat set within the beautiful Devon countryside,50.594858,-3.689714,--,near Bovey Tracey,Devon,England,TQ13 9JQ,South West,4.41627E+11,parke@nationaltrust.org.uk,https://www.nationaltrust.org.uk/parke,
619,Craflwyn and Beddgelert,6015,0,Unwind amongst the wooded foothills of Snowdon,53.019931,-4.088592,--,near Beddgelert,Gwynedd,Wales,LL55 4NG,Wales,4.41767E+11,eryri@nationaltrust.org.uk,https://www.nationaltrust.org.uk/craflwyn-and-beddgelert,
620,White Barrow,6112,0,Well preserved Neolithic long barrow,51.220798,-1.9543,--,Tilshead,Wiltshire,England,SP3 4RX,South West,4.41673E+11,wiltshire.countryside@nationaltrust.org.uk,https://www.nationaltrust.org.uk/white-barrow,
621,Dover's Hill,5095,0,"A natural amphitheatre on a spur of the Cotswolds, with views over the Vale of Evesham",52.053722,-1.803076,Chipping Campden,--,Gloucestershire,England,--,South West,4.41452E+11,Cotswolds@nationaltrust.org.uk,https://www.nationaltrust.org.uk/dovers-hill,
